{"type": "FeatureCollection", "features": [{"type": "Feature", "id": 254207917, "geometry": {"type": "Point", "coordinates": [0.539876, 42.587167]}, "properties": {"amenity": "bar", "name": "Rem\u00e1scaro Apr\u00e8s-ski"}}, {"type": "Feature", "id": 446063929, "geometry": {"type": "Point", "coordinates": [0.521716, 42.604177]}, "properties": {"amenity": "bar", "check_date": "2025-03-14", "contact:phone": "+34 974 55 11 85", "name": "El Veedor de Viandas"}}, {"type": "Feature", "id": 446064081, "geometry": {"type": "Point", "coordinates": [0.521879, 42.605163]}, "properties": {"amenity": "bar", "name": "Hotel La Solana", "tourism": "hotel"}}, {"type": "Feature", "id": 850030038, "geometry": {"type": "Point", "coordinates": [0.602387, 42.800435]}, "properties": {"addr:city": "Bagn\u00e8res-de-Luchon", "addr:postcode": "31110", "addr:street": "All\u00e9e du Corps Franc Pommi\u00e8s", "amenity": "bar", "name": "La guinguette du Lac de Badech"}}, {"type": "Feature", "id": 1360300034, "geometry": {"type": "Point", "coordinates": [0.538928, 42.593575]}, "properties": {"amenity": "bar", "name": "La Borda del Mast\u00edn"}}, {"type": "Feature", "id": 1469075588, "geometry": {"type": "Point", "coordinates": [1.130116, 42.411216]}, "properties": {"amenity": "bar", "name": "Coyote"}}, {"type": "Feature", "id": 1469110375, "geometry": {"type": "Point", "coordinates": [1.130779, 42.411667]}, "properties": {"amenity": "bar", "name": "Taverna Ja Vbeuras"}}, {"type": "Feature", "id": 1469265602, "geometry": {"type": "Point", "coordinates": [1.13139, 42.41189]}, "properties": {"amenity": "bar", "name": "Escalarre"}}, {"type": "Feature", "id": 1472937797, "geometry": {"type": "Point", "coordinates": [1.123212, 42.628223]}, "properties": {"amenity": "bar", "cuisine": "spanish", "name": "Bar Els Cremalls", "time": "2011-10-18T11:08:45Z"}}, {"type": "Feature", "id": 1472937802, "geometry": {"type": "Point", "coordinates": [1.123157, 42.628919]}, "properties": {"amenity": "bar", "internet_access": "wlan", "name": "Bar La Creu", "time": "2011-10-18T11:10:10Z"}}, {"type": "Feature", "id": 1896913220, "geometry": {"type": "Point", "coordinates": [0.522235, 42.60527]}, "properties": {"amenity": "bar"}}, {"type": "Feature", "id": 2361460607, "geometry": {"type": "Point", "coordinates": [1.3181, 42.549802]}, "properties": {"amenity": "bar"}}, {"type": "Feature", "id": 2400230608, "geometry": {"type": "Point", "coordinates": [0.71818, 42.477227]}, "properties": {"amenity": "bar", "name": "Bar Lursal"}}, {"type": "Feature", "id": 2426971824, "geometry": {"type": "Point", "coordinates": [0.8721, 42.701083]}, "properties": {"amenity": "bar"}}, {"type": "Feature", "id": 2426971841, "geometry": {"type": "Point", "coordinates": [0.902022, 42.706826]}, "properties": {"amenity": "bar"}}, {"type": "Feature", "id": 2427019783, "geometry": {"type": "Point", "coordinates": [0.777004, 42.730758]}, "properties": {"amenity": "bar"}}, {"type": "Feature", "id": 2475280050, "geometry": {"type": "Point", "coordinates": [0.960163, 42.344245]}, "properties": {"amenity": "bar", "name": "Bar Felip"}}, {"type": "Feature", "id": 2590677993, "geometry": {"type": "Point", "coordinates": [0.522109, 42.605138]}, "properties": {"amenity": "bar", "email": "info@elboterodemasueco.com", "name": "El Botero de Masueco", "phone": "+34 974552987"}}, {"type": "Feature", "id": 2780221136, "geometry": {"type": "Point", "coordinates": [0.740193, 42.407684]}, "properties": {"amenity": "bar", "name": "Can Manolo"}}, {"type": "Feature", "id": 2780221144, "geometry": {"type": "Point", "coordinates": [0.741012, 42.408147]}, "properties": {"amenity": "bar", "name": "Harry's Bar"}}, {"type": "Feature", "id": 2780519250, "geometry": {"type": "Point", "coordinates": [0.741515, 42.408816]}, "properties": {"amenity": "bar", "name": "Bar Canig\u00f3"}}, {"type": "Feature", "id": 2780519252, "geometry": {"type": "Point", "coordinates": [0.74078, 42.40856]}, "properties": {"amenity": "bar", "name": "Bar Edelweis"}}, {"type": "Feature", "id": 2780519272, "geometry": {"type": "Point", "coordinates": [0.741291, 42.408969]}, "properties": {"amenity": "bar", "name": "Bar Las Cumbres"}}, {"type": "Feature", "id": 2780558909, "geometry": {"type": "Point", "coordinates": [0.74128, 42.407021]}, "properties": {"amenity": "bar", "name": "Bar Claxon"}}, {"type": "Feature", "id": 2780558910, "geometry": {"type": "Point", "coordinates": [0.741548, 42.406639]}, "properties": {"amenity": "bar", "name": "Bar PisPas"}}, {"type": "Feature", "id": 2782337168, "geometry": {"type": "Point", "coordinates": [0.741333, 42.408307]}, "properties": {"amenity": "bar", "name": "Bar El Caf\u00e9 de Harry"}}, {"type": "Feature", "id": 2809095117, "geometry": {"type": "Point", "coordinates": [0.7967, 42.701998]}, "properties": {"amenity": "bar", "name": "Avelino"}}, {"type": "Feature", "id": 3028609175, "geometry": {"type": "Point", "coordinates": [0.968207, 42.247389]}, "properties": {"addr:city": "la Pobla de Segur", "addr:housenumber": "6", "addr:postcode": "25500", "addr:street": "Avinguda de Sant Miquel del Pui", "amenity": "bar", "name": "Discoteca Nova Gent", "smoking": "no"}}, {"type": "Feature", "id": 3029822645, "geometry": {"type": "Point", "coordinates": [0.599065, 42.786618]}, "properties": {"amenity": "bar"}}, {"type": "Feature", "id": 3039625454, "geometry": {"type": "Point", "coordinates": [1.065404, 42.324233]}, "properties": {"amenity": "bar", "name": "Bar Tomas"}}, {"type": "Feature", "id": 3475056779, "geometry": {"type": "Point", "coordinates": [0.410109, 42.79549]}, "properties": {"addr:city": "Loudenvielle", "addr:postcode": "65510", "amenity": "bar", "name": "Chez Rog\u00e9", "tobacco": "yes"}}, {"type": "Feature", "id": 4276650967, "geometry": {"type": "Point", "coordinates": [1.226177, 42.563103]}, "properties": {"addr:city": "Ribera de Card\u00f3s", "addr:postcode": "25570", "addr:street": "Carretera de Llavors\u00ed a Tavascan", "amenity": "bar", "amenity_1": "restaurant", "name": "L'Escala", "name:ca": "L'Escala", "phone": "+34 973 62 31 25"}}, {"type": "Feature", "id": 4277846158, "geometry": {"type": "Point", "coordinates": [1.226818, 42.56206]}, "properties": {"addr:city": "Ribera de Card\u00f3s", "addr:postcode": "25570", "addr:street": "Av. Hug Roger III", "amenity": "bar", "name": "Florido", "phone": "+34 973 623 141"}}, {"type": "Feature", "id": 4344485896, "geometry": {"type": "Point", "coordinates": [1.031311, 42.92162]}, "properties": {"amenity": "bar", "cuisine": "coffee_shop;ice_cream;sandwich", "name": "Le Picolo", "opening_hours": "Mo-Su 09:00-21:00"}}, {"type": "Feature", "id": 4446722133, "geometry": {"type": "Point", "coordinates": [0.965391, 42.24354]}, "properties": {"amenity": "bar", "name": "Boulevar"}}, {"type": "Feature", "id": 4446722139, "geometry": {"type": "Point", "coordinates": [0.965369, 42.243701]}, "properties": {"addr:city": "la Pobla de Segur", "addr:housenumber": "16", "addr:postcode": "25516", "addr:street": "Avinguda de l'Estaci\u00f3", "amenity": "bar", "name": "la Garrafeta", "phone": "+34973680316"}}, {"type": "Feature", "id": 4545065887, "geometry": {"type": "Point", "coordinates": [1.131799, 42.594782]}, "properties": {"amenity": "bar", "name": "Hotel Cases"}}, {"type": "Feature", "id": 4657638405, "geometry": {"type": "Point", "coordinates": [0.711146, 42.809336]}, "properties": {"amenity": "bar", "name": "Es Neres", "name:ca": "Es Neres", "name:oc": "Es Neres"}}, {"type": "Feature", "id": 4683169206, "geometry": {"type": "Point", "coordinates": [1.211856, 42.428201]}, "properties": {"amenity": "bar"}}, {"type": "Feature", "id": 4683219550, "geometry": {"type": "Point", "coordinates": [1.2119, 42.422424]}, "properties": {"amenity": "bar"}}, {"type": "Feature", "id": 4707361897, "geometry": {"type": "Point", "coordinates": [0.793992, 42.704007]}, "properties": {"addr:postcode": "25530", "addr:street": "Avinguda der Alcalde Calbet\u00f3 Barra", "amenity": "bar", "cuisine": "regional;breakfast;spanish;diner;tapas;local;coffee_shop", "name": "Co de Oskar", "name:es": "Co de Oskar", "opening_hours": "Tu-Su 07:00-23:00"}}, {"type": "Feature", "id": 4819598889, "geometry": {"type": "Point", "coordinates": [0.902796, 42.707409]}, "properties": {"addr:city": "Salard\u00fa", "amenity": "bar", "name": "Era Trobada"}}, {"type": "Feature", "id": 4831551135, "geometry": {"type": "Point", "coordinates": [0.958777, 42.705765]}, "properties": {"amenity": "bar", "name": "M\u00f6et Winter Lounge", "outdoor_seating": "yes"}}, {"type": "Feature", "id": 5042713223, "geometry": {"type": "Point", "coordinates": [0.871945, 42.698486]}, "properties": {"addr:housenumber": "2", "addr:street": "Sacortia", "amenity": "bar", "contact:facebook": "https://www.facebook.com/ThalayLoungeBar/", "email": "thalay.loungebar@gmail.com", "name": "Thalay Lounge Bar", "name:es": "Thalay Lounge Bar", "opening_hours": "We-Su 13:30-15:30, 20:00-23:00", "phone": "+34 622522676", "website": "https://thalayrestaurante.com/wp-content/uploads/2022/12/CARTA112022-2.pdf"}}, {"type": "Feature", "id": 5085573455, "geometry": {"type": "Point", "coordinates": [0.934505, 42.699218]}, "properties": {"amenity": "bar", "name": "Baqueira Bar"}}, {"type": "Feature", "id": 5085624285, "geometry": {"type": "Point", "coordinates": [0.94235, 42.72097]}, "properties": {"amenity": "bar", "name": "Barralh Blanhiblar", "outdoor_seating": "yes"}}, {"type": "Feature", "id": 5849328185, "geometry": {"type": "Point", "coordinates": [1.132988, 42.441525]}, "properties": {"amenity": "bar", "name": "Quimet\u2019s"}}, {"type": "Feature", "id": 5929926526, "geometry": {"type": "Point", "coordinates": [0.795396, 42.703175]}, "properties": {"amenity": "bar", "name": "Montgarri"}}, {"type": "Feature", "id": 6189578753, "geometry": {"type": "Point", "coordinates": [0.965555, 42.725566]}, "properties": {"amenity": "bar"}}, {"type": "Feature", "id": 6248721885, "geometry": {"type": "Point", "coordinates": [0.66514, 42.427264]}, "properties": {"amenity": "bar"}}, {"type": "Feature", "id": 6586212655, "geometry": {"type": "Point", "coordinates": [1.216434, 42.496036]}, "properties": {"amenity": "bar", "name": "hotel", "name:ca": "hotel"}}, {"type": "Feature", "id": 6683986984, "geometry": {"type": "Point", "coordinates": [0.863939, 42.698384]}, "properties": {"amenity": "bar"}}, {"type": "Feature", "id": 6684027127, "geometry": {"type": "Point", "coordinates": [1.22932, 42.559592]}, "properties": {"amenity": "bar"}}, {"type": "Feature", "id": 6787812586, "geometry": {"type": "Point", "coordinates": [1.066547, 42.323359]}, "properties": {"amenity": "bar"}}, {"type": "Feature", "id": 7859087693, "geometry": {"type": "Point", "coordinates": [0.794481, 42.701263]}, "properties": {"addr:housenumber": "18", "addr:street": "Carrer Major", "amenity": "bar", "name": "Refu", "opening_hours": "We-Su 18:00-01:00", "phone": "+34 973640789", "website": "https://refubirreria.com/"}}, {"type": "Feature", "id": 7859097665, "geometry": {"type": "Point", "coordinates": [0.795894, 42.702164]}, "properties": {"amenity": "bar", "name": "Vermuter\u00eda"}}, {"type": "Feature", "id": 7859152404, "geometry": {"type": "Point", "coordinates": [0.795352, 42.702517]}, "properties": {"amenity": "bar", "name": "Vielhitos"}}, {"type": "Feature", "id": 9038797272, "geometry": {"type": "Point", "coordinates": [0.794641, 42.701259]}, "properties": {"amenity": "bar", "name": "Donde Rafa"}}, {"type": "Feature", "id": 9868489988, "geometry": {"type": "Point", "coordinates": [0.73108, 42.253207]}, "properties": {"amenity": "bar", "brewery": "estrella", "cuisine": "pizza;sandwich", "drink": "espresso", "lunch": "yes", "opening_hours": "Mo-Su 09:00-23:00; We off", "opening_hours:kitchen": "Mo-Fr 12:30-15:30,20:00-23:00; We off", "shop": "convenience"}}, {"type": "Feature", "id": 10087230740, "geometry": {"type": "Point", "coordinates": [0.711147, 42.810258]}, "properties": {"amenity": "bar", "internet_access": "yes", "name": "Eth Secret"}}, {"type": "Feature", "id": 10665018634, "geometry": {"type": "Point", "coordinates": [0.592018, 42.789899]}, "properties": {"amenity": "bar", "indoor_seating": "yes", "name": "La place rouge", "outdoor_seating": "yes", "smoking": "outside"}}, {"type": "Feature", "id": 11040423397, "geometry": {"type": "Point", "coordinates": [0.58911, 42.791661]}, "properties": {"amenity": "bar", "name": "Le Montagnard", "outdoor_seating": "yes"}}, {"type": "Feature", "id": 11151106905, "geometry": {"type": "Point", "coordinates": [1.134979, 42.443721]}, "properties": {"amenity": "bar", "name": "Cabana"}}, {"type": "Feature", "id": 11221084537, "geometry": {"type": "Point", "coordinates": [0.710971, 42.755581]}, "properties": {"amenity": "bar"}}, {"type": "Feature", "id": 12074988053, "geometry": {"type": "Point", "coordinates": [0.593793, 42.785575]}, "properties": {"amenity": "bar", "indoor_seating": "yes", "name": "Le Bosquet", "outdoor_seating": "yes", "smoking": "outside"}}, {"type": "Feature", "id": 291824364, "geometry": {"type": "LineString", "coordinates": [[0.605873, 42.821863], [0.605864, 42.821864], [0.605788, 42.82187], [0.605727, 42.821876], [0.605717, 42.821804], [0.605715, 42.821794], [0.605812, 42.821787], [0.605861, 42.821784], [0.605873, 42.821863]]}, "properties": {"amenity": "bar", "building": "yes", "source": "cadastre-dgi-fr source : Direction G\u00e9n\u00e9rale des Finances Publiques - Cadastre. Mise \u00e0 jour : 2014"}}]}