{"type": "FeatureCollection", "features": [{"type": "Feature", "id": 151060133, "geometry": {"type": "Point", "coordinates": [1.129836, 42.411451]}, "properties": {"capital": "7", "ele": "700", "name": "Sort", "name:ca": "Sort", "place": "town", "population": "1660", "population:date": "2023", "ref:idescat": "2520940015401", "ref:ine": "25209001501", "source": "Institut Cartogr\u00e0fic de Catalunya", "website": "https://sort.cat/", "wikidata": "Q12690", "wikipedia": "ca:Sort"}}, {"type": "Feature", "id": 151063417, "geometry": {"type": "Point", "coordinates": [0.740169, 42.407958]}, "properties": {"capital": "7", "ele": "838", "name": "el Pont de Suert", "name:ca": "el Pont de Suert", "name:el": "\u03a4\u03bf \u03a0\u03bf\u03bd\u03c4 \u03bd\u03c4\u03b5 \u03a3\u03bf\u03c5\u03ad\u03c1\u03c4", "place": "town", "population": "2086", "population:date": "2023", "postal_code": "25520", "ref:idescat": "2517340016701", "ref:ine": "25173001601", "website": "https://www.elpontdesuert.cat/", "wikidata": "Q12708", "wikipedia": "ca:El Pont de Suert"}}, {"type": "Feature", "id": 1098278678, "geometry": {"type": "Point", "coordinates": [0.795474, 42.701757]}, "properties": {"capital": "7", "ele": "974", "name": "Vielha", "name:ca": "Viella", "name:es": "Viella", "name:fr": "Viella", "name:oc": "Vielha", "place": "town", "population": "3622", "population:date": "2023", "ref:idescat": "2524300011503", "ref:ine": "25243001103", "source": "Instituto Geogr\u00e1fico Nacional", "source:date": "2011-06", "source:ele": "MDT5", "source:name": "Nomencl\u00e1tor Geogr\u00e1fico de Municipios y Entidades de Poblaci\u00f3n", "source:name:oc": "ieo-bdtopoc", "wikidata": "Q12647", "wikipedia": "oc:Vielha e Mijaran"}}]}