{"type": "FeatureCollection", "features": [{"type": "Feature", "id": 26694473, "geometry": {"type": "Point", "coordinates": [0.591228, 42.791062]}, "properties": {"alt_name": "Luchon", "alt_name:fr": "Luchon", "alt_name:oc": "Luishon", "name": "Bagn\u00e8res-de-Luchon", "name:fr": "Bagn\u00e8res-de-Luchon", "name:oc": "Banh\u00e8ras-de-Luishon", "place": "village", "population": "2152", "population:date": "2021", "postal_code": "31110", "source:name:oc": "ieo-bdtopoc", "source:population": "INSEE 2024", "wikidata": "Q238393", "wikipedia": "fr:Bagn\u00e8res-de-Luchon"}}, {"type": "Feature", "id": 244884111, "geometry": {"type": "Point", "coordinates": [0.600195, 42.8257]}, "properties": {"name": "Antignac", "name:oc": "Antinhac", "place": "village", "population": "89", "population:date": "2021", "postal_code": "31110", "source:name:oc": "Lo Congr\u00e8s", "source:population": "INSEE 2024"}}, {"type": "Feature", "id": 244884115, "geometry": {"type": "Point", "coordinates": [0.700861, 42.891308]}, "properties": {"name": "Arlos", "name:oc": "Arl\u00f2s", "place": "village", "population": "103", "population:date": "2021", "postal_code": "31440", "ref:FR:SIREN": "213100175", "source:name:oc": "Lo Congr\u00e8s", "source:population": "INSEE 2024"}}, {"type": "Feature", "id": 244884304, "geometry": {"type": "Point", "coordinates": [0.716172, 42.9175]}, "properties": {"addr:postcode": "31440", "name": "Boutx", "name:oc": "Bots", "place": "village", "population": "256", "population:date": "2021", "ref:FR:SIREN": "213100852", "source:name:oc": "Lo Congr\u00e8s", "source:population": "INSEE 2024"}}, {"type": "Feature", "id": 244884307, "geometry": {"type": "Point", "coordinates": [0.628534, 42.893266]}, "properties": {"addr:postcode": "31440", "name": "Burgalays", "name:oc": "Burgalais", "place": "village", "population": "120", "population:date": "2021", "ref:FR:SIREN": "213100928", "source:name:oc": "Lo Congr\u00e8s", "source:population": "INSEE 2024"}}, {"type": "Feature", "id": 244884340, "geometry": {"type": "Point", "coordinates": [0.533999, 42.805322]}, "properties": {"addr:postcode": "31110", "name": "Castillon-de-Larboust", "name:oc": "Castilhon de Larbost", "place": "village", "population": "79", "population:date": "2021", "source:name:oc": "Lo Congr\u00e8s", "source:population": "INSEE 2024", "wikipedia": "fr:Castillon-de-Larboust"}}, {"type": "Feature", "id": 244884347, "geometry": {"type": "Point", "coordinates": [0.608609, 42.8729]}, "properties": {"addr:postcode": "31440", "name": "Cazaux-Layrisse", "name:oc": "Casau de Lairi\u00e7a", "place": "village", "population": "64", "population:date": "2021", "ref:FR:SIREN": "213101322", "source:name:oc": "Lo Congr\u00e8s", "source:population": "INSEE 2024"}}, {"type": "Feature", "id": 244884348, "geometry": {"type": "Point", "coordinates": [0.530209, 42.806081]}, "properties": {"addr:postcode": "31110", "name": "Cazeaux-de-Larboust", "name:oc": "Cadau de Larbost", "place": "village", "population": "97", "population:date": "2021", "source:name:oc": "Lo Congr\u00e8s", "source:population": "INSEE 2024"}}, {"type": "Feature", "id": 244884354, "geometry": {"type": "Point", "coordinates": [0.638728, 42.913456]}, "properties": {"addr:postcode": "31440", "name": "Cierp-Gaud", "name:oc": "Ci\u00e8rp e Gaud", "place": "village", "population": "707", "population:date": "2021", "ref:FR:SIREN": "213101447", "source:name:oc": "Lo Congr\u00e8s", "source:population": "INSEE 2024", "wikidata": "Q1340927", "wikipedia": "fr:Cierp-Gaud"}}, {"type": "Feature", "id": 244884356, "geometry": {"type": "Point", "coordinates": [0.601305, 42.8579]}, "properties": {"addr:postcode": "31110", "name": "Cier-de-Luchon", "name:oc": "Ci\u00e8r de Luishon", "place": "village", "population": "229", "population:date": "2021", "source:name:oc": "Lo Congr\u00e8s", "source:population": "INSEE 2024"}}, {"type": "Feature", "id": 244884373, "geometry": {"type": "Point", "coordinates": [0.736542, 42.872245]}, "properties": {"addr:postcode": "31440", "name": "Fos", "name:oc": "H\u00f2s", "place": "village", "population": "232", "population:date": "2021", "ref:FR:SIREN": "213101900", "source:name:oc": "Lo Congr\u00e8s", "source:population": "INSEE 2024", "wikidata": "Q1349025", "wikipedia": "fr:Fos (Haute-Garonne)"}}, {"type": "Feature", "id": 244884386, "geometry": {"type": "Point", "coordinates": [0.688493, 42.927045]}, "properties": {"addr:postcode": "31440", "admin_level": "8", "name": "Eup", "name:oc": "Eup", "place": "village", "population": "135", "population:date": "2021", "ref:FR:SIREN": "213101777", "source:name:oc": "Lo Congr\u00e8s", "source:population": "INSEE 2024"}}, {"type": "Feature", "id": 244884393, "geometry": {"type": "Point", "coordinates": [0.519262, 42.8085]}, "properties": {"addr:postcode": "31110", "name": "Garin", "name:oc": "Garin", "place": "village", "population": "154", "population:date": "2021", "source:name:oc": "Lo Congr\u00e8s", "source:population": "INSEE 2024", "wikipedia": "fr:Garin (Haute-Garonne)"}}, {"type": "Feature", "id": 244884417, "geometry": {"type": "Point", "coordinates": [0.489941, 42.794863]}, "properties": {"addr:postcode": "31110", "name": "Gouaux-de-Larboust", "name:oc": "Guaus de Larbost", "place": "village", "population": "48", "population:date": "2021", "source:name:oc": "Lo Congr\u00e8s", "source:population": "INSEE 2024"}}, {"type": "Feature", "id": 244884435, "geometry": {"type": "Point", "coordinates": [0.609163, 42.808054]}, "properties": {"addr:postcode": "31110", "name": "Juzet-de-Luchon", "name:oc": "Jud\u00e8th de Luishon", "place": "village", "population": "375", "population:date": "2021", "source:name:oc": "Lo Congr\u00e8s", "source:population": "INSEE 2024", "wikidata": "Q746377", "wikipedia": "fr:Juzet-de-Luchon"}}, {"type": "Feature", "id": 244884474, "geometry": {"type": "Point", "coordinates": [0.701053, 42.9094]}, "properties": {"addr:postcode": "31440", "name": "Lez", "name:oc": "Les", "place": "village", "population": "62", "ref:FR:SIREN": "213102981", "source:name:oc": "ieo-bdtopoc", "source:population": "INSEE 2013"}}, {"type": "Feature", "id": 244884481, "geometry": {"type": "Point", "coordinates": [0.610023, 42.876728]}, "properties": {"addr:postcode": "31440", "name": "L\u00e8ge", "name:oc": "Leja", "place": "village", "population": "33", "population:date": "2021", "ref:FR:SIREN": "213102908", "source:name:oc": "Lo Congr\u00e8s", "source:population": "INSEE 2024"}}, {"type": "Feature", "id": 244884491, "geometry": {"type": "Point", "coordinates": [0.659216, 42.9138]}, "properties": {"addr:postcode": "31440", "name": "Marignac", "name:oc": "Marinhac", "place": "village", "population": "501", "population:date": "2021", "ref:FR:SIREN": "213103161", "source:name:oc": "Lo Congr\u00e8s", "source:population": "INSEE 2024"}}, {"type": "Feature", "id": 244884508, "geometry": {"type": "Point", "coordinates": [0.758274, 42.868452]}, "properties": {"addr:postcode": "31440", "name": "Melles", "name:oc": "M\u00e8les", "place": "village", "population": "87", "population:date": "2021", "ref:FR:SIREN": "213103377", "source:name:oc": "Lo Congr\u00e8s", "source:population": "INSEE 2024", "wikidata": "Q1616421", "wikipedia": "fr:Melles (Haute-Garonne)"}}, {"type": "Feature", "id": 244884581, "geometry": {"type": "Point", "coordinates": [0.60813, 42.791792]}, "properties": {"addr:postcode": "31110", "name": "Montauban-de-Luchon", "name:oc": "Montauban (de Luishon)", "place": "village", "population": "513", "population:date": "2021", "source:name:oc": "Lo Congr\u00e8s", "source:population": "INSEE 2024"}}, {"type": "Feature", "id": 244884628, "geometry": {"type": "Point", "coordinates": [0.597532, 42.815]}, "properties": {"addr:postcode": "31110", "name": "Moustajon", "name:oc": "Mostajon", "place": "village", "population": "126", "population:date": "2021", "source:name:oc": "Lo Congr\u00e8s", "source:population": "INSEE 2024"}}, {"type": "Feature", "id": 244884636, "geometry": {"type": "Point", "coordinates": [0.506762, 42.797168]}, "properties": {"addr:postcode": "31110", "name": "O\u00f4", "name:oc": "\u00d2u", "place": "village", "population": "103", "population:date": "2021", "source:name:oc": "Lo Congr\u00e8s", "source:population": "INSEE 2024"}}, {"type": "Feature", "id": 244884639, "geometry": {"type": "Point", "coordinates": [0.545984, 42.8063]}, "properties": {"addr:postcode": "31110", "name": "Saint-Aventin", "name:oc": "Sent Avantin", "place": "village", "population": "60", "population:date": "2021", "source:name:oc": "Lo Congr\u00e8s", "source:population": "INSEE 2024", "wikipedia": "fr:Saint-Aventin"}}, {"type": "Feature", "id": 244884650, "geometry": {"type": "Point", "coordinates": [0.692807, 42.9144]}, "properties": {"addr:postcode": "31440", "name": "Saint-B\u00e9at", "name:fr": "Saint-B\u00e9at", "name:oc": "Sent Biat", "place": "village", "population": "384", "population:date": "2021", "ref:FR:SIREN": "213104714", "source:name:oc": "ieo-bdtopoc", "source:population": "INSEE 2024"}}, {"type": "Feature", "id": 244884710, "geometry": {"type": "Point", "coordinates": [0.601194, 42.782179]}, "properties": {"addr:postcode": "31110", "name": "Saint-Mamet", "name:oc": "Sent Mamet", "place": "village", "population": "553", "population:date": "2021", "source:name:oc": "Lo Congr\u00e8s", "source:population": "INSEE 2024"}}, {"type": "Feature", "id": 244884722, "geometry": {"type": "Point", "coordinates": [0.628282, 42.9054]}, "properties": {"addr:postcode": "31440", "name": "Signac", "name:oc": "Sinhac", "place": "village", "population": "44", "population:date": "2021", "ref:FR:FANTOIR": "31548B023Y", "ref:FR:SIREN": "213105489", "source:name:oc": "Lo Congr\u00e8s", "source:population": "INSEE 2024"}}, {"type": "Feature", "id": 244884757, "geometry": {"type": "Point", "coordinates": [0.605187, 42.830068]}, "properties": {"addr:postcode": "31110", "name": "Salles", "name:oc": "Sales", "place": "village", "population": "126", "population:date": "2021", "ref:FR:FANTOIR": "31524B017W", "source:name:oc": "Lo Congr\u00e8s", "source:population": "INSEE 2024"}}, {"type": "Feature", "id": 255203121, "geometry": {"type": "Point", "coordinates": [0.716561, 42.475926]}, "properties": {"capital": "8", "ele": "978", "name": "Vilaller", "name:ca": "Vilaller", "place": "village", "population": "466", "population:date": "2023", "postal_code": "25552", "ref:idescat": "2524580002201", "ref:ine": "25245000201", "source": "Instituto Geogr\u00e1fico Nacional", "source:date": "2011-06", "source:ele": "MDT5", "source:name": "Nomencl\u00e1tor Geogr\u00e1fico de Municipios y Entidades de Poblaci\u00f3n", "website": "https://www.ajuntamentdevilaller.cat/", "wikidata": "Q12715", "wikipedia": "ca:Vilaller"}}, {"type": "Feature", "id": 255249974, "geometry": {"type": "Point", "coordinates": [0.87207, 42.700051]}, "properties": {"name": "Arties", "name:ca": "Arties", "name:oc": "Arties", "place": "village", "population": "498", "population:date": "2023", "ref:idescat": "2502540001701", "ref:ine": "25025000101", "source:name:oc": "ieo-bdtopoc", "wikidata": "Q2865771", "wikipedia": "en:Arties"}}, {"type": "Feature", "id": 255250037, "geometry": {"type": "Point", "coordinates": [0.904991, 42.708258]}, "properties": {"capital": "8", "name": "Salard\u00fa", "name:ca": "Salard\u00fa", "name:es": "Salard\u00fa", "name:oc": "Salard\u00fa", "place": "village", "population": "447", "population:date": "2023", "ref:idescat": "2502540006901", "ref:ine": "25025000601", "source:name:oc": "ieo-bdtopoc", "wikidata": "Q596102", "wikipedia": "oc:Salard\u00fa"}}, {"type": "Feature", "id": 255485885, "geometry": {"type": "Point", "coordinates": [1.210519, 42.495748]}, "properties": {"capital": "8", "ele": "811", "name": "Llavors\u00ed", "name:ca": "Llavors\u00ed", "place": "village", "population": "244", "population:date": "2023", "ref:idescat": "2512660004301", "ref:ine": "25126000401", "wikidata": "Q12682", "wikipedia": "ca:Llavors\u00ed"}}, {"type": "Feature", "id": 255548972, "geometry": {"type": "Point", "coordinates": [0.694362, 42.465568]}, "properties": {"capital": "8", "ele": "1215", "name": "Montanuy / Montanui", "name:an": "Montanui", "name:ca": "Montanui", "official_name": "Montanuy", "place": "village", "population": "39", "population:date": "2023", "ref:ine": "22157001201", "wikidata": "Q768770", "wikipedia": "ca:Montanui"}}, {"type": "Feature", "id": 255557190, "geometry": {"type": "Point", "coordinates": [0.835064, 42.522059]}, "properties": {"ele": "1265", "name": "Bo\u00ed", "name:ca": "Bo\u00ed", "place": "village", "population": "231", "population:date": "2023", "ref:idescat": "2504320002201", "ref:ine": "25043000201", "website": "https://www.ajuntamentvalldeboi.cat/ca/ElsMunicipis/Boi.aspx", "wikidata": "Q777149", "wikipedia": "ca:Bo\u00ed"}}, {"type": "Feature", "id": 255557227, "geometry": {"type": "Point", "coordinates": [0.848683, 42.518603]}, "properties": {"ele": "1510", "int_name": "Ta\u00fcll", "name": "Ta\u00fcll", "name:1975": "Ta\u00fcll", "name:ca": "Ta\u00fcll", "place": "village", "population": "278", "population:date": "2023", "ref:idescat": "2504320008101", "ref:ine": "25043000801", "website": "https://www.ajuntamentvalldeboi.cat/ca/ElsMunicipis/Taull.aspx", "wikidata": "Q3781620", "wikipedia": "ca:Ta\u00fcll"}}, {"type": "Feature", "id": 255557289, "geometry": {"type": "Point", "coordinates": [0.800941, 42.505399]}, "properties": {"capital": "8", "ele": "1105", "name": "Barruera", "name:ca": "Barruera", "place": "village", "population": "235", "population:date": "2023", "ref:idescat": "2504320001701", "ref:ine": "25043000101", "website": "https://www.ajuntamentvalldeboi.cat/ca/ElsMunicipis/Barruera.aspx", "wikidata": "Q4896160", "wikipedia": "ca:Barruera"}}, {"type": "Feature", "id": 256367827, "geometry": {"type": "Point", "coordinates": [1.122882, 42.627468]}, "properties": {"capital": "8", "ele": "956", "name": "Esterri d'\u00c0neu", "name:1975": "Esterri de Aneu", "name:ca": "Esterri d'\u00c0neu", "place": "village", "population": "867", "population:date": "2023", "ref:idescat": "2508640001701", "ref:ine": "25086000101", "wikidata": "Q12662", "wikipedia": "ca:Esterri d'\u00c0neu"}}, {"type": "Feature", "id": 256696282, "geometry": {"type": "Point", "coordinates": [0.727796, 42.747175]}, "properties": {"capital": "8", "ele": "1256", "name": "Vilam\u00f2s", "name:ca": "Vilam\u00f2s", "name:oc": "Vilam\u00f2s", "place": "village", "population": "143", "population:date": "2023", "ref:idescat": "2524770001701", "ref:ine": "25247000101", "source": "Instituto Geogr\u00e1fico Nacional", "source:date": "2011-06", "source:ele": "MDT5", "source:name": "Nomencl\u00e1tor Geogr\u00e1fico de Municipios y Entidades de Poblaci\u00f3n", "source:name:oc": "ieo-bdtopoc", "wikidata": "Q12650", "wikipedia": "oc:Vilam\u00f2s"}}, {"type": "Feature", "id": 256696331, "geometry": {"type": "Point", "coordinates": [0.720028, 42.737529]}, "properties": {"capital": "8", "ele": "858", "name": "Es B\u00f2rdes", "name:ca": "es Bordes", "name:oc": "Es B\u00f2rdes", "place": "village", "population": "180", "population:date": "2023", "ref:idescat": "2505760004301", "ref:ine": "25057000401", "source": "Instituto Geogr\u00e1fico Nacional", "source:date": "2011-06", "source:ele": "MDT5", "source:name": "Nomencl\u00e1tor Geogr\u00e1fico de Municipios y Entidades de Poblaci\u00f3n", "source:name:oc": "ieo-bdtopoc", "wikidata": "Q12624", "wikipedia": "oc:Es B\u00f2rdes"}}, {"type": "Feature", "id": 256696627, "geometry": {"type": "Point", "coordinates": [0.711144, 42.754486]}, "properties": {"capital": "8", "ele": "1221", "name": "Arres de Jos", "name:ca": "Arres de Jos", "name:oc": "Arres de Jos", "place": "village", "population": "28", "population:date": "2023", "ref:idescat": "2503130001701", "ref:ine": "25031000101", "source": "Instituto Geogr\u00e1fico Nacional", "source:date": "2011-06", "source:ele": "MDT5", "source:name": "Nomencl\u00e1tor Geogr\u00e1fico de Municipios y Entidades de Poblaci\u00f3n", "source:name:oc": "ieo-bdtopoc", "wikidata": "Q65299731", "wikipedia": "oc:Arres de Jos"}}, {"type": "Feature", "id": 256696634, "geometry": {"type": "Point", "coordinates": [0.69312, 42.785989]}, "properties": {"capital": "8", "ele": "711", "name": "Boss\u00f2st", "name:ca": "Boss\u00f2st", "name:oc": "Boss\u00f2st", "place": "village", "population": "1131", "population:date": "2023", "ref:idescat": "2505950001701", "ref:ine": "25059000101", "source": "Instituto Geogr\u00e1fico Nacional", "source:date": "2011-06", "source:ele": "MDT5", "source:name": "Nomencl\u00e1tor Geogr\u00e1fico de Municipios y Entidades de Poblaci\u00f3n", "source:name:oc": "ieo-bdtopoc", "wikidata": "Q12615", "wikipedia": "oc:Boss\u00f2st"}}, {"type": "Feature", "id": 256696635, "geometry": {"type": "Point", "coordinates": [0.711831, 42.812685]}, "properties": {"capital": "8", "ele": "633", "name": "Les", "name:ca": "L\u00e9s", "name:es": "L\u00e9s", "name:oc": "Les", "place": "village", "population": "994", "population:date": "2023", "ref:idescat": "2512140001701", "ref:ine": "25121000101", "wikidata": "Q12633", "wikipedia": "oc:Les (Val d'Aran)"}}, {"type": "Feature", "id": 256696750, "geometry": {"type": "Point", "coordinates": [0.739984, 42.83825]}, "properties": {"capital": "8", "ele": "919", "name": "Canejan", "name:ca": "Canejan", "name:oc": "Canejan", "place": "village", "population": "65", "population:date": "2023", "ref:idescat": "2506370003801", "ref:ine": "25063000301", "source": "Instituto Geogr\u00e1fico Nacional", "source:date": "2011-06", "source:ele": "MDT5", "source:name": "Nomencl\u00e1tor Geogr\u00e1fico de Municipios y Entidades de Poblaci\u00f3n", "source:name:oc": "ieo-bdtopoc", "wikidata": "Q12627", "wikipedia": "oc:Canejan (Val d'Aran)"}}, {"type": "Feature", "id": 256696758, "geometry": {"type": "Point", "coordinates": [0.715815, 42.834764]}, "properties": {"capital": "8", "ele": "902", "name": "Bausen", "name:ca": "Baus\u00e9n", "name:es": "Baus\u00e9n", "name:oc": "Bausen", "place": "village", "population": "67", "population:date": "2023", "ref:idescat": "2504500001701", "ref:ine": "25045000101", "source:name:oc": "ieo-bdtopoc", "wikidata": "Q12613", "wikipedia": "oc:Bausen"}}, {"type": "Feature", "id": 256698854, "geometry": {"type": "Point", "coordinates": [1.088485, 42.576288]}, "properties": {"capital": "8", "ele": "1321", "name": "Espot", "name:ca": "Espot", "place": "village", "population": "326", "population:date": "2023", "ref:idescat": "2508270001701", "ref:ine": "25082000101", "source:ele": "MDT5", "website": "https://espot.cat/", "wikidata": "Q12659", "wikipedia": "ca:Espot"}}, {"type": "Feature", "id": 256699454, "geometry": {"type": "Point", "coordinates": [1.135491, 42.443005]}, "properties": {"alt_name": "Rialb", "capital": "8", "ele": "728", "name": "Rialp", "name:ca": "Rialb", "name:es": "Rialp", "place": "village", "population": "519", "population:date": "2023", "ref:idescat": "2518320004301", "ref:ine": "25183000401", "source": "Instituto Geogr\u00e1fico Nacional", "source:date": "2011-06", "source:ele": "MDT5", "source:name": "Nomencl\u00e1tor Geogr\u00e1fico de Municipios y Entidades de Poblaci\u00f3n", "wikidata": "Q12686", "wikipedia": "ca:Rialb"}}, {"type": "Feature", "id": 275274454, "geometry": {"type": "Point", "coordinates": [1.374032, 42.866283]}, "properties": {"name": "Le Port", "name:oc": "Le P\u00f2rt", "place": "village", "population": "167", "population:date": "2021", "source:name:oc": "Lo Congr\u00e8s", "source:population": "INSEE 2024"}}, {"type": "Feature", "id": 275274461, "geometry": {"type": "Point", "coordinates": [1.348046, 42.888875]}, "properties": {"name": "Massat", "name:oc": "Massat", "place": "village", "population": "733", "population:date": "2021", "source:name:oc": "Lo Congr\u00e8s", "source:population": "INSEE 2024"}}, {"type": "Feature", "id": 275274467, "geometry": {"type": "Point", "coordinates": [1.314957, 42.898449]}, "properties": {"name": "Biert", "name:oc": "Bi\u00e8rt", "place": "village", "population": "312", "population:date": "2021", "source:name:oc": "Lo Congr\u00e8s", "source:population": "INSEE 2024"}}, {"type": "Feature", "id": 276236138, "geometry": {"type": "Point", "coordinates": [1.065169, 42.323421]}, "properties": {"capital": "8", "ele": "589", "name": "Gerri de la Sal", "name:ca": "Gerri de la Sal", "place": "village", "population": "120", "population:date": "2023", "ref:idescat": "2503900010801", "ref:ine": "25039001001", "source": "Instituto Geogr\u00e1fico Nacional", "source:date": "2011-06", "source:ele": "MDT5", "source:name": "Nomencl\u00e1tor Geogr\u00e1fico de Municipios y Entidades de Poblaci\u00f3n", "wikidata": "Q16513767", "wikipedia": "ca:Gerri de la Sal"}}, {"type": "Feature", "id": 279006727, "geometry": {"type": "Point", "coordinates": [0.936616, 42.324926]}, "properties": {"capital": "8", "ele": "727", "name": "Senterada", "name:ca": "Senterada", "place": "village", "population": "107", "population:date": "2023", "ref:idescat": "2520220009401", "ref:ine": "25202000901", "source": "Instituto Geogr\u00e1fico Nacional", "source:date": "2011-06", "source:ele": "MDT5", "source:name": "Nomencl\u00e1tor Geogr\u00e1fico de Municipios y Entidades de Poblaci\u00f3n", "wikidata": "Q18269", "wikipedia": "ca:Senterada"}}, {"type": "Feature", "id": 279283047, "geometry": {"type": "Point", "coordinates": [0.971496, 42.244641]}, "properties": {"capital": "8", "ele": "510", "name": "el Pont de Claverol", "name:ca": "el Pont de Claverol", "place": "village", "population": "36", "population:date": "2023", "ref:idescat": "2516150007501", "ref:ine": "25161000701", "wikidata": "Q8773317", "wikipedia": "ca:El Pont de Claverol"}}, {"type": "Feature", "id": 279731261, "geometry": {"type": "Point", "coordinates": [0.982193, 42.422335]}, "properties": {"capital": "8", "ele": "1088", "name": "la Torre de Cabdella", "name:ca": "la Torre de Cabdella", "place": "village", "population": "30", "population:date": "2023", "ref:idescat": "2522710018901", "ref:ine": "25227001801", "wikidata": "Q18271", "wikipedia": "ca:La Torre de Cabdella"}}, {"type": "Feature", "id": 280711575, "geometry": {"type": "Point", "coordinates": [1.131348, 42.594527]}, "properties": {"capital": "8", "ele": "940", "name": "la Guingueta d'\u00c0neu", "name:ca": "la Guingueta d'\u00c0neu", "place": "village", "population": "55", "population:date": "2023", "ref:idescat": "2590310009401", "ref:ine": "25903000901", "website": "https://guingueta.ddl.net/", "wikidata": "Q12664", "wikipedia": "ca:La Guingueta d'\u00c0neu"}}, {"type": "Feature", "id": 281173708, "geometry": {"type": "Point", "coordinates": [0.881239, 42.359588]}, "properties": {"capital": "8", "ele": "998", "name": "Sarroca de Bellera", "name:ca": "Sarroca de Bellera", "place": "village", "population": "27", "population:date": "2023", "ref:idescat": "2520170012001", "ref:ine": "25201001201", "source": "Instituto Geogr\u00e1fico Nacional", "source:date": "2011-06", "source:ele": "MDT5", "source:name": "Nomencl\u00e1tor Geogr\u00e1fico de Municipios y Entidades de Poblaci\u00f3n", "wikidata": "Q18268", "wikipedia": "ca:Sarroca de Bellera"}}, {"type": "Feature", "id": 293756612, "geometry": {"type": "Point", "coordinates": [0.497377, 42.812963]}, "properties": {"name": "Poubeau", "name:oc": "Pob\u00f2u", "place": "village", "population": "78", "population:date": "2021", "source:name:oc": "Lo Congr\u00e8s", "source:population": "INSEE 2024", "wikipedia": "fr:Poubeau"}}, {"type": "Feature", "id": 300609350, "geometry": {"type": "Point", "coordinates": [0.954011, 42.874758]}, "properties": {"name": "Sentein", "name:ca": "Santenh", "name:fr": "Sentein", "name:oc": "Santenh", "place": "village", "population": "164", "population:date": "2021", "ref:FR:SIREN": "210902904", "source:name:oc": "ieo-bdtopoc", "source:population": "INSEE 2024", "wikidata": "Q1368181", "wikipedia": "fr:Sentein"}}, {"type": "Feature", "id": 301374997, "geometry": {"type": "Point", "coordinates": [0.974348, 42.877033]}, "properties": {"name": "Bonac", "name:ca": "Bonac", "name:oc": "Bonac", "place": "village", "population": "124", "population:date": "2021", "ref:FR:FANTOIR": "09059B012J", "ref:FR:SIREN": "210900593", "source:name:oc": "ieo-bdtopoc", "source:population": "INSEE 2024"}}, {"type": "Feature", "id": 304858528, "geometry": {"type": "Point", "coordinates": [0.542513, 42.303123]}, "properties": {"capital": "8", "ele": "747", "name": "La Puebla de Roda", "name:an": "La Poblla de Roda", "name:ca": "la Pobla de Roda", "name:es": "La Puebla de Roda", "place": "village", "population": "92", "population:date": "2023", "ref:ine": "22129000401", "wikidata": "Q3572864", "wikipedia": "ca:La Pobla de Roda"}}, {"type": "Feature", "id": 305376934, "geometry": {"type": "Point", "coordinates": [1.226194, 42.563251]}, "properties": {"capital": "8", "ele": "913", "name": "Ribera de Card\u00f3s", "name:ca": "Ribera de Card\u00f3s", "place": "village", "population": "191", "population:date": "2023", "ref:idescat": "2590100007501", "ref:ine": "25901000701", "source": "Instituto Geogr\u00e1fico Nacional", "source:date": "2011-06", "source:ele": "MDT5", "source:name": "Nomencl\u00e1tor Geogr\u00e1fico de Municipios y Entidades de Poblaci\u00f3n", "wikidata": "Q11945504", "wikipedia": "ca:Ribera de Card\u00f3s"}}, {"type": "Feature", "id": 305377253, "geometry": {"type": "Point", "coordinates": [1.318055, 42.549124]}, "properties": {"capital": "8", "ele": "1049", "name": "Alins", "name:ca": "Alins", "place": "village", "population": "74", "population:date": "2023", "ref:idescat": "2501750002201", "ref:ine": "25017000201", "source": "Instituto Geogr\u00e1fico Nacional", "source:date": "2011-06", "source:ele": "MDT5", "source:name": "Nomencl\u00e1tor Geogr\u00e1fico de Municipios y Entidades de Poblaci\u00f3n", "wikidata": "Q12672", "wikipedia": "ca:Alins"}}, {"type": "Feature", "id": 305513537, "geometry": {"type": "Point", "coordinates": [1.243896, 42.514956]}, "properties": {"capital": "8", "ele": "991", "name": "T\u00edrvia", "name:ca": "T\u00edrvia", "place": "village", "population": "120", "population:date": "2023", "ref:idescat": "2522130001701", "ref:ine": "25221000101", "wikidata": "Q12678", "wikipedia": "ca:T\u00edrvia"}}, {"type": "Feature", "id": 305513694, "geometry": {"type": "Point", "coordinates": [1.271844, 42.504262]}, "properties": {"capital": "8", "ele": "1279", "name": "Burg", "name:ca": "Burg", "place": "village", "population": "40", "population:date": "2023", "ref:idescat": "2508990002201", "ref:ine": "25089000201", "source": "Institut Cartogr\u00e0fic i Geol\u00f2gic de Catalunya", "wikidata": "Q11910184", "wikipedia": "ca:Burg (Farrera)"}}, {"type": "Feature", "id": 305513739, "geometry": {"type": "Point", "coordinates": [1.27255, 42.496934]}, "properties": {"capital": "8", "ele": "1358", "name": "Farrera", "name:ca": "Farrera", "place": "village", "population": "29", "population:date": "2023", "ref:idescat": "2508990003801", "ref:ine": "25089000301", "source": "Institut Cartogr\u00e0fic i Geol\u00f2gic de Catalunya", "wikidata": "Q24013021"}}, {"type": "Feature", "id": 318687784, "geometry": {"type": "Point", "coordinates": [0.465951, 42.520695]}, "properties": {"capital": "8", "ele": "1195", "name": "Ch\u00eda", "name:an": "Ch\u00eda", "name:ca": "Gia", "name:es": "Ch\u00eda", "place": "village", "population": "92", "population:date": "2023", "ref:ine": "22095000101", "source": "Instituto Geogr\u00e1fico Nacional", "source:date": "2011-06", "source:ele": "MDT5", "source:name": "Nomencl\u00e1tor Geogr\u00e1fico de Municipios y Entidades de Poblaci\u00f3n", "wikidata": "Q987432"}}, {"type": "Feature", "id": 415970786, "geometry": {"type": "Point", "coordinates": [0.49169, 42.512851]}, "properties": {"capital": "8", "ele": "915", "name": "Castej\u00f3n de Sos", "name:an": "Castill\u00f3 de Sos", "name:ca": "Castill\u00f3 de Sos", "name:es": "Castej\u00f3n de Sos", "place": "village", "population": "634", "population:date": "2023", "ref:ine": "22084000101", "wikidata": "Q984671", "wikipedia": "es:Castej\u00f3n de Sos"}}, {"type": "Feature", "id": 420172980, "geometry": {"type": "Point", "coordinates": [1.339303, 42.790744]}, "properties": {"name": "Aulus-les-Bains", "name:ca": "Aul\u00fas", "name:oc": "Aul\u00fas", "place": "village", "population": "159", "population:date": "2021", "source:name:oc": "ieo-bdtopoc", "source:population": "INSEE 2024"}}, {"type": "Feature", "id": 440677946, "geometry": {"type": "Point", "coordinates": [1.288347, 42.849198]}, "properties": {"name": "Erc\u00e9", "name:oc": "\u00c8rce", "place": "village", "population": "576", "population:date": "2021", "source:name:oc": "Lo Congr\u00e8s", "source:population": "INSEE 2024"}}, {"type": "Feature", "id": 440758930, "geometry": {"type": "Point", "coordinates": [1.216443, 42.875315]}, "properties": {"name": "Oust", "name:oc": "Ost", "place": "village", "population": "565", "population:date": "2021", "source:name:oc": "Lo Congr\u00e8s", "source:population": "INSEE 2024"}}, {"type": "Feature", "id": 449930096, "geometry": {"type": "Point", "coordinates": [0.413932, 42.815475]}, "properties": {"addr:postcode": "65240", "name": "Armenteule", "name:ca": "Arment\u00e8ula", "name:oc": "Arment\u00e8ula", "name:uk": "\u0410\u0440\u043c\u0430\u043d\u0442\u0435\u043b\u044c", "place": "village", "population": "60", "source:name:oc": "ieo-bdtopoc", "source:population": "INSEE 2013", "wikidata": "Q1110897", "wikipedia": "fr:Armenteule"}}, {"type": "Feature", "id": 455038027, "geometry": {"type": "Point", "coordinates": [1.203221, 42.865683]}, "properties": {"name": "Seix", "name:oc": "S\u00e8ish", "place": "village", "population": "724", "population:date": "2021", "source:name:oc": "Lo Congr\u00e8s", "source:population": "INSEE 2024", "wikidata": "Q1363168", "wikipedia": "fr:Seix"}}, {"type": "Feature", "id": 457400689, "geometry": {"type": "Point", "coordinates": [1.269247, 42.804248]}, "properties": {"name": "S\u00e9rac d'Ustou", "name:oc": "Serac d'Uston", "place": "village", "source:name:oc": "ieo-bdtopoc"}}, {"type": "Feature", "id": 457403674, "geometry": {"type": "Point", "coordinates": [1.263252, 42.799172]}, "properties": {"name": "Saint-Lizier d'Ustou", "name:oc": "Uston", "place": "village", "population": "264", "population:date": "2021", "source:name:oc": "Lo Congr\u00e8s", "source:population": "INSEE 2024"}}, {"type": "Feature", "id": 623866323, "geometry": {"type": "Point", "coordinates": [0.472037, 42.551167]}, "properties": {"capital": "8", "ele": "990", "name": "Sesu\u00e9", "name:ca": "Sessu\u00e9", "place": "village", "population": "110", "population:date": "2023", "ref:ine": "22221000101", "source": "Instituto Geogr\u00e1fico Nacional", "source:date": "2011-06", "source:name": "Nomencl\u00e1tor Geogr\u00e1fico de Municipios y Entidades de Poblaci\u00f3n", "wikidata": "Q984503"}}, {"type": "Feature", "id": 623866327, "geometry": {"type": "Point", "coordinates": [0.462025, 42.547426]}, "properties": {"alt_name": "Billanoba", "capital": "8", "ele": "980", "name": "Villanova", "name:an": "Villanoba", "name:ca": "Vilanova", "name:es": "Villanova", "old_name": "Billanue", "place": "village", "population": "156", "population:date": "2023", "ref:ine": "22249000101", "source": "Instituto Geogr\u00e1fico Nacional", "source:date": "2011-06", "source:name": "Nomencl\u00e1tor Geogr\u00e1fico de Municipios y Entidades de Poblaci\u00f3n", "wikidata": "Q342176", "wikipedia": "es:Villanova"}}, {"type": "Feature", "id": 626949751, "geometry": {"type": "Point", "coordinates": [0.506616, 42.496576]}, "properties": {"capital": "8", "ele": "1114", "name": "Bisaurri", "name:an": "Bisagorri", "name:ca": "Bissa\u00fcrri", "place": "village", "population": "63", "population:date": "2023", "ref:ine": "22062000201", "source": "Instituto Geogr\u00e1fico Nacional", "source:date": "2011-06", "source:name": "Nomencl\u00e1tor Geogr\u00e1fico de Municipios y Entidades de Poblaci\u00f3n", "wikidata": "Q866052"}}, {"type": "Feature", "id": 849989182, "geometry": {"type": "Point", "coordinates": [0.498859, 42.859004]}, "properties": {"name": "Bourg-d'Oueil", "name:oc": "Borg de Guelh", "place": "village", "population": "10", "population:date": "2021", "postal_code": "31110", "source:name:oc": "Lo Congr\u00e8s", "source:population": "INSEE 2024", "wikipedia": "fr:Bourg-d'Oueil"}}, {"type": "Feature", "id": 849989362, "geometry": {"type": "Point", "coordinates": [0.517834, 42.852887]}, "properties": {"addr:postcode": "31110", "name": "Cir\u00e8s", "name:oc": "Cir\u00e9s", "place": "village", "population": "14", "population:date": "2021", "source:name:oc": "Lo Congr\u00e8s", "source:population": "INSEE 2024", "wikipedia": "fr:Cir\u00e8s"}}, {"type": "Feature", "id": 850016776, "geometry": {"type": "Point", "coordinates": [0.505863, 42.81073]}, "properties": {"addr:postcode": "31110", "name": "Cathervielle", "name:oc": "Catervi\u00e8la", "place": "village", "population": "37", "population:date": "2021", "source:name:oc": "Lo Congr\u00e8s", "source:population": "INSEE 2024", "wikidata": "Q1349148", "wikipedia": "fr:Cathervielle"}}, {"type": "Feature", "id": 953081352, "geometry": {"type": "Point", "coordinates": [0.981186, 42.884561]}, "properties": {"name": "Balacet", "name:oc": "Balacet", "place": "village", "population": "44", "population:date": "2021", "source:name:oc": "Lo Congr\u00e8s", "source:population": "INSEE 2024"}}, {"type": "Feature", "id": 953081575, "geometry": {"type": "Point", "coordinates": [0.943562, 42.881268]}, "properties": {"name": "Antras", "name:oc": "Antr\u00e0s", "place": "village", "population": "74", "population:date": "2021", "source:name:oc": "Lo Congr\u00e8s", "source:population": "INSEE 2024"}}, {"type": "Feature", "id": 953081644, "geometry": {"type": "Point", "coordinates": [0.96577, 42.885031]}, "properties": {"name": "Irazein", "name:ca": "Irasenh", "name:oc": "Irasenh", "place": "village", "source:name:oc": "ieo-bdtopoc"}}, {"type": "Feature", "id": 953081911, "geometry": {"type": "Point", "coordinates": [1.001046, 42.887853]}, "properties": {"addr:postcode": "09800", "name": "Uchentein", "name:oc": "Shoantenh", "place": "village", "ref:FR:FANTOIR": "09062B244Y", "source:name:oc": "Lo Congr\u00e8s"}}, {"type": "Feature", "id": 953104758, "geometry": {"type": "Point", "coordinates": [1.030851, 42.921337]}, "properties": {"name": "Castillon-en-Couserans", "name:oc": "Castilhon de Coserans", "place": "village", "population": "423", "population:date": "2021", "source:name:oc": "Lo Congr\u00e8s", "source:population": "INSEE 2024"}}, {"type": "Feature", "id": 960690415, "geometry": {"type": "Point", "coordinates": [0.894656, 42.928894]}, "properties": {"name": "Saint-Lary", "name:oc": "Sent Lari", "place": "village", "population": "137", "population:date": "2021", "source:name:oc": "Lo Congr\u00e8s", "source:population": "INSEE 2024"}}, {"type": "Feature", "id": 988113711, "geometry": {"type": "Point", "coordinates": [0.620783, 42.85572]}, "properties": {"addr:postcode": "31110", "name": "Gouaux-de-Luchon", "name:oc": "Guaus de Luishon", "place": "village", "population": "44", "population:date": "2021", "source:name:oc": "ieo-bdtopoc", "source:population": "INSEE 2024"}}, {"type": "Feature", "id": 1112295828, "geometry": {"type": "Point", "coordinates": [0.993275, 42.931346]}, "properties": {"name": "Argein", "name:oc": "Argenh", "place": "village", "population": "192", "population:date": "2021", "source:name:oc": "Lo Congr\u00e8s", "source:population": "INSEE 2024"}}, {"type": "Feature", "id": 1112296240, "geometry": {"type": "Point", "coordinates": [0.917257, 42.931146]}, "properties": {"name": "Augirein", "name:oc": "Augirenh", "place": "village", "population": "80", "population:date": "2021", "source:name:oc": "Lo Congr\u00e8s", "source:population": "INSEE 2024"}}, {"type": "Feature", "id": 1112296488, "geometry": {"type": "Point", "coordinates": [1.038472, 42.931517]}, "properties": {"addr:postcode": "09800", "name": "Cescau", "name:oc": "Cescau", "place": "village", "population": "161", "population:date": "2021", "source:name:oc": "Lo Congr\u00e8s", "source:population": "INSEE 2024"}}, {"type": "Feature", "id": 1112296821, "geometry": {"type": "Point", "coordinates": [1.023398, 42.929029]}, "properties": {"name": "Audressein", "name:oc": "Audressenh", "place": "village", "population": "147", "population:date": "2021", "source:name:oc": "Lo Congr\u00e8s", "source:population": "INSEE 2024"}}, {"type": "Feature", "id": 1128845620, "geometry": {"type": "Point", "coordinates": [0.551873, 42.816208]}, "properties": {"name": "Benque-Dessous-et-Dessus", "name:oc": "Benque", "place": "village", "population": "29", "population:date": "2021", "postal_code": "31110", "source:name:oc": "Lo Congr\u00e8s", "source:population": "INSEE 2024", "wikipedia": "fr:Benque-Dessous-et-Dessus"}}, {"type": "Feature", "id": 1128845648, "geometry": {"type": "Point", "coordinates": [0.539677, 42.843605]}, "properties": {"addr:postcode": "31110", "name": "Mayr\u00e8gne", "name:oc": "Mairenha", "place": "village", "population": "28", "population:date": "2021", "source:name:oc": "Lo Congr\u00e8s", "source:population": "INSEE 2024", "wikipedia": "fr:Mayr\u00e8gne"}}, {"type": "Feature", "id": 1128845665, "geometry": {"type": "Point", "coordinates": [0.565518, 42.804009]}, "properties": {"name": "Tr\u00e9bons-de-Luchon", "name:oc": "Treb\u00f2ns de Luishon", "place": "village", "population": "8", "population:date": "2021", "postal_code": "31110", "source:name:oc": "Lo Congr\u00e8s", "source:population": "INSEE 2024", "wikipedia": "fr:Tr\u00e9bons-de-Luchon"}}, {"type": "Feature", "id": 1128845693, "geometry": {"type": "Point", "coordinates": [0.562871, 42.815677]}, "properties": {"addr:postcode": "31110", "name": "Saccourvielle", "name:oc": "Sacorvi\u00e8la", "place": "village", "population": "20", "population:date": "2021", "source:name:oc": "Lo Congr\u00e8s", "source:population": "INSEE 2024"}}, {"type": "Feature", "id": 1128845697, "geometry": {"type": "Point", "coordinates": [0.615873, 42.889886]}, "properties": {"addr:postcode": "31440", "name": "Guran", "name:oc": "Guran", "place": "village", "population": "53", "population:date": "2021", "source:name:oc": "Lo Congr\u00e8s", "source:population": "INSEE 2024"}}, {"type": "Feature", "id": 1128845806, "geometry": {"type": "Point", "coordinates": [0.616861, 42.900353]}, "properties": {"addr:postcode": "31440", "name": "Binos", "name:oc": "Bin\u00f2s", "place": "village", "population": "44", "population:date": "2021", "source:name:oc": "Lo Congr\u00e8s", "source:population": "INSEE 2024"}}, {"type": "Feature", "id": 1128845965, "geometry": {"type": "Point", "coordinates": [0.522777, 42.851139]}, "properties": {"addr:postcode": "31110", "name": "Caubous", "name:oc": "Caub\u00f3s", "place": "village", "population": "4", "population:date": "2021", "source:name:oc": "Lo Congr\u00e8s", "source:population": "INSEE 2024", "wikipedia": "fr:Caubous (Haute-Garonne)"}}, {"type": "Feature", "id": 1128846004, "geometry": {"type": "Point", "coordinates": [0.618123, 42.897092]}, "properties": {"name": "Bachos", "name:oc": "Baish\u00f2s", "place": "village", "population": "34", "population:date": "2021", "postal_code": "31440", "source:name:oc": "Lo Congr\u00e8s", "source:population": "INSEE 2024"}}, {"type": "Feature", "id": 1128846028, "geometry": {"type": "Point", "coordinates": [0.55082, 42.82835]}, "properties": {"addr:postcode": "31110", "name": "Saint-Paul-d'Oueil", "name:oc": "Sent Pau d'Oelh", "place": "village", "population": "38", "population:date": "2021", "source:name:oc": "Lo Congr\u00e8s", "source:population": "INSEE 2024", "wikipedia": "fr:Saint-Paul-d'Oueil"}}, {"type": "Feature", "id": 1128856088, "geometry": {"type": "Point", "coordinates": [0.557677, 42.927967]}, "properties": {"addr:postcode": "65370", "name": "Sost", "name:oc": "S\u00f2st", "name:uk": "\u0421\u043e\u0441\u0442", "place": "village", "population": "97", "population:date": "2021", "source:name:oc": "Lo Congr\u00e8s", "source:population": "INSEE 2024", "wikidata": "Q1429752", "wikipedia": "fr:Sost"}}, {"type": "Feature", "id": 1139995688, "geometry": {"type": "Point", "coordinates": [0.718272, 42.889238]}, "properties": {"name": "Argut-Dessous", "name:oc": "Argut Desota", "place": "village", "population": "22", "population:date": "2021", "postal_code": "31440", "source:name:oc": "ieo-bdtopoc", "source:population": "INSEE 2024"}}, {"type": "Feature", "id": 1153471647, "geometry": {"type": "Point", "coordinates": [0.578202, 42.799004]}, "properties": {"addr:postcode": "31110", "name": "Cazarilh-Lasp\u00e8nes", "name:fr": "Cazarilh-Lasp\u00e8nes", "name:oc": "Cadelh e las Penas", "old_name": "Cazaril-Lasp\u00e8nes", "old_name:fr": "Cazaril-Lasp\u00e8nes", "place": "village", "population": "14", "population:date": "2021", "source:name": "D\u00e9cret n\u00b0 2014-1447 du 3 d\u00e9cembre 2014 portant changement du nom de communes", "source:name:oc": "Lo Congr\u00e8s", "source:population": "INSEE 2024", "website:name": "http://www.legifrance.gouv.fr/affichTexte.do?cidTexte=JORFTEXT000029837701", "wikipedia": "fr:Cazarilh-Lasp\u00e8nes"}}, {"type": "Feature", "id": 1202238031, "geometry": {"type": "Point", "coordinates": [1.055816, 42.888709]}, "properties": {"name": "Bethmale", "name:oc": "Vathmala", "place": "village", "population": "92", "population:date": "2021", "source:name:oc": "Lo Congr\u00e8s", "source:population": "INSEE 2024"}}, {"type": "Feature", "id": 1202238264, "geometry": {"type": "Point", "coordinates": [1.009267, 42.909933]}, "properties": {"name": "Salsein", "name:oc": "Sansenh", "place": "village", "population": "47", "population:date": "2021", "source:name:oc": "Lo Congr\u00e8s", "source:population": "INSEE 2024"}}, {"type": "Feature", "id": 1202238581, "geometry": {"type": "Point", "coordinates": [1.009628, 42.920378]}, "properties": {"name": "Sor", "name:oc": "S\u00f2r", "place": "village", "population": "27", "population:date": "2021", "source:name:oc": "Lo Congr\u00e8s", "source:population": "INSEE 2024"}}, {"type": "Feature", "id": 1202238685, "geometry": {"type": "Point", "coordinates": [1.041651, 42.896317]}, "properties": {"name": "Arrien-en-Bethmale", "name:oc": "Arrienh de Vathmala", "place": "village", "population": "112", "population:date": "2021", "source:name:oc": "Lo Congr\u00e8s", "source:population": "INSEE 2024"}}, {"type": "Feature", "id": 1277496270, "geometry": {"type": "Point", "coordinates": [0.420482, 42.809996]}, "properties": {"addr:postcode": "65240", "name": "Loudervielle", "name:oc": "Lodervi\u00e8la", "name:uk": "\u041b\u0443\u0434\u0435\u0440\u0432'\u0454\u043b\u044c", "place": "village", "population": "48", "population:date": "2021", "source:name:oc": "Lo Congr\u00e8s", "source:population": "INSEE 2024", "wikidata": "Q1341281", "wikipedia": "fr:Loudervielle"}}, {"type": "Feature", "id": 1277496282, "geometry": {"type": "Point", "coordinates": [0.428484, 42.816239]}, "properties": {"addr:postcode": "65240", "name": "Mont", "name:oc": "Mont", "name:uk": "\u041c\u043e\u043d", "place": "village", "population": "34", "population:date": "2021", "source:name:oc": "ieo-bdtopoc", "source:population": "INSEE 2024", "wikidata": "Q1155817", "wikipedia": "fr:Mont (Hautes-Pyr\u00e9n\u00e9es)"}}, {"type": "Feature", "id": 1277497797, "geometry": {"type": "Point", "coordinates": [0.425769, 42.793086]}, "properties": {"addr:postcode": "65240", "name": "Germ", "name:ca": "G\u00e8rm", "name:oc": "G\u00e8rm", "name:uk": "\u0416\u0435\u0440\u043c", "place": "village", "population": "34", "population:date": "2021", "source:name:oc": "ieo-bdtopoc", "source:population": "INSEE 2024", "wikidata": "Q1094205", "wikipedia": "fr:Germ"}}, {"type": "Feature", "id": 1347315997, "geometry": {"type": "Point", "coordinates": [0.596765, 42.260145]}, "properties": {"capital": "8", "ele": "1030", "name": "Cajigar / Queixigar", "name:an": "Caixigar", "name:ca": "Queixigar", "name:es": "Cajigar", "place": "village", "population": "12", "population:date": "2023", "ref:ine": "22155000101", "source:population": "wikipedia", "wikidata": "Q13048573", "wikipedia": "ca:Queixigar"}}, {"type": "Feature", "id": 1388973038, "geometry": {"type": "Point", "coordinates": [1.340477, 42.900363]}, "properties": {"name": "Boussenac", "name:oc": "Bocenac", "place": "village", "population": "233", "population:date": "2021", "source:name:oc": "Lo Congr\u00e8s", "source:population": "INSEE 2024"}}, {"type": "Feature", "id": 1423100210, "geometry": {"type": "Point", "coordinates": [1.34228, 42.294189]}, "properties": {"capital": "8", "ele": "663", "name": "Noves de Segre", "name:ca": "Noves de Segre", "place": "village", "population": "114", "population:date": "2023", "ref:idescat": "2590620011501", "ref:ine": "25906001101", "source": "Instituto Geogr\u00e1fico Nacional", "source:date": "2011-06", "source:ele": "MDT5", "source:name": "Nomencl\u00e1tor Geogr\u00e1fico de Municipios y Entidades de Poblaci\u00f3n", "wikidata": "Q4892837", "wikipedia": "ca:Noves de Segre"}}, {"type": "Feature", "id": 1446993889, "geometry": {"type": "Point", "coordinates": [0.721557, 42.258173]}, "properties": {"capital": "8", "ele": "705", "name": "Ar\u00e9n / Areny de Noguera", "name:an": "Ar\u00e9n de Noguera", "name:ca": "Areny de Noguera", "official_name": "Ar\u00e9n de Noguera", "place": "village", "population": "181", "population:date": "2023", "ref:ine": "22035000101", "wikidata": "Q719174", "wikipedia": "ca:Areny de Noguera"}}, {"type": "Feature", "id": 1446993904, "geometry": {"type": "Point", "coordinates": [0.594754, 42.365946]}, "properties": {"capital": "8", "ele": "1008", "name": "Beranuy", "name:an": "Beranui", "name:ca": "Beranui", "place": "village", "population": "16", "population:date": "2023", "ref:ine": "22246000201", "wikidata": "Q1020564", "wikipedia": "ca:Beranui"}}, {"type": "Feature", "id": 1446993914, "geometry": {"type": "Point", "coordinates": [0.66686, 42.42694]}, "properties": {"capital": "8", "ele": "1244", "name": "Bonansa", "name:an": "Bonansa", "name:ca": "Bonansa", "place": "village", "population": "69", "population:date": "2023", "ref:ine": "22067000101", "wikidata": "Q748790", "wikipedia": "ca:Bonansa"}}, {"type": "Feature", "id": 1446993952, "geometry": {"type": "Point", "coordinates": [0.477025, 42.379317]}, "properties": {"capital": "8", "ele": "1016", "name": "Egea", "name:an": "Ixea", "place": "village", "population": "32", "population:date": "2023", "ref:ine": "22244000101", "source": "Instituto Geogr\u00e1fico Nacional", "source:date": "2011-06", "source:ele": "MDT5", "source:name": "Nomencl\u00e1tor Geogr\u00e1fico de Municipios y Entidades de Poblaci\u00f3n", "wikidata": "Q58191231"}}, {"type": "Feature", "id": 1446994017, "geometry": {"type": "Point", "coordinates": [0.599112, 42.47066]}, "properties": {"capital": "8", "ele": "1432", "name": "Laspa\u00fales / Les Pa\u00fcls", "name:an": "Las Pauls", "name:ca": "Les Pa\u00fcls", "name:es": "Laspa\u00fales", "place": "village", "population": "91", "population:date": "2023", "ref:ine": "22143000701", "source": "Instituto Geogr\u00e1fico Nacional;Nomencl\u00e1tor Arag\u00f3n 2023", "source:date": "2011-06", "source:ele": "MDT5", "source:name": "Nomencl\u00e1tor Geogr\u00e1fico de Municipios y Entidades de Poblaci\u00f3n", "source:population": "wikipedia", "wikidata": "Q371846", "wikipedia": "ca:Les Pa\u00fcls"}}, {"type": "Feature", "id": 1446994031, "geometry": {"type": "Point", "coordinates": [0.465044, 42.434651]}, "properties": {"capital": "8", "ele": "1002", "name": "Llert", "name:an": "Llert", "place": "village", "population": "8", "population:date": "2023", "ref:ine": "22243000399", "source": "Instituto Geogr\u00e1fico Nacional", "source:date": "2011-06", "source:ele": "MDT5", "source:name": "Nomencl\u00e1tor Geogr\u00e1fico de Municipios y Entidades de Poblaci\u00f3n", "wikidata": "Q20615532"}}, {"type": "Feature", "id": 1446994130, "geometry": {"type": "Point", "coordinates": [0.433405, 42.477405]}, "properties": {"capital": "8", "ele": "819", "name": "Seira", "name:an": "Seira", "name:es": "Seira", "place": "village", "population": "125", "population:date": "2023", "ref:ine": "22215000301", "source": "Instituto Geogr\u00e1fico Nacional", "source:date": "2011-06", "source:ele": "MDT5", "source:name": "Nomencl\u00e1tor Geogr\u00e1fico de Municipios y Entidades de Poblaci\u00f3n", "wikidata": "Q987417"}}, {"type": "Feature", "id": 1446994133, "geometry": {"type": "Point", "coordinates": [0.746966, 42.31724]}, "properties": {"capital": "8", "ele": "737", "name": "Sopeira", "name:an": "Sopeira", "name:ca": "Sopeira", "place": "village", "population": "53", "population:date": "2023", "ref:ine": "22223000201", "source": "Instituto Geogr\u00e1fico Nacional", "source:date": "2011-06", "source:ele": "MDT5", "source:name": "Nomencl\u00e1tor Geogr\u00e1fico de Municipios y Entidades de Poblaci\u00f3n", "wikidata": "Q541865", "wikipedia": "ca:Sopeira"}}, {"type": "Feature", "id": 1446994147, "geometry": {"type": "Point", "coordinates": [0.526686, 42.373063]}, "properties": {"capital": "8", "ele": "1078", "name": "Torre la Ribera", "name:an": "Torlarribera", "name:ca": "Tor-la-ribera", "place": "village", "population": "6", "population:date": "2023", "ref:ine": "22233000101", "source": "Instituto Geogr\u00e1fico Nacional", "source:date": "2011-06", "source:ele": "MDT5", "source:name": "Nomencl\u00e1tor Geogr\u00e1fico de Municipios y Entidades de Poblaci\u00f3n", "wikidata": "Q984625", "wikipedia": "ca:Tor-la-ribera"}}, {"type": "Feature", "id": 1460477965, "geometry": {"type": "Point", "coordinates": [1.110904, 42.634368]}, "properties": {"capital": "8", "ele": "1084", "name": "Val\u00e8ncia d'\u00c0neu", "name:ca": "Val\u00e8ncia d'\u00c0neu", "old_name:es": "Valencia de Areo", "place": "village", "population": "188", "population:date": "2023", "ref:idescat": "2502410008101", "ref:ine": "25024000801", "source": "Instituto Geogr\u00e1fico Nacional", "source:date": "2011-06", "source:ele": "MDT5", "source:name": "Nomencl\u00e1tor Geogr\u00e1fico de Municipios y Entidades de Poblaci\u00f3n", "wikidata": "Q9092325", "wikipedia": "ca:Val\u00e8ncia d'\u00c0neu"}}, {"type": "Feature", "id": 1460477971, "geometry": {"type": "Point", "coordinates": [1.246962, 42.239169]}, "properties": {"capital": "8", "ele": "755", "name": "Cab\u00f3", "name:ca": "Cab\u00f3", "place": "village", "population": "46", "population:date": "2023", "ref:idescat": "2506160001701", "ref:ine": "25061000101", "website": "https://cabo.ddl.net/", "wikidata": "Q1752450", "wikipedia": "ca:Cab\u00f3"}}, {"type": "Feature", "id": 1460478629, "geometry": {"type": "Point", "coordinates": [1.383161, 42.31241]}, "properties": {"capital": "8", "ele": "699", "name": "el Pla de Sant Tirs", "name:ca": "el Pla de Sant Tirs", "old_name:es": "Pla de San Tirs", "place": "village", "population": "366", "population:date": "2023", "ref:idescat": "2518500011501", "ref:ine": "25185001101", "wikidata": "Q9252228", "wikipedia": "ca:El Pla de Sant Tirs"}}, {"type": "Feature", "id": 1460478664, "geometry": {"type": "Point", "coordinates": [1.24943, 42.620946]}, "properties": {"capital": "8", "ele": "1049", "name": "Lladorre", "name:ca": "Lladorre", "name:ru": "\u041b\u044c\u044f\u0434\u043e\u0440\u0440\u0435", "place": "village", "population": "54", "population:date": "2023", "ref:idescat": "2512350004301", "ref:ine": "25123000401", "source": "Instituto Geogr\u00e1fico Nacional", "source:date": "2011-06", "source:ele": "MDT5", "source:name": "Nomencl\u00e1tor Geogr\u00e1fico de Municipios y Entidades de Poblaci\u00f3n", "wikidata": "Q12668", "wikipedia": "ca:Lladorre"}}, {"type": "Feature", "id": 1460478729, "geometry": {"type": "Point", "coordinates": [1.262045, 42.592473]}, "properties": {"capital": "8", "ele": "1209", "name": "Esterri de Card\u00f3s", "name:ca": "Esterri de Card\u00f3s", "place": "village", "population": "24", "population:date": "2023", "ref:idescat": "2508700003801", "ref:ine": "25087000301", "source": "Instituto Geogr\u00e1fico Nacional", "source:date": "2011-06", "source:ele": "MDT5", "source:name": "Nomencl\u00e1tor Geogr\u00e1fico de Municipios y Entidades de Poblaci\u00f3n", "wikidata": "Q12669", "wikipedia": "ca:Esterri de Card\u00f3s"}}, {"type": "Feature", "id": 1466087553, "geometry": {"type": "Point", "coordinates": [1.161387, 42.379705]}, "properties": {"capital": "8", "ele": "1250", "name": "Vilamur", "name:ca": "Vilamur", "place": "village", "population": "91", "population:date": "2023", "ref:idescat": "2520810013601", "ref:ine": "25208001301", "source": "Instituto Geogr\u00e1fico Nacional", "source:date": "2011-06", "source:ele": "MDT5", "source:name": "Nomencl\u00e1tor Geogr\u00e1fico de Municipios y Entidades de Poblaci\u00f3n", "wikidata": "Q11954774", "wikipedia": "ca:Vilamur"}}, {"type": "Feature", "id": 1470838446, "geometry": {"type": "Point", "coordinates": [0.967272, 42.247366]}, "properties": {"capital": "8", "ele": "526", "name": "la Pobla de Segur", "name:ca": "la Pobla de Segur", "place": "village", "population": "2924", "population:date": "2023", "ref:idescat": "2517130001701", "ref:ine": "25171000101", "wikidata": "Q17172", "wikipedia": "ca:La Pobla de Segur"}}, {"type": "Feature", "id": 1677317186, "geometry": {"type": "Point", "coordinates": [0.618886, 42.868987]}, "properties": {"name": "Baren", "name:oc": "Baren", "place": "village", "population": "12", "population:date": "2021", "postal_code": "31440", "source:name:oc": "Lo Congr\u00e8s", "source:population": "INSEE 2024"}}, {"type": "Feature", "id": 1692814626, "geometry": {"type": "Point", "coordinates": [1.143831, 42.907309]}, "properties": {"name": "Alos", "name:oc": "Al\u00f2s", "place": "village", "population": "118", "population:date": "2021", "source": "cadastre-dgi-fr source : Direction G\u00e9n\u00e9rale des Imp\u00f4ts - Cadastre. Mise \u00e0 jour : 2012", "source:name:oc": "ieo-bdtopoc", "source:population": "INSEE 2024"}}, {"type": "Feature", "id": 1693000750, "geometry": {"type": "Point", "coordinates": [1.232764, 42.912955]}, "properties": {"name": "Soulan", "name:oc": "Solan de Coserans", "place": "village", "population": "382", "population:date": "2021", "source": "cadastre-dgi-fr source : Direction G\u00e9n\u00e9rale des Imp\u00f4ts - Cadastre. Mise \u00e0 jour : 2012", "source:name:oc": "Lo Congr\u00e8s", "source:population": "INSEE 2024"}}, {"type": "Feature", "id": 1696449919, "geometry": {"type": "Point", "coordinates": [1.21057, 42.89261]}, "properties": {"name": "Soueix", "name:oc": "So\u00e8ish", "place": "village", "population": "429", "population:date": "2021", "source": "geofla", "source:name:oc": "Lo Congr\u00e8s", "source:population": "INSEE 2024"}}, {"type": "Feature", "id": 1697665784, "geometry": {"type": "Point", "coordinates": [1.1864, 42.787236]}, "properties": {"name": "Couflens", "name:oc": "Coflens", "place": "village", "population": "99", "population:date": "2021", "source": "geofla", "source:name:oc": "ieo-bdtopoc", "source:population": "INSEE 2024"}}, {"type": "Feature", "id": 1699555170, "geometry": {"type": "Point", "coordinates": [1.177668, 42.87614]}, "properties": {"name": "Sentenac-d'Oust", "name:oc": "Sentenac d'Ost", "place": "village", "population": "104", "population:date": "2021", "source:name:oc": "Lo Congr\u00e8s", "source:population": "INSEE 2024"}}, {"type": "Feature", "id": 1699748564, "geometry": {"type": "Point", "coordinates": [0.527873, 42.811446]}, "properties": {"name": "Billi\u00e8re", "name:oc": "Vilh\u00e8ra", "place": "village", "population": "31", "population:date": "2021", "source:name:oc": "Lo Congr\u00e8s", "source:population": "INSEE 2024", "wikipedia": "fr:Billi\u00e8re (Haute-Garonne)"}}, {"type": "Feature", "id": 1699748575, "geometry": {"type": "Point", "coordinates": [0.48589, 42.81691]}, "properties": {"name": "Jurvielle", "name:oc": "Jurvi\u00e8la", "place": "village", "population": "16", "population:date": "2021", "source:name:oc": "Lo Congr\u00e8s", "source:population": "INSEE 2024", "wikipedia": "fr:Jurvielle"}}, {"type": "Feature", "id": 1699748582, "geometry": {"type": "Point", "coordinates": [0.61548, 42.81537]}, "properties": {"addr:postcode": "31110", "name": "Sode", "name:oc": "S\u00f2da", "place": "village", "population": "21", "population:date": "2021", "source:name:oc": "Lo Congr\u00e8s", "source:population": "INSEE 2024", "wikidata": "Q969192", "wikipedia": "fr:Sode"}}, {"type": "Feature", "id": 1701060562, "geometry": {"type": "Point", "coordinates": [0.48667, 42.813111]}, "properties": {"name": "Portet-de-Luchon", "name:oc": "Port\u00e8th de Luishon", "place": "village", "population": "39", "population:date": "2021", "source:name:oc": "Lo Congr\u00e8s", "source:population": "INSEE 2024", "wikipedia": "fr:Portet-de-Luchon"}}, {"type": "Feature", "id": 1705736524, "geometry": {"type": "Point", "coordinates": [1.266198, 42.892505]}, "properties": {"name": "Aleu", "name:oc": "\u00c0leu", "place": "village", "population": "126", "population:date": "2021", "source": "cadastre-dgi-fr source : Direction G\u00e9n\u00e9rale des Imp\u00f4ts - Cadastre. Mise \u00e0 jour : 2012", "source:name:oc": "Lo Congr\u00e8s", "source:population": "INSEE 2024"}}, {"type": "Feature", "id": 1706148371, "geometry": {"type": "Point", "coordinates": [0.41328, 42.833264]}, "properties": {"name": "An\u00e9ran", "name:ca": "An\u00e8ra", "name:oc": "An\u00e8ra", "place": "village", "ref:FR:FANTOIR": "65141B041B", "source:name:oc": "ieo-bdtopoc"}}, {"type": "Feature", "id": 1706148384, "geometry": {"type": "Point", "coordinates": [0.415601, 42.81992]}, "properties": {"addr:postcode": "65240", "name": "Estarvielle", "name:ca": "Estarvi\u00e8la", "name:oc": "Estarvi\u00e8la", "place": "village", "population": "38", "population:date": "2021", "source:name:oc": "ieo-bdtopoc", "source:population": "INSEE 2024", "wikidata": "Q1092890", "wikipedia": "fr:Estarvielle"}}, {"type": "Feature", "id": 1717559332, "geometry": {"type": "Point", "coordinates": [0.411216, 42.795873]}, "properties": {"addr:postcode": "65510", "name": "Loudenvielle", "name:oc": "Lodenvi\u00e8la", "name:uk": "\u041b\u0443\u0434\u0430\u043d\u0432'\u0454\u043b\u044c", "place": "village", "population": "323", "population:date": "2021", "source:name:oc": "Lo Congr\u00e8s", "source:population": "INSEE 2024", "wikidata": "Q28464483", "wikipedia": "fr:Loudenvielle"}}, {"type": "Feature", "id": 1895251045, "geometry": {"type": "Point", "coordinates": [0.523732, 42.605266]}, "properties": {"capital": "8", "ele": "1140", "name": "Benasque", "name:an": "Ben\u00e1s", "name:ca": "Benasc", "name:es": "Benasque", "place": "village", "population": "1728", "population:date": "2023", "ref:ine": "22054000201", "wikidata": "Q575809", "wikipedia": "es:Benasque"}}, {"type": "Feature", "id": 2078571289, "geometry": {"type": "Point", "coordinates": [1.191655, 42.889261]}, "properties": {"name": "Rogalle", "place": "village"}}, {"type": "Feature", "id": 2177873714, "geometry": {"type": "Point", "coordinates": [0.465187, 42.576471]}, "properties": {"capital": "8", "ele": "1109", "name": "Sah\u00fan", "name:an": "Sa\u00fanc", "name:ca": "Sa\u00fcnc", "name:es": "Sah\u00fan", "place": "village", "population": "132", "population:date": "2023", "ref:ine": "22200000302", "source": "Instituto Geogr\u00e1fico Nacional", "source:date": "2011-06", "source:name": "Nomencl\u00e1tor Geogr\u00e1fico de Municipios y Entidades de Poblaci\u00f3n", "wikidata": "Q24013330"}}, {"type": "Feature", "id": 2355354427, "geometry": {"type": "Point", "coordinates": [1.305123, 42.474883]}, "properties": {"name": "Bordes de Tress\u00f3", "name:ca": "Bordes de Tress\u00f3", "place": "village", "wikidata": "Q52728871"}}, {"type": "Feature", "id": 2405129356, "geometry": {"type": "Point", "coordinates": [1.258728, 42.810097]}, "properties": {"name": "Le Trein d'Ustou", "name:oc": "Eth Trenh d'Uston", "place": "village"}}, {"type": "Feature", "id": 3207377002, "geometry": {"type": "Point", "coordinates": [0.423751, 42.896579]}, "properties": {"addr:postcode": "65240", "name": "Bareilles", "name:ca": "Era Varelha", "name:fr": "Bareilles", "name:oc": "Era Varelha", "name:uk": "\u0411\u0430\u0440\u0435\u0439", "place": "village", "population": "42", "population:date": "2021", "source:name:oc": "ieo-bdtopoc", "source:population": "INSEE 2024", "wikidata": "Q530873", "wikipedia": "fr:Bareilles"}}, {"type": "Feature", "id": 3217559185, "geometry": {"type": "Point", "coordinates": [0.417342, 42.841356]}, "properties": {"name": "Cazaux-Debat", "place": "village"}}, {"type": "Feature", "id": 3217559186, "geometry": {"type": "Point", "coordinates": [0.421379, 42.841553]}, "properties": {"name": "Cazaux-Dessus", "place": "village", "source": "cadastre-dgi-fr source : Direction G\u00e9n\u00e9rale des Imp\u00f4ts - Cadastre. Mise \u00e0 jour : 2014"}}, {"type": "Feature", "id": 3217559187, "geometry": {"type": "Point", "coordinates": [0.420045, 42.830366]}, "properties": {"name": "Fr\u00e9chet", "place": "village", "population": "63", "population:date": "2021", "ref:FR:FANTOIR": "65141B013W", "source": "cadastre-dgi-fr source : Direction G\u00e9n\u00e9rale des Imp\u00f4ts - Cadastre. Mise \u00e0 jour : 2014", "source:population": "INSEE 2024"}}, {"type": "Feature", "id": 3924971646, "geometry": {"type": "Point", "coordinates": [0.741682, 42.256342]}, "properties": {"abandoned": "village", "abandoned:place": "village", "name": "Orrit", "name:ca": "Orrit", "place": "village", "wikidata": "Q9053266", "wikipedia": "ca:Orrit"}}, {"type": "Feature", "id": 4644611893, "geometry": {"type": "Point", "coordinates": [0.619592, 42.832209]}, "properties": {"name": "Artigue", "name:oc": "Artiga", "place": "village", "population": "31", "population:date": "2021", "postal_code": "31110", "source:name:oc": "Lo Congr\u00e8s", "source:population": "INSEE 2024", "wikidata": "Q1088729", "wikipedia": "fr:Artigue"}}, {"type": "Feature", "id": 5314512851, "geometry": {"type": "Point", "coordinates": [1.029913, 42.898463]}, "properties": {"name": "Les Bordes-sur-Lez", "name:oc": "Eras B\u00f2rdas de Les", "place": "village", "population": "213", "population:date": "2021", "source:name:oc": "Lo Congr\u00e8s", "source:population": "INSEE 2024"}}, {"type": "Feature", "id": 5775462668, "geometry": {"type": "Point", "coordinates": [0.538422, 42.59274]}, "properties": {"name": "Cerler", "name:an": "Sarll\u00e9", "name:el": "\u0398\u03b5\u03c1\u03bb\u03ad\u03c1", "name:es": "Cerler", "place": "village", "population": "374", "population:date": "2023", "postal_code": "22449", "ref:ine": "22054000301", "wikidata": "Q2946696", "wikipedia": "an:Sarll\u00e9"}}, {"type": "Feature", "id": 7885309830, "geometry": {"type": "Point", "coordinates": [0.606903, 42.844086]}, "properties": {"name": "Pratviel", "name:oc": "Prat vi\u00e8lh", "place": "village", "source:name:oc": "Lo Congr\u00e8s"}}, {"type": "Feature", "id": 232581305, "geometry": {"type": "LineString", "coordinates": [[1.371449, 42.870579], [1.373098, 42.871105], [1.3745, 42.869662], [1.373619, 42.869007], [1.373032, 42.869045], [1.373019, 42.868343], [1.373772, 42.868109], [1.372342, 42.867566], [1.371905, 42.868418], [1.371589, 42.869171], [1.371449, 42.870579]]}, "properties": {"name": "Le Port", "place": "village"}}, {"type": "Feature", "id": 332390917, "geometry": {"type": "LineString", "coordinates": [[0.884004, 42.329758], [0.884026, 42.329605], [0.884536, 42.329321], [0.884754, 42.329313], [0.884969, 42.329168], [0.884916, 42.32897], [0.885107, 42.328865], [0.885361, 42.329038], [0.885607, 42.32904], [0.8857, 42.329145], [0.885169, 42.329552], [0.885021, 42.329535], [0.884743, 42.329822], [0.884855, 42.330033], [0.884774, 42.330147], [0.884473, 42.33007], [0.884455, 42.32994], [0.884493, 42.329771], [0.884391, 42.329733], [0.884004, 42.329758]]}, "properties": {"name": "Pinyana", "name:ca": "Pinyana", "place": "village", "source": "survey", "wikidata": "Q11817167", "wikipedia": "ca:Pinyana"}}]}