{"type": "FeatureCollection", "features": [{"type": "Feature", "id": 440756105, "geometry": {"type": "Point", "coordinates": [1.21574, 42.874674]}, "properties": {"name": "H\u00f4tel de la Poste", "tourism": "hotel"}}, {"type": "Feature", "id": 444869401, "geometry": {"type": "Point", "coordinates": [0.842287, 42.563009]}, "properties": {"contact:facebook": "CaldesdeBoiBalneari", "contact:instagram": "balneario_caldes_de_boi", "contact:twitter": "caldesdeboi", "email": "reservas@caldesdeboi.com", "name": "Caldas", "phone": "(+ 34) 683 14 12 25", "stars": "3", "tourism": "hotel", "website": "https://www.caldesdeboi.com/es/hotel-caldas/"}}, {"type": "Feature", "id": 446064081, "geometry": {"type": "Point", "coordinates": [0.521879, 42.605163]}, "properties": {"amenity": "bar", "name": "Hotel La Solana", "tourism": "hotel"}}, {"type": "Feature", "id": 561168382, "geometry": {"type": "Point", "coordinates": [1.347043, 42.889483]}, "properties": {"name": "Le Globe", "tourism": "hotel"}}, {"type": "Feature", "id": 893053923, "geometry": {"type": "Point", "coordinates": [0.768047, 42.912383]}, "properties": {"name": "Tuc de l'\u00c9tang", "tourism": "hotel"}}, {"type": "Feature", "id": 952629543, "geometry": {"type": "Point", "coordinates": [0.573929, 42.320917]}, "properties": {"amenity": "restaurant", "name": "Casa Peix", "name:ca": "Casa Peix", "tourism": "hotel"}}, {"type": "Feature", "id": 1079391501, "geometry": {"type": "Point", "coordinates": [1.189682, 42.874152]}, "properties": {"internet_access": "yes", "internet_access:fee": "yes", "name": "La Souleille des Lannes", "operator": "Odalys", "smoking": "yes", "tourism": "hotel", "website": "https://www.odalys-vacances.com/location-vacances-Seix.html"}}, {"type": "Feature", "id": 1140764724, "geometry": {"type": "Point", "coordinates": [0.523144, 42.601572]}, "properties": {"name": "Gran Hotel Benasque", "stars": "4", "tourism": "hotel"}}, {"type": "Feature", "id": 1315524126, "geometry": {"type": "Point", "coordinates": [1.088168, 42.576648]}, "properties": {"name": "Hotel Roca Blanca", "tourism": "hotel", "website": "http://www.rocablanca.net/", "wikidata": "Q111389339"}}, {"type": "Feature", "id": 1326812172, "geometry": {"type": "Point", "coordinates": [0.490877, 42.512009]}, "properties": {"name": "Plaza", "tourism": "hotel"}}, {"type": "Feature", "id": 1369145933, "geometry": {"type": "Point", "coordinates": [0.542616, 42.626052]}, "properties": {"email": "reservas@hostalparquenatural.com", "mobile": "+34 609 972 090", "name": "Hostal Parque Natural", "phone": "+34 974 344 584", "tourism": "hotel", "website": "https://www.hostalparquenatural.com/", "wheelchair": "yes"}}, {"type": "Feature", "id": 1428343033, "geometry": {"type": "Point", "coordinates": [0.927661, 42.655062]}, "properties": {"contact:mobile": "+34 660 175 843", "email": "banhsdetredos@banhsdetredos.com", "name": "Banhs de Tred\u00f2s", "name:ca": "Banhs de Tred\u00f2s", "name:oc": "Banhs de Tred\u00f2s", "natural": "hot_spring", "phone": "+34 973 253 003", "source": "survey", "tourism": "hotel", "website": "https://www.banhsdetredos.com/"}}, {"type": "Feature", "id": 1469110376, "geometry": {"type": "Point", "coordinates": [1.129651, 42.41]}, "properties": {"addr:city": "Sort", "addr:housenumber": "3", "addr:postcode": "25560", "addr:street": "Avinguda de la Diputaci\u00f3", "email": "info@hotelpessets.com", "internet_access": "wlan", "internet_access:fee": "customers", "name": "Hotel Pessets", "phone": "+34 973620000", "stars": "4", "tourism": "hotel", "website": "https://www.hotelpessets.com", "wheelchair": "yes"}}, {"type": "Feature", "id": 1469110390, "geometry": {"type": "Point", "coordinates": [1.130702, 42.410597]}, "properties": {"addr:city": "Sort", "addr:housenumber": "10", "addr:postcode": "25560", "addr:street": "Avinguda de la Verge de Montserrat", "email": "info@peyresort.com", "name": "Pey", "phone": "+34 973 620 254", "tourism": "hotel", "website": "https://www.peyresort.com"}}, {"type": "Feature", "id": 1469265610, "geometry": {"type": "Point", "coordinates": [1.130131, 42.411573]}, "properties": {"addr:city": "Sort", "addr:postcode": "25560", "addr:street": "Carrer Major", "name": "Les Collades", "name:ca": "Les Collades", "phone": "+34 973621180", "tourism": "hotel", "website": "https://lescollades.es"}}, {"type": "Feature", "id": 1469265631, "geometry": {"type": "Point", "coordinates": [1.132273, 42.414897]}, "properties": {"addr:city": "Sort", "addr:housenumber": "27", "addr:postcode": "25560", "addr:street": "Avinguda de la Generalitat", "air_conditioning": "yes", "email": "info@hotellesbrases.com", "internet_access": "wlan", "internet_access:fee": "customers", "name": "Les Brases", "phone": "+34 973 621 071", "stars": "3", "tourism": "hotel", "website": "https://www.hotellesbrases.com"}}, {"type": "Feature", "id": 1472949048, "geometry": {"type": "Point", "coordinates": [1.123075, 42.628228]}, "properties": {"ele": "1008.66", "name": "Hotel", "name:ca": "Hotel", "time": "2011-10-18T11:09:59Z", "tourism": "hotel"}}, {"type": "Feature", "id": 1472949050, "geometry": {"type": "Point", "coordinates": [1.123544, 42.625718]}, "properties": {"name": "Hotel Bruna", "tourism": "hotel", "website": "http://www.hotelbruna.es/"}}, {"type": "Feature", "id": 1557110442, "geometry": {"type": "Point", "coordinates": [0.540328, 42.594593]}, "properties": {"internet_access": "no", "name": "Apartahotel Prados de Velarta", "tourism": "hotel"}}, {"type": "Feature", "id": 1559261994, "geometry": {"type": "Point", "coordinates": [0.522098, 42.603621]}, "properties": {"internet_access": "yes", "name": "Hotel Ciria", "stars": "3", "tourism": "hotel"}}, {"type": "Feature", "id": 1676124663, "geometry": {"type": "Point", "coordinates": [0.960155, 42.344124]}, "properties": {"name": "Arturo", "tourism": "hotel"}}, {"type": "Feature", "id": 1800402222, "geometry": {"type": "Point", "coordinates": [1.078985, 42.359919]}, "properties": {"addr:city": "Baro", "addr:postcode": "25593", "amenity": "restaurant", "check_date": "2022-06-06", "internet_access:fee": "customers", "name": "Fonda Farr\u00e9", "phone": "+34 973 66 20 35", "tourism": "hotel", "website": "https://www.fondafarre.com"}}, {"type": "Feature", "id": 1813800531, "geometry": {"type": "Point", "coordinates": [0.493225, 42.512289]}, "properties": {"name": "Miranda", "tourism": "hotel"}}, {"type": "Feature", "id": 1814422137, "geometry": {"type": "Point", "coordinates": [0.491215, 42.512255]}, "properties": {"name": "Pirineos", "stars": "2", "tourism": "hotel"}}, {"type": "Feature", "id": 1896881851, "geometry": {"type": "Point", "coordinates": [0.522019, 42.603214]}, "properties": {"name": "Hotel Arag\u00fcells", "tourism": "hotel"}}, {"type": "Feature", "id": 1896881857, "geometry": {"type": "Point", "coordinates": [0.521603, 42.602894]}, "properties": {"name": "Hotel El Puente", "stars": "1", "tourism": "hotel"}}, {"type": "Feature", "id": 1896881882, "geometry": {"type": "Point", "coordinates": [0.521583, 42.603133]}, "properties": {"name": "Hotel Llibrada", "stars": "2", "tourism": "hotel"}}, {"type": "Feature", "id": 1914395499, "geometry": {"type": "Point", "coordinates": [1.343031, 42.891163]}, "properties": {"name": "Auberge Les Trois Seigneurs", "tourism": "hotel"}}, {"type": "Feature", "id": 2000017828, "geometry": {"type": "Point", "coordinates": [0.824194, 42.69803]}, "properties": {"tourism": "hotel"}}, {"type": "Feature", "id": 2137592863, "geometry": {"type": "Point", "coordinates": [1.134099, 42.441374]}, "properties": {"name": "Marvel Condes Del Pallars", "tourism": "hotel"}}, {"type": "Feature", "id": 2159923586, "geometry": {"type": "Point", "coordinates": [1.116093, 42.38459]}, "properties": {"name": "L'Alcova", "tourism": "hotel"}}, {"type": "Feature", "id": 2321662486, "geometry": {"type": "Point", "coordinates": [1.216449, 42.495924]}, "properties": {"addr:city": "Llavors\u00ed", "addr:country": "ES", "addr:postcode": "25595", "addr:province": "Lleida", "addr:street": "Cam\u00ed de Riberies", "email": "booking@riberies.com", "internet_access": "wlan", "name": "Riberies", "nohousenumber": "yes", "phone": "+34 973 622 051", "stars": "4", "tourism": "hotel", "website": "https://riberies.cat/"}}, {"type": "Feature", "id": 2323000488, "geometry": {"type": "Point", "coordinates": [1.235436, 42.582363]}, "properties": {"name": "Hotel Pensi\u00f3 Samarra", "tourism": "hotel"}}, {"type": "Feature", "id": 2363003119, "geometry": {"type": "Point", "coordinates": [1.257064, 42.643844]}, "properties": {"check_date": "2024-08-06", "name": "Casa Feliu", "tourism": "hotel"}}, {"type": "Feature", "id": 2363003122, "geometry": {"type": "Point", "coordinates": [1.256902, 42.643443]}, "properties": {"name": "Estanys Blaus", "name:ca": "Estanys Blaus", "tourism": "hotel", "wikidata": "Q111872153"}}, {"type": "Feature", "id": 2363003130, "geometry": {"type": "Point", "coordinates": [1.256719, 42.643585]}, "properties": {"addr:city": "Tavascan", "addr:country": "ES", "addr:postcode": "25577", "addr:street": "Carrer Unic", "contact:email": "info@llacscardos.com", "contact:phone": "+34 973 62 31 78", "contact:website": "https://hotelllacsdecardos.com/", "name": "Llacs de Card\u00f3s", "name:ca": "Llacs de Card\u00f3s", "rooms": "22", "tourism": "hotel"}}, {"type": "Feature", "id": 2363003136, "geometry": {"type": "Point", "coordinates": [1.256858, 42.643911]}, "properties": {"check_date": "2024-08-06", "name": "Marxant", "tourism": "hotel"}}, {"type": "Feature", "id": 2400244289, "geometry": {"type": "Point", "coordinates": [0.717399, 42.476319]}, "properties": {"name": "Fonda Mas", "source": "www.fondamas.cat", "tourism": "hotel"}}, {"type": "Feature", "id": 2426947991, "geometry": {"type": "Point", "coordinates": [0.79514, 42.702672]}, "properties": {"name": "El Ciervo", "tourism": "hotel"}}, {"type": "Feature", "id": 2426971796, "geometry": {"type": "Point", "coordinates": [0.809476, 42.697301]}, "properties": {"name": "Gran Chalet Hotel", "source": "survey", "stars": "3", "tourism": "hotel"}}, {"type": "Feature", "id": 2426971827, "geometry": {"type": "Point", "coordinates": [0.873068, 42.70145]}, "properties": {"tourism": "hotel"}}, {"type": "Feature", "id": 2426971840, "geometry": {"type": "Point", "coordinates": [0.901034, 42.706762]}, "properties": {"name": "Mont Romies YOY", "tourism": "hotel"}}, {"type": "Feature", "id": 2473207846, "geometry": {"type": "Point", "coordinates": [0.742464, 42.406051]}, "properties": {"name": "Apartaments La Faiada", "tourism": "hotel", "website": "https://lafaiada.com/"}}, {"type": "Feature", "id": 2603353676, "geometry": {"type": "Point", "coordinates": [0.792953, 42.703597]}, "properties": {"addr:housenumber": "4", "email": "hotelpomer@hotelpomer.com", "fax": "+34 973 64 74 80", "internet_access": "yes", "internet_access:fee": "no", "name": "Hotel eth Pomer", "phone": "+34 973 64 28 88", "stars": "3", "tourism": "hotel", "website": "https://www.hotelpomer.com/", "wikidata": "Q111872107"}}, {"type": "Feature", "id": 2605235061, "geometry": {"type": "Point", "coordinates": [0.803631, 42.698349]}, "properties": {"name": "Hotel Vita Beret", "source": "survey", "stars": "3", "tourism": "hotel", "website": "http://www.hotelvitaberet.com/"}}, {"type": "Feature", "id": 2606415903, "geometry": {"type": "Point", "coordinates": [0.794726, 42.702312]}, "properties": {"name": "Hotel Aran", "source": "survey", "tourism": "hotel"}}, {"type": "Feature", "id": 2606415907, "geometry": {"type": "Point", "coordinates": [0.795125, 42.7018]}, "properties": {"name": "Hotel Riu Nere", "source": "survey", "tourism": "hotel"}}, {"type": "Feature", "id": 2606415912, "geometry": {"type": "Point", "coordinates": [0.795551, 42.704901]}, "properties": {"name": "Hotel Eth Solan", "source": "survey", "stars": "3", "tourism": "hotel"}}, {"type": "Feature", "id": 2606415916, "geometry": {"type": "Point", "coordinates": [0.794936, 42.702255]}, "properties": {"name": "Hotel Orla", "source": "survey", "stars": "2", "tourism": "hotel"}}, {"type": "Feature", "id": 2606415921, "geometry": {"type": "Point", "coordinates": [0.794561, 42.702412]}, "properties": {"name": "Hotel Urogallo", "source": "survey", "tourism": "hotel"}}, {"type": "Feature", "id": 2661021967, "geometry": {"type": "Point", "coordinates": [0.825822, 42.52481]}, "properties": {"amenity": "restaurant", "check_date": "2025-06-21", "name": "Hostal La Pla\u00e7a", "source": "survey", "tourism": "hotel"}}, {"type": "Feature", "id": 2661021969, "geometry": {"type": "Point", "coordinates": [0.849005, 42.518206]}, "properties": {"amenity": "restaurant", "name": "Hostal Sant Climent", "source": "survey", "tourism": "hotel"}}, {"type": "Feature", "id": 2742199236, "geometry": {"type": "Point", "coordinates": [0.826266, 42.525298]}, "properties": {"internet_access": "wlan", "internet_access:fee": "no", "name": "Casa Ferro", "tourism": "hotel", "wikidata": "Q65210875", "wikipedia": "ca:Casa Ferro"}}, {"type": "Feature", "id": 2779982781, "geometry": {"type": "Point", "coordinates": [0.850257, 42.518046]}, "properties": {"addr:city": "Ta\u00fcll", "addr:housenumber": "5", "addr:postcode": "25528", "addr:street": "Carrer Tresta\u00fcll", "name": "El Rantiner", "phone": "+34 973 696184", "stars": "2", "tourism": "hotel", "website": "https://www.hotelelrantiner.com/"}}, {"type": "Feature", "id": 2780221146, "geometry": {"type": "Point", "coordinates": [0.740105, 42.407623]}, "properties": {"name": "Hotel Mestre", "tourism": "hotel"}}, {"type": "Feature", "id": 2780558920, "geometry": {"type": "Point", "coordinates": [0.741141, 42.407376]}, "properties": {"name": "El Pedr\u00eds", "name:ca": "El Pedr\u00eds", "tourism": "hotel"}}, {"type": "Feature", "id": 2780558926, "geometry": {"type": "Point", "coordinates": [0.740671, 42.405506]}, "properties": {"check_date": "2025-06-29", "name": "Hotel Flor de Neu", "tourism": "hotel"}}, {"type": "Feature", "id": 2782337184, "geometry": {"type": "Point", "coordinates": [0.742271, 42.409503]}, "properties": {"name": "Hostal Ribera", "tourism": "hotel"}}, {"type": "Feature", "id": 2809095144, "geometry": {"type": "Point", "coordinates": [0.806328, 42.698247]}, "properties": {"name": "otel \u00c7o de Pierra", "stars": "3", "tourism": "hotel"}}, {"type": "Feature", "id": 2872569124, "geometry": {"type": "Point", "coordinates": [0.714827, 42.46725]}, "properties": {"name": "Montsant", "tourism": "hotel"}}, {"type": "Feature", "id": 2983350030, "geometry": {"type": "Point", "coordinates": [0.416465, 42.822138]}, "properties": {"amenity": "restaurant", "name": "Les Cimes", "tourism": "hotel"}}, {"type": "Feature", "id": 3020649349, "geometry": {"type": "Point", "coordinates": [1.10452, 42.449433]}, "properties": {"email": "hostalvalldassua@hostalvalldassua.com", "internet_access": "wlan", "internet_access:fee": "no", "name": "Hostal Vall d'Assua", "phone": "+34 973 62 17 38", "stars": "2", "tourism": "hotel", "website": "http://www.hostalvalldassua.com"}}, {"type": "Feature", "id": 3028693257, "geometry": {"type": "Point", "coordinates": [0.96784, 42.246905]}, "properties": {"addr:city": "la Pobla de Segur", "addr:housenumber": "4", "addr:postcode": "25500", "addr:street": "Carrer Major", "email": "info@canfasersia.com", "internet_access": "wlan", "internet_access:fee": "customers", "name": "Fonda Can Fasersia", "phone": "+34 695169181", "tourism": "hotel", "website": "https://www.canfasersia.com/"}}, {"type": "Feature", "id": 3059835562, "geometry": {"type": "Point", "coordinates": [1.313278, 42.327786]}, "properties": {"name": "Casa Rural Cal Sodhi", "phone": "+34 609 67 52 38", "tourism": "hotel"}}, {"type": "Feature", "id": 3059840184, "geometry": {"type": "Point", "coordinates": [1.341616, 42.294007]}, "properties": {"name": "Casa Rural Cal Bep", "tourism": "hotel"}}, {"type": "Feature", "id": 3306801977, "geometry": {"type": "Point", "coordinates": [1.123102, 42.62588]}, "properties": {"name": "Hostal Vall d'\u00c0neu", "tourism": "hotel", "website": "https://www.hostalvalldaneu.com"}}, {"type": "Feature", "id": 3307712700, "geometry": {"type": "Point", "coordinates": [1.088632, 42.57601]}, "properties": {"addr:housenumber": "1-2", "addr:place": "Espot", "addr:postcode": "25597", "addr:street": "Placa de Sant Marti", "contact:email": "info@hotelsaurat.com", "contact:phone": "+34 973 62 41 62", "dog": "yes", "name": "Hotel Saurat", "rooms": "39", "stars": "3", "tourism": "hotel", "website": "https://www.hotelsaurat.com/web.asp"}}, {"type": "Feature", "id": 3350383032, "geometry": {"type": "Point", "coordinates": [1.047776, 42.328965]}, "properties": {"email": "info@casaparramon.net", "name": "Casa Perramon", "phone": "+34 973662036", "tourism": "hotel", "website": "https://www.casaparramon.net/"}}, {"type": "Feature", "id": 3380950251, "geometry": {"type": "Point", "coordinates": [0.89907, 42.706616]}, "properties": {"name": "Hotel Garona", "tourism": "hotel"}}, {"type": "Feature", "id": 3395968276, "geometry": {"type": "Point", "coordinates": [0.476419, 42.787907]}, "properties": {"check_date": "2023-03-01", "name": "Agudes H\u00f4tel", "payment:cash": "yes", "payment:credit_cards": "yes", "payment:visa": "yes", "stars": "2", "tourism": "hotel"}}, {"type": "Feature", "id": 3460351340, "geometry": {"type": "Point", "coordinates": [0.973976, 42.877058]}, "properties": {"internet_access": "yes", "name": "Le Relais du Montagnard", "tourism": "hotel", "website": "https://relais-montagnard.org/"}}, {"type": "Feature", "id": 3460987398, "geometry": {"type": "Point", "coordinates": [1.089505, 42.575329]}, "properties": {"addr:city": "Espot", "addr:postcode": "25597", "email": "reservas@hotelencantats.com", "name": "Hotel Els Encantats", "phone": "+34 680 27 69 07", "tourism": "hotel", "website": "http://hotelencantats.com"}}, {"type": "Feature", "id": 3581113993, "geometry": {"type": "Point", "coordinates": [1.404075, 42.368203]}, "properties": {"name": "Mas d'en Roqueta", "name:ca": "Mas d'en Roqueta", "tourism": "hotel"}}, {"type": "Feature", "id": 3603118146, "geometry": {"type": "Point", "coordinates": [0.744086, 42.40891]}, "properties": {"addr:city": "el Pont de Suert", "addr:housenumber": "33", "addr:postcode": "25520", "addr:street": "Carrer de Sant Avent\u00ed", "name": "FONDA ISARD", "name:ca": "FONDA ISARD", "name:en": "bed and breakfast FONDA ISARD", "note": "MOTORISTAS  Y BICICLETAS", "operator": "INDEPENDIENTE", "phone": "+34 973690139", "price": "30\u20ac", "smoking": "isolated", "tourism": "hotel", "website": "http://www.fondaisard.com/"}}, {"type": "Feature", "id": 3755629590, "geometry": {"type": "Point", "coordinates": [0.521963, 42.603416]}, "properties": {"addr:city": "Benasque", "addr:housenumber": "14", "addr:postcode": "22440", "addr:street": "Avenida Los Tilos", "internet_access": "wlan", "name": "Hotel Avenida", "phone": "+34 974 55 11 26", "rooms": "16", "smoking": "no", "stars": "1", "tourism": "hotel", "website": "http://www.hotelavenidabenasque.es/", "wheelchair": "no"}}, {"type": "Feature", "id": 3990057293, "geometry": {"type": "Point", "coordinates": [0.858233, 42.514834]}, "properties": {"name": "Romanic", "tourism": "hotel"}}, {"type": "Feature", "id": 3994963990, "geometry": {"type": "Point", "coordinates": [0.85981, 42.512561]}, "properties": {"alt_name": "Hotel Tres Corones", "name": "Hotel Ta\u00fcll", "tourism": "hotel"}}, {"type": "Feature", "id": 3998617657, "geometry": {"type": "Point", "coordinates": [1.326687, 42.588335]}, "properties": {"name": "Hotel Vall Ferrera", "name:ca": "Hotel Vall Ferrera", "tourism": "hotel", "website": "https://www.hotelvallferrera.com/"}}, {"type": "Feature", "id": 4015345768, "geometry": {"type": "Point", "coordinates": [0.492799, 42.513328]}, "properties": {"addr:city": "Castej\u00f3n de Sos", "addr:housenumber": "13", "addr:postcode": "22466", "addr:street": "Calle Valle Sositana", "name": "Hotel Diam\u00f3", "phone": "+34974553990", "tourism": "hotel", "website": "https://www.hoteldiamo.com/"}}, {"type": "Feature", "id": 4016870197, "geometry": {"type": "Point", "coordinates": [0.541122, 42.301952]}, "properties": {"amenity": "restaurant", "name": "Casa Custodio", "tourism": "hotel"}}, {"type": "Feature", "id": 4068197719, "geometry": {"type": "Point", "coordinates": [0.987997, 42.454986]}, "properties": {"name": "Casa Sastre", "tourism": "hotel"}}, {"type": "Feature", "id": 4186118698, "geometry": {"type": "Point", "coordinates": [1.201732, 42.863091]}, "properties": {"addr:city": "Seix", "addr:housenumber": "16", "addr:postcode": "09140", "addr:street": "Place de l'All\u00e9e", "name": "Auberge du Haut Salat", "phone": "+33 5 61 66 88 03", "restaurant": "yes", "tourism": "hotel", "website": "www.auberge-escaleta.com"}}, {"type": "Feature", "id": 4276650966, "geometry": {"type": "Point", "coordinates": [1.236085, 42.582597]}, "properties": {"addr:city": "Ainet de Card\u00f3s", "addr:postcode": "25571", "addr:street": "Carretera Tavascan", "email": "info@hotelpuitavaca.com", "name": "Puitavaca", "phone": "+34 973 62 30 78", "tourism": "hotel", "tourism_1": "restaurant"}}, {"type": "Feature", "id": 4277846025, "geometry": {"type": "Point", "coordinates": [1.228261, 42.560264]}, "properties": {"addr:city": "Ribera de Card\u00f3s", "addr:postcode": "25570", "addr:street": "Carretera de Llavors\u00ed a Tavascan", "contact:email": "hostalsolineu@hotmail.com", "name": "Sol i Neu", "name:ca": "Sol i Neu", "phone": "+34 973 62 31 37", "tourism": "hotel", "website": "http://www.hostalsolineu.com"}}, {"type": "Feature", "id": 4277846026, "geometry": {"type": "Point", "coordinates": [1.227994, 42.565083]}, "properties": {"addr:city": "Ribera de Card\u00f3s", "addr:housenumber": "16", "addr:postcode": "25570", "addr:street": "Av. Hug Roger III", "amenity": "restaurant", "contact:email": "info@hotellaribera.com", "name": "La Ribera", "name:ca": "La Ribera", "phone": "+34 973623035;+34 680460762", "tourism": "hotel"}}, {"type": "Feature", "id": 4384521995, "geometry": {"type": "Point", "coordinates": [1.18793, 42.75569]}, "properties": {"internet_access": "wlan", "internet_access:fee": "no", "name": "Auberge des Myrtilles", "tourism": "hotel"}}, {"type": "Feature", "id": 4386238919, "geometry": {"type": "Point", "coordinates": [1.156892, 42.549541]}, "properties": {"name": "Hotel Castellarnau", "tourism": "hotel", "website": "https://www.hotelcastellarnau.com/"}}, {"type": "Feature", "id": 4446722136, "geometry": {"type": "Point", "coordinates": [0.965415, 42.241677]}, "properties": {"addr:city": "la Pobla de Segur", "addr:housenumber": "44", "addr:postcode": "25516", "addr:street": "Avinguda de l'Estaci\u00f3", "amenity": "restaurant", "email": "info@hotelsole.es", "name": "Sol\u00e9", "phone": "+34 973 680 452", "tourism": "hotel", "website": "https://www.hotelsole.es/"}}, {"type": "Feature", "id": 4475259179, "geometry": {"type": "Point", "coordinates": [0.596619, 42.783884]}, "properties": {"addr:housenumber": "23", "addr:street": "Cours des Quinconces", "description": "25 chambres", "name": "H\u00f4tel d'Aquitaine", "phone": "+33561790214", "tourism": "hotel", "website": "http://www.hotelaquitaine.fr/fr/"}}, {"type": "Feature", "id": 4545181366, "geometry": {"type": "Point", "coordinates": [0.93133, 42.699829]}, "properties": {"name": "Hotel Val de Ruda", "tourism": "hotel", "website": "http://www.hotelvalderudabaqueira.com"}}, {"type": "Feature", "id": 4546053879, "geometry": {"type": "Point", "coordinates": [0.935137, 42.70297]}, "properties": {"addr:city": "baqueira, Lleida", "addr:postcode": "25598", "addr:street": "Cota 1700, Carretera de Baqueira, a Beret, s/n", "brand": "Eurostars Hotel Company", "brand:wikidata": "Q8846494", "email": "recepcion@eurostarslapleta.com", "name": "Eurostars La Pleta", "phone": "+34 973 64 55 50", "tourism": "hotel", "website": "https://www.eurostarshotels.com/eurostars-la-pleta.html"}}, {"type": "Feature", "id": 4657634340, "geometry": {"type": "Point", "coordinates": [0.71117, 42.810146]}, "properties": {"name": "Hostal Talabart", "tourism": "hotel"}}, {"type": "Feature", "id": 4657634341, "geometry": {"type": "Point", "coordinates": [0.711193, 42.80893]}, "properties": {"name": "Es Neres", "name:ca": "Es Neres", "name:oc": "Es Neres", "tourism": "hotel"}}, {"type": "Feature", "id": 4657639909, "geometry": {"type": "Point", "coordinates": [0.70974, 42.810685]}, "properties": {"amenity": "restaurant", "name": "Juan Canejan", "tourism": "hotel"}}, {"type": "Feature", "id": 4692211785, "geometry": {"type": "Point", "coordinates": [0.59524, 42.785852]}, "properties": {"name": "H\u00f4tel d'Etigny", "stars": "3", "tourism": "hotel"}}, {"type": "Feature", "id": 4984828830, "geometry": {"type": "Point", "coordinates": [0.795897, 42.705371]}, "properties": {"name": "Acevi Val d'Aran", "tourism": "hotel"}}, {"type": "Feature", "id": 5281799241, "geometry": {"type": "Point", "coordinates": [0.790161, 42.704909]}, "properties": {"addr:city": "Viella", "name": "Hotel Lac Vielha", "tourism": "hotel"}}, {"type": "Feature", "id": 5858994217, "geometry": {"type": "Point", "coordinates": [1.123528, 42.625807]}, "properties": {"name": "Hotel Vall d'Aneu", "tourism": "hotel"}}, {"type": "Feature", "id": 5916896566, "geometry": {"type": "Point", "coordinates": [0.795911, 42.703074]}, "properties": {"name": "Hotel Fontfreda", "tourism": "hotel"}}, {"type": "Feature", "id": 5916919876, "geometry": {"type": "Point", "coordinates": [0.795514, 42.702991]}, "properties": {"name": "Hotel Albares", "tourism": "hotel"}}, {"type": "Feature", "id": 5916919900, "geometry": {"type": "Point", "coordinates": [0.795055, 42.703404]}, "properties": {"name": "Hotel Anglada", "tourism": "hotel"}}, {"type": "Feature", "id": 6148039053, "geometry": {"type": "Point", "coordinates": [0.638589, 42.910867]}, "properties": {"mapillary": "474085350322426", "name": "Auberge de vert logis", "survey:date": "2017-09-05", "tourism": "hotel"}}, {"type": "Feature", "id": 6313113141, "geometry": {"type": "Point", "coordinates": [0.591497, 42.789601]}, "properties": {"name": "Le Concorde", "stars": "2", "tourism": "hotel"}}, {"type": "Feature", "id": 6317805809, "geometry": {"type": "Point", "coordinates": [0.591052, 42.791502]}, "properties": {"name": "H\u00f4tel Panoramic", "phone": "+33 5 61 79 30 90", "smoking": "no", "stars": "3", "tourism": "hotel", "website": "https://www.hotelpanoramic.fr/", "wheelchair": "limited"}}, {"type": "Feature", "id": 6320930906, "geometry": {"type": "Point", "coordinates": [0.591824, 42.790181]}, "properties": {"name": "H\u00f4tel Gasquet", "stars": "2", "tourism": "hotel"}}, {"type": "Feature", "id": 6389278186, "geometry": {"type": "Point", "coordinates": [0.871905, 42.698549]}, "properties": {"addr:housenumber": "3", "addr:postcode": "25599", "addr:street": "Pla\u00e7a Mona", "email": "artiescasaplaus@gmail.com", "name": "Casa Plaus", "name:ca": "Pensi\u00f3 Plaus", "name:en": "Hause Plaus", "phone": "+34 603284499", "tourism": "hotel", "website": "https://www.casaplaus.com/"}}, {"type": "Feature", "id": 6736010196, "geometry": {"type": "Point", "coordinates": [0.795307, 42.700001]}, "properties": {"name": "Iori", "tourism": "hotel"}}, {"type": "Feature", "id": 7782852185, "geometry": {"type": "Point", "coordinates": [0.796408, 42.703525]}, "properties": {"addr:housenumber": "7", "addr:street": "Camin Reiau", "name": "Hotel Turrull", "tourism": "hotel"}}, {"type": "Feature", "id": 7859222124, "geometry": {"type": "Point", "coordinates": [0.901097, 42.707292]}, "properties": {"addr:housenumber": "10", "addr:postcode": "25598", "addr:street": "Pla\u00e7a dera Pica", "contact:twitter": "hoteldethpais", "email:reservation": "reservas@hoteldethpais.com", "instagram": "@hoteldethpais", "internet_access": "yes", "internet_access:fee": "no", "name": "Hotel deth Pais", "phone": "+34 973 645 836", "rooms": "18", "tourism": "hotel", "website": "https://www.hoteldethpais.com"}}, {"type": "Feature", "id": 7859253720, "geometry": {"type": "Point", "coordinates": [0.915444, 42.701533]}, "properties": {"name": "Eth Saueth", "tourism": "hotel"}}, {"type": "Feature", "id": 7859254775, "geometry": {"type": "Point", "coordinates": [0.936947, 42.695166]}, "properties": {"addr:street": "C. Perimetrau, s/n, 25598 Baqueira, Lleida, Espagne", "internet_access": "yes", "internet_access:fee": "no", "name": "MIM", "phone": "+34973635300", "tourism": "hotel", "website": "https://www.mimhotels.com/en/baqueira/hotel-mim-baqueira"}}, {"type": "Feature", "id": 7859256495, "geometry": {"type": "Point", "coordinates": [0.903107, 42.706733]}, "properties": {"name": "Hotel Colomers", "tourism": "hotel"}}, {"type": "Feature", "id": 7912748002, "geometry": {"type": "Point", "coordinates": [0.492388, 42.512561]}, "properties": {"name": "Diam\u00f3", "tourism": "hotel"}}, {"type": "Feature", "id": 8515984527, "geometry": {"type": "Point", "coordinates": [0.873013, 42.700402]}, "properties": {"name": "Hotel Casa Irene", "tourism": "hotel", "website": "https://www.hotelcasairene.com/hotel/"}}, {"type": "Feature", "id": 8542024617, "geometry": {"type": "Point", "coordinates": [0.859036, 42.512482]}, "properties": {"name": "Aparthotel Siente Bo\u00ed & Spa", "tourism": "hotel", "wikidata": "Q112011935"}}, {"type": "Feature", "id": 8880196117, "geometry": {"type": "Point", "coordinates": [0.710657, 42.810292]}, "properties": {"name": "Hotel Europa", "tourism": "hotel"}}, {"type": "Feature", "id": 8972540816, "geometry": {"type": "Point", "coordinates": [1.198358, 42.832016]}, "properties": {"addr:city": "Seix", "addr:postcode": "09140", "addr:street": "Pont de la Taul\u00e9", "amenity": "restaurant", "internet_access": "yes", "internet_access:fee": "customers", "name": "Auberge Des Deux Rivi\u00e8res", "tourism": "hotel", "website": "https://www.aubergedesdeuxrivieres.com/"}}, {"type": "Feature", "id": 9010641217, "geometry": {"type": "Point", "coordinates": [0.840318, 42.561396]}, "properties": {"name": "Records de la Sofia", "tourism": "hotel"}}, {"type": "Feature", "id": 9236160655, "geometry": {"type": "Point", "coordinates": [0.595801, 42.784719]}, "properties": {"name": "H\u00f4tel du Portillon", "phone": "+33561790264", "tourism": "hotel"}}, {"type": "Feature", "id": 9236160656, "geometry": {"type": "Point", "coordinates": [0.59586, 42.784636]}, "properties": {"name": "H\u00f4tel De Paris", "phone": "+33561791370", "tourism": "hotel", "website": "https://www.luchon.info/"}}, {"type": "Feature", "id": 9236160657, "geometry": {"type": "Point", "coordinates": [0.595915, 42.784518]}, "properties": {"name": "Aparthotel Le Petit Train SAS", "phone": "+33561942064", "tourism": "hotel", "website": "https://www.luchon.net/"}}, {"type": "Feature", "id": 9236160659, "geometry": {"type": "Point", "coordinates": [0.596963, 42.78331]}, "properties": {"name": "Castel De La Pique", "phone": "+33561884366", "stars": "3", "tourism": "hotel", "website": "http://www.castel-pique.fr/"}}, {"type": "Feature", "id": 9713222030, "geometry": {"type": "Point", "coordinates": [1.103218, 42.450689]}, "properties": {"addr:housenumber": "4", "addr:postcode": "25567", "addr:street": "Carrer de la Font", "name": "Roch Hotel", "tourism": "hotel", "website": "https://www.rochhotel.com"}}, {"type": "Feature", "id": 10039264973, "geometry": {"type": "Point", "coordinates": [0.409692, 42.798781]}, "properties": {"check_date": "2025-05-02", "name": "Mercure", "not:brand:wikidata": "Q1709809", "tourism": "hotel"}}, {"type": "Feature", "id": 10665018614, "geometry": {"type": "Point", "coordinates": [0.592808, 42.787377]}, "properties": {"amenity": "restaurant", "cuisine": "regional", "diet:halal": "no", "diet:kosher": "no", "indoor_seating": "yes", "name": "Le M\u00e9tropole", "outdoor_seating": "yes", "smoking": "outside", "tourism": "hotel"}}, {"type": "Feature", "id": 10665018631, "geometry": {"type": "Point", "coordinates": [0.592217, 42.789586]}, "properties": {"check_date": "2025-07-01", "name": "Alti", "stars": "4", "tourism": "hotel"}}, {"type": "Feature", "id": 10673962161, "geometry": {"type": "Point", "coordinates": [0.774929, 42.910935]}, "properties": {"addr:street": "Hameau de l'Artigue", "name": "R\u00e9sidence de Vacances - PCM Les Sources", "phone": "+33562003528", "tourism": "hotel", "website": "https://www.lessources-pcm.com/"}}, {"type": "Feature", "id": 11048296202, "geometry": {"type": "Point", "coordinates": [0.843973, 42.700672]}, "properties": {"addr:housenumber": "3", "addr:street": "Carrer dera Hont", "name": "Gar\u00f2s Ostau", "phone": "+34 680855058", "tourism": "hotel", "website": "https://www.garosostau.com"}}, {"type": "Feature", "id": 11227545738, "geometry": {"type": "Point", "coordinates": [0.80883, 42.697487]}, "properties": {"name": "Gran Chalet Hitel", "name:ca": "Gran Chalet Hotel", "tourism": "hotel"}}, {"type": "Feature", "id": 11329985470, "geometry": {"type": "Point", "coordinates": [1.347327, 42.888179]}, "properties": {"amenity": "restaurant", "name": "Le Maxil'", "outdoor_seating": "yes", "tourism": "hotel", "website": "https://www.le-maxil-cafe.fr/"}}, {"type": "Feature", "id": 11784887375, "geometry": {"type": "Point", "coordinates": [0.541707, 42.588952]}, "properties": {"name": "Hotel Monte Alba", "tourism": "hotel"}}, {"type": "Feature", "id": 12074988042, "geometry": {"type": "Point", "coordinates": [0.592454, 42.789421]}, "properties": {"name": "Le Castel", "stars": "4", "tourism": "hotel"}}, {"type": "Feature", "id": 12074988043, "geometry": {"type": "Point", "coordinates": [0.591773, 42.790292]}, "properties": {"name": "H\u00f4tel Fran\u00e7ois 1er", "tourism": "hotel"}}, {"type": "Feature", "id": 12074988054, "geometry": {"type": "Point", "coordinates": [0.596615, 42.783721]}, "properties": {"name": "H\u00f4tel du Parc", "tourism": "hotel"}}, {"type": "Feature", "id": 12079124369, "geometry": {"type": "Point", "coordinates": [0.690912, 42.782461]}, "properties": {"addr:city": "Boss\u00f2st", "addr:housenumber": "3", "addr:postcode": "25550", "addr:street": "Travessa d'Eduard Aun\u00f3s", "bar": "yes", "name": "Trastienda", "payment:cards": "yes", "payment:credit_cards": "yes", "payment:telephone_cards": "yes", "phone": "+34 973 64 74 31", "reservation": "yes", "stars": "3", "tourism": "hotel", "website": "https://www.latrastiendabossost.es/", "wheelchair": "yes"}}, {"type": "Feature", "id": 12079124381, "geometry": {"type": "Point", "coordinates": [0.691126, 42.784776]}, "properties": {"addr:city": "Boss\u00f2st", "addr:housenumber": "34", "addr:postcode": "25550", "addr:street": "Carr\u00e8r de Piedat", "internet_access": "wlan", "internet_access:fee": "no", "name": "Hosteria Catalana", "phone": "+34 682 78 40 23", "stars": "2", "tourism": "hotel"}}, {"type": "Feature", "id": 12079124405, "geometry": {"type": "Point", "coordinates": [0.694895, 42.788707]}, "properties": {"addr:city": "Boss\u00f2st", "addr:housenumber": "13", "addr:postcode": "25550", "addr:street": "Carr\u00e8r de Sant R\u00f2c", "bar": "yes", "name": "H\u00f4tel Shadow", "opening_hours": "Mo-Su 07:30-23:00", "payment:credit_cards": "yes", "phone": "+34 973 64 74 58", "reservation": "yes", "stars": "2", "tourism": "hotel", "wheelchair": "yes"}}, {"type": "Feature", "id": 12115151113, "geometry": {"type": "Point", "coordinates": [0.799035, 42.703009]}, "properties": {"name": "Eth Palai", "tourism": "hotel", "website": "https://ethpalai.com/"}}, {"type": "Feature", "id": 12770755393, "geometry": {"type": "Point", "coordinates": [1.211496, 42.494784]}, "properties": {"name": "Hostal Noguera", "tourism": "hotel"}}, {"type": "Feature", "id": 12802815601, "geometry": {"type": "Point", "coordinates": [0.849034, 42.520138]}, "properties": {"addr:housenumber": "5-7", "addr:street": "Carrer Feixanes", "name": "Alberg Ta\u00fcll", "tourism": "hotel"}}, {"type": "Feature", "id": 35037765, "geometry": {"type": "LineString", "coordinates": [[0.577707, 42.768685], [0.578256, 42.768755], [0.578317, 42.768769], [0.578357, 42.768801], [0.578388, 42.768836], [0.578396, 42.768867], [0.578258, 42.769303], [0.577989, 42.769254], [0.578058, 42.768969], [0.577993, 42.768906], [0.577677, 42.76888], [0.577678, 42.768853], [0.577604, 42.768843], [0.577626, 42.768743], [0.577695, 42.768748], [0.577707, 42.768685]]}, "properties": {"brand": "Village Club du Soleil", "building": "yes", "name": "Village Club du Soleil", "tourism": "hotel", "website": "https://www.villagesclubsdusoleil.com/fr/nos-destinations/ete/sejour-a-la-montagne/superbagneres"}}, {"type": "Feature", "id": 49179029, "geometry": {"type": "LineString", "coordinates": [[0.611834, 42.684432], [0.612088, 42.684016], [0.612155, 42.683912], [0.612341, 42.68372], [0.61255, 42.683859], [0.612509, 42.683906], [0.61211, 42.684474], [0.612089, 42.684463], [0.612053, 42.6845], [0.611834, 42.684432]]}, "properties": {"addr:postcode": "22400", "addr:street": "Camino Real de Francia", "amenity": "spa", "building": "yes", "building:colour": "grey", "building:levels": "2", "building:material": "stone", "email": "recepcion@llanosdelhospital.com", "internet_access": "wlan", "internet_access:fee": "no", "name": "Hospital de Benasque", "name:es": "Hospital de Benasque", "phone": "+34974552012; +34608536053", "restaurant": "yes", "roof:colour": "black", "roof:levels": "1", "roof:material": "slate", "roof:orientation": "along", "roof:shape": "gabled", "rooms": "55", "stars": "3", "tourism": "hotel", "website": "https://www.llanosdelhospital.com/", "wikidata": "Q21077313", "wikipedia": "es:Hospital de Benasque"}}, {"type": "Feature", "id": 63821274, "geometry": {"type": "LineString", "coordinates": [[0.593507, 42.790226], [0.593465, 42.790502], [0.593434, 42.790499], [0.59343, 42.790489], [0.593434, 42.790463], [0.593407, 42.790461], [0.593399, 42.790454], [0.593401, 42.790445], [0.593395, 42.790444], [0.593396, 42.790441], [0.593227, 42.790425], [0.59324, 42.790332], [0.593251, 42.790258], [0.593304, 42.790262], [0.593298, 42.790302], [0.593305, 42.790303], [0.593308, 42.790284], [0.593458, 42.790297], [0.593465, 42.790255], [0.593362, 42.790246], [0.593391, 42.790216], [0.593507, 42.790226]]}, "properties": {"addr:city": "Bagn\u00e8res-de-Luchon", "addr:country": "FR", "addr:postcode": "31110", "addr:street": "Rue Lamartine", "amenity": "restaurant", "building": "yes", "name": "La Petite Auberge", "source": "cadastre-dgi-fr source : Direction G\u00e9n\u00e9rale des Imp\u00f4ts - Cadastre. Mise \u00e0 jour : 2010", "stars": "1", "tourism": "hotel"}}, {"type": "Feature", "id": 63821621, "geometry": {"type": "LineString", "coordinates": [[0.597791, 42.785319], [0.597644, 42.785297], [0.597667, 42.785215], [0.597715, 42.785223], [0.59772, 42.785205], [0.597771, 42.785212], [0.597766, 42.78523], [0.597814, 42.785237], [0.597813, 42.78524], [0.597825, 42.785242], [0.597817, 42.785272], [0.597805, 42.785271], [0.597791, 42.785319]]}, "properties": {"addr:city": "Bagn\u00e8res-de-Luchon", "addr:housenumber": "14", "addr:postcode": "31110", "addr:street": "Avenue du Docteur Lambron", "building": "commercial", "email": "hi@thefreerangechalet.com", "internet_access": "wlan", "internet_access:fee": "no", "name": "The Free Range Chalet", "phone": "+33561793694", "rooms": "5", "source": "cadastre-dgi-fr source : Direction G\u00e9n\u00e9rale des Imp\u00f4ts - Cadastre. Mise \u00e0 jour : 2010;local knowledge", "tourism": "hotel", "website": "https://thefreerangechalet.com"}}, {"type": "Feature", "id": 63822052, "geometry": {"type": "LineString", "coordinates": [[0.597564, 42.790015], [0.597464, 42.789638], [0.597562, 42.789624], [0.597557, 42.789605], [0.597604, 42.789598], [0.597608, 42.789617], [0.597677, 42.789607], [0.597695, 42.789674], [0.597707, 42.789673], [0.597709, 42.789682], [0.597697, 42.789684], [0.597712, 42.789741], [0.597765, 42.789733], [0.597773, 42.789761], [0.597779, 42.789765], [0.597791, 42.789808], [0.597787, 42.789813], [0.597734, 42.78982], [0.597777, 42.789983], [0.597564, 42.790015]]}, "properties": {"building": "yes", "name": "Majestic", "source": "cadastre-dgi-fr source : Direction G\u00e9n\u00e9rale des Imp\u00f4ts - Cadastre. Mise \u00e0 jour : 2010", "stars": "3", "tourism": "hotel", "website": "http://www.hotelmajestic-luchon.com/"}}, {"type": "Feature", "id": 63822180, "geometry": {"type": "LineString", "coordinates": [[0.592722, 42.790772], [0.592712, 42.790832], [0.59282, 42.79085], [0.592814, 42.790892], [0.592813, 42.790899], [0.59283, 42.790901], [0.592824, 42.790937], [0.592807, 42.790935], [0.592798, 42.790986], [0.592682, 42.790974], [0.592689, 42.790938], [0.592722, 42.790941], [0.592734, 42.790878], [0.592648, 42.790868], [0.592646, 42.790879], [0.592631, 42.790877], [0.592632, 42.790875], [0.592597, 42.79087], [0.592584, 42.790936], [0.592572, 42.790935], [0.592565, 42.790991], [0.592491, 42.790982], [0.592494, 42.790965], [0.592519, 42.790849], [0.592541, 42.790745], [0.592722, 42.790772]]}, "properties": {"addr:city": "Bagn\u00e8res-de-Luchon", "addr:country": "FR", "addr:housenumber": "32", "addr:postcode": "31110", "addr:street": "Rue Lamartine", "building": "yes", "name": "C\u00e9leste", "source": "cadastre-dgi-fr source : Direction G\u00e9n\u00e9rale des Imp\u00f4ts - Cadastre;mise \u00e0 jour : 2008", "stars": "2", "tourism": "hotel"}}, {"type": "Feature", "id": 63823339, "geometry": {"type": "LineString", "coordinates": [[0.593673, 42.789046], [0.593823, 42.789067], [0.593785, 42.789247], [0.593643, 42.78923], [0.593638, 42.78923], [0.593653, 42.789151], [0.593673, 42.789046]]}, "properties": {"building": "yes", "name": "Le Flor\u00e9al", "source": "cadastre-dgi-fr source : Direction G\u00e9n\u00e9rale des Imp\u00f4ts - Cadastre ; mise \u00e0 jour : 2008", "stars": "1", "tourism": "hotel"}}, {"type": "Feature", "id": 63824662, "geometry": {"type": "LineString", "coordinates": [[0.597626, 42.785989], [0.597618, 42.786007], [0.597355, 42.78593], [0.597364, 42.785913], [0.597409, 42.785817], [0.597412, 42.785808], [0.597421, 42.785783], [0.59756, 42.785804], [0.597614, 42.785813], [0.597696, 42.785826], [0.597626, 42.785989]]}, "properties": {"addr:city": "Bagn\u00e8res-de-Luchon", "addr:country": "FR", "addr:postcode": "31110", "addr:street": "All\u00e9e des Bains", "building": "yes", "disused:amenity": "restaurant", "name": "H\u00f4tel L'Olympic", "phone": "+33 561 790 358", "source": "cadastre-dgi-fr source : Direction G\u00e9n\u00e9rale des Imp\u00f4ts - Cadastre. Mise \u00e0 jour : 2010", "stars": "2", "tourism": "hotel", "wall": "no"}}, {"type": "Feature", "id": 63825318, "geometry": {"type": "LineString", "coordinates": [[0.591587, 42.790895], [0.59153, 42.790985], [0.591551, 42.790992], [0.591521, 42.791047], [0.591495, 42.791041], [0.591417, 42.791047], [0.591392, 42.790873], [0.591479, 42.79088], [0.591587, 42.790895]]}, "properties": {"amenity": "restaurant", "building": "yes", "name": "Bon Accueil", "phone": "+33788076938", "source": "cadastre-dgi-fr source : Direction G\u00e9n\u00e9rale des Imp\u00f4ts - Cadastre;mise \u00e0 jour : 2008", "stars": "2", "tourism": "hotel"}}, {"type": "Feature", "id": 98602522, "geometry": {"type": "LineString", "coordinates": [[0.538957, 42.594261], [0.539099, 42.594334], [0.539228, 42.594247], [0.539107, 42.594178], [0.538957, 42.594261]]}, "properties": {"internet_access": "yes", "internet_access:fee": "no", "name": "Hotel Casa Cornel", "smoking": "no", "stars": "3", "tourism": "hotel"}}, {"type": "Feature", "id": 98602583, "geometry": {"type": "LineString", "coordinates": [[0.540791, 42.594531], [0.54094, 42.594361], [0.540762, 42.594279], [0.540648, 42.594247], [0.540645, 42.593774], [0.540398, 42.593772], [0.54041, 42.594348], [0.540791, 42.594531]]}, "properties": {"internet_access": "yes", "internet_access:fee": "no", "name": "Hotel HG Cerler", "smoking": "no", "stars": "3", "tourism": "hotel"}}, {"type": "Feature", "id": 116921606, "geometry": {"type": "LineString", "coordinates": [[0.522079, 42.602814], [0.522078, 42.602781], [0.522093, 42.60278], [0.522017, 42.602288], [0.521995, 42.60215], [0.521991, 42.602106], [0.521779, 42.602126], [0.521753, 42.602156], [0.521752, 42.602195], [0.521671, 42.602399], [0.521571, 42.602642], [0.521764, 42.602623], [0.521734, 42.602399], [0.521746, 42.602328], [0.521887, 42.602318], [0.521936, 42.602662], [0.521646, 42.602676], [0.521661, 42.602815], [0.521663, 42.602838], [0.522079, 42.602814]]}, "properties": {"building": "yes", "name": "Hotel Aneto", "stars": "4", "tourism": "hotel"}}, {"type": "Feature", "id": 121532570, "geometry": {"type": "LineString", "coordinates": [[0.537668, 42.591989], [0.538196, 42.591984], [0.538192, 42.591782], [0.537664, 42.591787], [0.537668, 42.591989]]}, "properties": {"name": "Hotel YOY Edelweiss", "tourism": "hotel"}}, {"type": "Feature", "id": 125865277, "geometry": {"type": "LineString", "coordinates": [[1.044641, 42.637501], [1.044884, 42.637618], [1.044927, 42.63757], [1.045291, 42.637745], [1.045338, 42.637692], [1.044981, 42.63752], [1.045006, 42.637492], [1.044858, 42.63742], [1.044888, 42.637387], [1.044747, 42.637319], [1.044661, 42.637416], [1.044701, 42.637434], [1.044641, 42.637501]]}, "properties": {"building": "yes", "name": "Els Avets", "name:ca": "Els Avets", "tourism": "hotel"}}, {"type": "Feature", "id": 142267534, "geometry": {"type": "LineString", "coordinates": [[0.51418, 42.593818], [0.514502, 42.593799], [0.514479, 42.593587], [0.51432, 42.593597], [0.514331, 42.593704], [0.514169, 42.593713], [0.51418, 42.593818]]}, "properties": {"building": "yes", "internet_access": "wlan", "internet_access:fee": "no", "name": "Hotel Selba D'Ansils", "phone": "+34 974 552054", "rooms": "13", "tourism": "hotel", "website": "https://www.hotelselbadansils.com"}}, {"type": "Feature", "id": 143413189, "geometry": {"type": "LineString", "coordinates": [[1.032372, 42.83088], [1.032504, 42.830879], [1.032472, 42.830772], [1.032563, 42.830756], [1.03259, 42.830836], [1.03262, 42.83083], [1.0326, 42.830796], [1.032709, 42.830767], [1.032741, 42.83082], [1.032813, 42.830801], [1.032759, 42.830775], [1.032824, 42.830718], [1.032945, 42.830781], [1.03288, 42.830838], [1.032855, 42.830826], [1.032759, 42.830851], [1.032778, 42.830885], [1.03256, 42.83095], [1.032372, 42.830953], [1.032372, 42.83088]]}, "properties": {"addr:city": "Bordes-Uchentein", "addr:housenumber": "5400", "addr:postcode": "09800", "addr:street": "Camin du Mount Valier", "amenity": "restaurant", "building": "yes", "capacity": "40", "description": "2020-09 : Prestations : - Chambre single, double, 4 personnes, dortoir 9 personnes, - Restauration, - Plusieurs formules (voir site). Remarque : le g\u00eete n\u2019est pas con\u00e7u pour de la gestion libre.", "ele": "951", "email": "maisonvalier@orange.fr", "name": "La Maison du Valier", "phone": "+33 5 61 01 01 01", "tourism": "hotel", "website": "https://www.maison-du-valier.fr/", "wheelchair": "yes"}}, {"type": "Feature", "id": 179954331, "geometry": {"type": "LineString", "coordinates": [[1.211467, 42.428476], [1.211449, 42.428174], [1.211636, 42.428168], [1.21164, 42.428241], [1.212066, 42.428227], [1.212062, 42.428151], [1.212263, 42.428145], [1.212281, 42.42844], [1.212079, 42.428446], [1.212075, 42.42837], [1.211649, 42.428384], [1.211654, 42.42847], [1.211467, 42.428476]]}, "properties": {"building": "yes", "name": "Hotel Port-Ain\u00e9 2000", "stars": "3", "tourism": "hotel", "website": "https://www.portaine.cat/hivern/reserves/hotel-port-aine-2000/"}}, {"type": "Feature", "id": 180302650, "geometry": {"type": "LineString", "coordinates": [[0.496066, 42.590161], [0.496196, 42.589994], [0.495938, 42.589885], [0.495808, 42.590052], [0.496066, 42.590161]]}, "properties": {"building": "yes", "name": "Hotel Eriste", "stars": "2", "tourism": "hotel"}}, {"type": "Feature", "id": 180322080, "geometry": {"type": "LineString", "coordinates": [[0.582281, 42.667844], [0.582592, 42.667773], [0.582575, 42.667733], [0.582642, 42.667718], [0.582623, 42.667674], [0.582541, 42.667693], [0.582514, 42.667631], [0.582499, 42.667597], [0.582416, 42.667616], [0.582391, 42.667559], [0.582247, 42.667592], [0.58227, 42.667648], [0.582278, 42.667666], [0.582211, 42.667681], [0.582242, 42.667753], [0.582281, 42.667844]]}, "properties": {"building": "hotel", "email": "hotel@turpi.net", "fax": "+34 974 344010", "internet_access": "wlan", "internet_access:fee": "no", "name": "Hotel Turpi", "phone": "+34 974 344002", "stars": "2", "tourism": "hotel", "website": "http://www.turpi.net/"}}, {"type": "Feature", "id": 186586021, "geometry": {"type": "LineString", "coordinates": [[1.211251, 42.495284], [1.211345, 42.495145], [1.211262, 42.495125], [1.211084, 42.495103], [1.211046, 42.495197], [1.211251, 42.495284]]}, "properties": {"building": "yes", "name": "De Rei", "tourism": "hotel"}}, {"type": "Feature", "id": 189324256, "geometry": {"type": "LineString", "coordinates": [[0.789966, 42.698645], [0.789388, 42.69865], [0.789391, 42.698873], [0.789843, 42.69887], [0.789849, 42.699293], [0.790108, 42.699292], [0.790101, 42.698721], [0.790149, 42.698714], [0.790195, 42.698694], [0.790232, 42.698662], [0.79025, 42.698613], [0.790252, 42.698579], [0.790238, 42.698544], [0.790206, 42.698512], [0.790168, 42.698495], [0.79011, 42.69849], [0.790067, 42.698492], [0.790012, 42.698514], [0.789984, 42.698531], [0.789973, 42.698552], [0.789961, 42.698591], [0.789966, 42.698645]]}, "properties": {"addr:city": "vielha", "addr:street": "Ctra. de T\u00fanel", "building": "yes", "email": "viella@parador.es", "internet_access": "yes", "internet_access:fee": "no", "name": "Parador de Turisme de Vielha", "name:ca": "Parador de Turisme de Vielha", "name:es": "Parador de Turismo de Viella", "operator": "Parador.es", "phone": "+34 973640100", "stars": "4", "tourism": "hotel", "website": "http://www.parador.es/ca/parador-de-vielha", "wikidata": "Q111389290"}}, {"type": "Feature", "id": 189327042, "geometry": {"type": "LineString", "coordinates": [[0.797292, 42.707609], [0.797432, 42.70755], [0.797579, 42.707741], [0.797643, 42.707714], [0.797747, 42.707737], [0.797763, 42.707756], [0.79776, 42.707764], [0.797694, 42.707792], [0.79771, 42.707814], [0.797708, 42.707828], [0.797702, 42.707836], [0.797692, 42.707841], [0.79768, 42.707842], [0.797664, 42.707841], [0.797642, 42.707814], [0.797628, 42.70782], [0.797783, 42.708007], [0.797645, 42.708069], [0.797292, 42.707609]]}, "properties": {"building": "yes", "name": "Hotel Hipic", "tourism": "hotel", "website": "https://hotelhipic.com"}}, {"type": "Feature", "id": 209879719, "geometry": {"type": "LineString", "coordinates": [[0.720234, 42.431941], [0.720232, 42.431914], [0.720185, 42.431916], [0.720179, 42.431846], [0.720217, 42.431844], [0.720212, 42.431783], [0.720521, 42.431769], [0.72053, 42.431879], [0.720502, 42.43188], [0.720507, 42.431928], [0.720234, 42.431941]]}, "properties": {"building": "yes", "internet_access": "wlan", "name": "Hostal Casa Prades", "stars": "2", "tourism": "hotel", "website": "http://www.casaprades.com/"}}, {"type": "Feature", "id": 219319603, "geometry": {"type": "LineString", "coordinates": [[0.499445, 42.858445], [0.499748, 42.858379], [0.499781, 42.858463], [0.499479, 42.858528], [0.499445, 42.858445]]}, "properties": {"building": "yes", "name": "Le Sapin Fleuri", "tourism": "hotel"}}, {"type": "Feature", "id": 235895753, "geometry": {"type": "LineString", "coordinates": [[0.805152, 42.696847], [0.805368, 42.696801], [0.805392, 42.696864], [0.80556, 42.696829], [0.805536, 42.696769], [0.805716, 42.696731], [0.805658, 42.696585], [0.80573, 42.696569], [0.805639, 42.696339], [0.805383, 42.696393], [0.805462, 42.696593], [0.805083, 42.696673], [0.805152, 42.696847]]}, "properties": {"building": "hotel", "name": "Hotel Husa Tuca", "source": "survey", "tourism": "hotel"}}, {"type": "Feature", "id": 241429928, "geometry": {"type": "LineString", "coordinates": [[0.758252, 42.867873], [0.758296, 42.867877], [0.75829, 42.867936], [0.758287, 42.867969], [0.758184, 42.867959], [0.758122, 42.86793], [0.758135, 42.867903], [0.758204, 42.867894], [0.758206, 42.867886], [0.75822, 42.867882], [0.75825, 42.867886], [0.758252, 42.867873]]}, "properties": {"addr:city": "Melles", "addr:postcode": "31440", "addr:street": "Village", "bar": "yes", "building": "retail", "cuisine": "french;haitian", "email": "tetuahiti.soupot@gmail.com", "name": "Auberge municipale du Crab\u00e8re", "phone": "+33 9 50 85 96 58", "restaurant": "yes", "source": "cadastre-dgi-fr source : Direction G\u00e9n\u00e9rale des Finances Publiques - Cadastre. Mise \u00e0 jour : 2013", "tourism": "hotel"}}, {"type": "Feature", "id": 254721909, "geometry": {"type": "LineString", "coordinates": [[0.800359, 42.700528], [0.800437, 42.700496], [0.800234, 42.700229], [0.800093, 42.700286], [0.800211, 42.700441], [0.800123, 42.700477], [0.800167, 42.700535], [0.800274, 42.700675], [0.800424, 42.700614], [0.800359, 42.700528]]}, "properties": {"addr:city": "Vielha ' Vall d'Aran", "addr:place": "Aneto de Vielha", "brand": "Affiliated by Meli\u00e1", "building": "hotel", "contact:email": "hotel.Vielha@Melia.com", "contact:phone": "+34 973 63 80 00", "contact:website": "https://www.melia.com/es/hoteles/espana/vielha-valle-de-aran/hotel-vielha-baqueira-by-melia", "internet_access": "wlan", "name": "Hotel Vielha Baqueira Affiliated By Meli\u00e1", "old_name": "Hotel Tryp Vielha", "opening_hours:reception": "24/7", "operator": "Meli\u00e1 Hotels International", "source": "survey", "source:date": "2005", "stars": "4", "tourism": "hotel"}}, {"type": "Feature", "id": 254721921, "geometry": {"type": "LineString", "coordinates": [[0.799837, 42.702168], [0.79958, 42.701913], [0.799863, 42.701759], [0.799961, 42.701857], [0.799794, 42.701948], [0.799873, 42.702027], [0.800192, 42.701853], [0.80027, 42.701931], [0.799837, 42.702168]]}, "properties": {"building": "yes", "name": "Apartot\u00e8l Eth Refugi d'Aran", "source": "PNOA", "source:date": "2005", "tourism": "hotel"}}, {"type": "Feature", "id": 254847542, "geometry": {"type": "LineString", "coordinates": [[0.795344, 42.701205], [0.79522, 42.701259], [0.795103, 42.701122], [0.795225, 42.701067], [0.795344, 42.701205]]}, "properties": {"building": "yes", "building:levels": "5", "internet_access": "wlan", "internet_access:fee": "no", "name": "Hotel Ribaeta", "source": "PNOA", "source:date": "2005", "stars": "2", "tourism": "hotel"}}, {"type": "Feature", "id": 255259740, "geometry": {"type": "LineString", "coordinates": [[0.710757, 42.81024], [0.710854, 42.810551], [0.710667, 42.810581], [0.710548, 42.810273], [0.710757, 42.81024]]}, "properties": {"addr:city": "Les", "addr:housenumber": "8", "addr:postcode": "25540", "addr:street": "Carrer d'Aran", "building": "yes", "name": "Hotel Europa", "source": "PNOA", "source:date": "2005", "tourism": "hotel"}}, {"type": "Feature", "id": 267971811, "geometry": {"type": "LineString", "coordinates": [[1.301485, 42.779512], [1.301621, 42.779433], [1.301694, 42.779495], [1.301727, 42.779475], [1.301764, 42.779509], [1.301883, 42.779437], [1.302002, 42.779546], [1.301857, 42.779633], [1.301866, 42.779642], [1.301707, 42.779733], [1.301577, 42.779616], [1.301589, 42.779605], [1.301558, 42.779579], [1.301545, 42.779567], [1.301485, 42.779512]]}, "properties": {"building": "apartments", "name": "R\u00e9sidence du Haut Couserans", "tourism": "hotel"}}, {"type": "Feature", "id": 267973644, "geometry": {"type": "LineString", "coordinates": [[1.300622, 42.779879], [1.300626, 42.779837], [1.300692, 42.77984], [1.300696, 42.77979], [1.300767, 42.779794], [1.300794, 42.779491], [1.300737, 42.779488], [1.300742, 42.779421], [1.300691, 42.779419], [1.300695, 42.779371], [1.300626, 42.779368], [1.30063, 42.779312], [1.300512, 42.779307], [1.30048, 42.779306], [1.300448, 42.779871], [1.300622, 42.779879]]}, "properties": {"building": "apartments", "name": "R\u00e9sidence Le Valier", "tourism": "hotel"}}, {"type": "Feature", "id": 271571500, "geometry": {"type": "LineString", "coordinates": [[0.739674, 42.407917], [0.739762, 42.407931], [0.739848, 42.40796], [0.739946, 42.407838], [0.739689, 42.407754], [0.739667, 42.407791], [0.73969, 42.407803], [0.739684, 42.407835], [0.739674, 42.407917]]}, "properties": {"addr:street": "Pla\u00e7a Mercadal", "building": "yes", "name": "Hotel Cotori", "source": "Catastro; Maria Lapedra Vidal", "stars": "3", "tourism": "hotel", "wikidata": "Q111872087"}}, {"type": "Feature", "id": 279560632, "geometry": {"type": "LineString", "coordinates": [[0.755012, 42.737956], [0.755531, 42.737957], [0.755844, 42.737842], [0.756055, 42.737938], [0.755726, 42.738071], [0.755017, 42.738084], [0.755012, 42.737956]]}, "properties": {"addr:city": "Pont d'Arros", "addr:postcode": "25537", "building": "hotel", "name": "Hotel Pe\u00f1a", "nohousenumber": "yes", "phone": "+34973640886", "stars": "4", "tourism": "hotel", "website": "http://www.hotelpenha.com"}}, {"type": "Feature", "id": 283394135, "geometry": {"type": "LineString", "coordinates": [[0.716615, 42.47593], [0.716596, 42.475846], [0.716949, 42.47579], [0.716973, 42.47588], [0.716615, 42.47593]]}, "properties": {"building": "yes", "name": "Hostal Maur\u00edn", "tourism": "hotel"}}, {"type": "Feature", "id": 285397569, "geometry": {"type": "LineString", "coordinates": [[1.338089, 42.790782], [1.338096, 42.79077], [1.338113, 42.790759], [1.338128, 42.790756], [1.33815, 42.790753], [1.338179, 42.790748], [1.338286, 42.790733], [1.338313, 42.790802], [1.338341, 42.790875], [1.338176, 42.790862], [1.338089, 42.790782]]}, "properties": {"building": "yes", "name": "H\u00f4tel Les Oussaill\u00e8s", "tourism": "hotel"}}, {"type": "Feature", "id": 321898105, "geometry": {"type": "LineString", "coordinates": [[0.840489, 42.561685], [0.840478, 42.561701], [0.840542, 42.561725], [0.840519, 42.56176], [0.840866, 42.561887], [0.840927, 42.561798], [0.840579, 42.56167], [0.840604, 42.561633], [0.840616, 42.561638], [0.840634, 42.561611], [0.840662, 42.561622], [0.840687, 42.561586], [0.840662, 42.561577], [0.84068, 42.561551], [0.840408, 42.561451], [0.840429, 42.561421], [0.840076, 42.56129], [0.840057, 42.561318], [0.839922, 42.561269], [0.839866, 42.56135], [0.83984, 42.56134], [0.839763, 42.561293], [0.839776, 42.561283], [0.839736, 42.561259], [0.839723, 42.561268], [0.839752, 42.561185], [0.839483, 42.561132], [0.839475, 42.56116], [0.839235, 42.561116], [0.839245, 42.561084], [0.839119, 42.561062], [0.83909, 42.561149], [0.839189, 42.561167], [0.83918, 42.561191], [0.839194, 42.561194], [0.839175, 42.56125], [0.839208, 42.561259], [0.839239, 42.561288], [0.839284, 42.561303], [0.839266, 42.561348], [0.839511, 42.561391], [0.839508, 42.561401], [0.839639, 42.561467], [0.839732, 42.561495], [0.83976, 42.561468], [0.839645, 42.561386], [0.839595, 42.561377], [0.8396, 42.561364], [0.839682, 42.561377], [0.839777, 42.561443], [0.8401, 42.561562], [0.840125, 42.561524], [0.840447, 42.561647], [0.840441, 42.561657], [0.840489, 42.561685]]}, "properties": {"building": "yes", "name": "Manantial", "stars": "4", "tourism": "hotel"}}, {"type": "Feature", "id": 331050782, "geometry": {"type": "LineString", "coordinates": [[0.897411, 42.706447], [0.897405, 42.706554], [0.897253, 42.70655], [0.897251, 42.706589], [0.897151, 42.706586], [0.897149, 42.706615], [0.896824, 42.706606], [0.896826, 42.706554], [0.896768, 42.706552], [0.89677, 42.706504], [0.896919, 42.706487], [0.89692, 42.706496], [0.896987, 42.70649], [0.896987, 42.706468], [0.897017, 42.706469], [0.897019, 42.706457], [0.897053, 42.706457], [0.897053, 42.706451], [0.897081, 42.706452], [0.89708, 42.706443], [0.897411, 42.706447]]}, "properties": {"building": "yes", "name": "Hotel Lacreu", "phone": "+34 973 64 42 22", "tourism": "hotel", "website": "https://www.hoteleslacreu.com/"}}, {"type": "Feature", "id": 331217911, "geometry": {"type": "LineString", "coordinates": [[0.898497, 42.706845], [0.898497, 42.706726], [0.898823, 42.70672], [0.898827, 42.706755], [0.898843, 42.706756], [0.898861, 42.706832], [0.898497, 42.706845]]}, "properties": {"building": "yes", "name": "Hotel Garona", "tourism": "hotel"}}, {"type": "Feature", "id": 345233442, "geometry": {"type": "LineString", "coordinates": [[1.226467, 42.562709], [1.226504, 42.562686], [1.226551, 42.562685], [1.226585, 42.562702], [1.226603, 42.562728], [1.226585, 42.562818], [1.226581, 42.562817], [1.226561, 42.562886], [1.22689, 42.56281], [1.226932, 42.562899], [1.226617, 42.562978], [1.226382, 42.563068], [1.22637, 42.563058], [1.226467, 42.562709]]}, "properties": {"addr:city": "Ribera de Card\u00f3s", "addr:postcode": "25570", "addr:street": "Av. Hug Roger III", "amenity": "restaurant", "building": "hotel", "name": "Hotel Card\u00f3s", "phone": "+34 973 623100;+34 973623158", "residential": "hotel", "tourism": "hotel"}}, {"type": "Feature", "id": 379959814, "geometry": {"type": "LineString", "coordinates": [[0.894321, 42.928489], [0.894333, 42.928485], [0.894465, 42.928522], [0.89446, 42.92853], [0.894431, 42.928572], [0.8943, 42.928526], [0.894321, 42.928489]]}, "properties": {"building": "yes", "name": "Auberge de l'Isard", "source": "cadastre-dgi-fr source : Direction G\u00e9n\u00e9rale des Finances Publiques - Cadastre. Mise \u00e0 jour : 2015", "tourism": "hotel"}}, {"type": "Feature", "id": 396154169, "geometry": {"type": "LineString", "coordinates": [[0.857219, 42.513872], [0.857328, 42.513793], [0.85753, 42.513944], [0.857739, 42.513791], [0.857848, 42.513872], [0.857529, 42.514104], [0.857219, 42.513872]]}, "properties": {"building": "yes", "name": "Sn\u00f6 Vall de Bo\u00ed", "tourism": "hotel"}}, {"type": "Feature", "id": 396186858, "geometry": {"type": "LineString", "coordinates": [[0.834601, 42.521968], [0.834353, 42.521825], [0.834248, 42.521923], [0.834286, 42.521945], [0.834497, 42.522067], [0.834601, 42.521968]]}, "properties": {"building": "yes", "tourism": "hotel"}}, {"type": "Feature", "id": 396657925, "geometry": {"type": "LineString", "coordinates": [[0.82598, 42.52488], [0.825893, 42.524896], [0.825885, 42.524903], [0.825919, 42.524932], [0.826185, 42.524987], [0.826241, 42.524903], [0.826167, 42.524892], [0.826166, 42.524873], [0.826135, 42.524867], [0.826134, 42.524861], [0.82603, 42.52488], [0.826029, 42.524871], [0.82598, 42.52488]]}, "properties": {"addr:city": "Erill la Vall", "addr:housenumber": "7", "addr:postcode": "25528", "addr:street": "Carrer de Santa Eulalia", "building": "hotel", "check_date": "2025-06-21", "internet_access": "yes", "internet_access:fee": "no", "name": "Hotel L'A\u00fct", "phone": "+34 973 696 048", "stars": "1", "tourism": "hotel"}}, {"type": "Feature", "id": 396657926, "geometry": {"type": "LineString", "coordinates": [[0.826914, 42.526021], [0.826803, 42.525961], [0.82679, 42.525977], [0.826627, 42.52593], [0.826589, 42.526008], [0.826671, 42.526032], [0.826562, 42.526147], [0.826689, 42.526211], [0.826742, 42.526155], [0.826704, 42.526137], [0.826765, 42.52608], [0.826822, 42.52611], [0.826914, 42.526021]]}, "properties": {"building": "hotel", "name": "Casa Pernalle", "stars": "1", "tourism": "hotel"}}, {"type": "Feature", "id": 396664113, "geometry": {"type": "LineString", "coordinates": [[0.936722, 42.324469], [0.936578, 42.32443], [0.936484, 42.324646], [0.936639, 42.324686], [0.936722, 42.324469]]}, "properties": {"building": "yes", "name": "Casa Leonardo", "tourism": "hotel"}}, {"type": "Feature", "id": 397203305, "geometry": {"type": "LineString", "coordinates": [[1.244217, 42.515189], [1.244235, 42.515187], [1.244339, 42.51517], [1.244337, 42.515167], [1.244352, 42.515163], [1.244374, 42.515158], [1.244366, 42.515138], [1.244338, 42.515138], [1.244323, 42.515138], [1.244274, 42.515056], [1.244253, 42.51498], [1.244165, 42.514985], [1.244192, 42.515082], [1.24418, 42.515083], [1.244188, 42.51513], [1.244213, 42.51513], [1.244217, 42.515189]]}, "properties": {"building": "yes", "name": "Fonda Nadalet", "tourism": "hotel"}}, {"type": "Feature", "id": 400765554, "geometry": {"type": "LineString", "coordinates": [[0.872231, 42.700783], [0.872227, 42.700789], [0.87222, 42.700793], [0.872211, 42.700794], [0.872202, 42.700792], [0.872195, 42.700789], [0.87219, 42.700783], [0.872189, 42.700776], [0.872191, 42.70077], [0.872197, 42.700765], [0.872205, 42.700761], [0.872214, 42.700761], [0.872223, 42.700763], [0.872231, 42.700767], [0.87223, 42.700737], [0.871958, 42.700742], [0.871957, 42.700709], [0.871772, 42.700713], [0.871774, 42.700749], [0.871674, 42.700751], [0.871673, 42.700714], [0.871486, 42.700718], [0.871483, 42.700634], [0.871468, 42.700634], [0.871467, 42.700601], [0.871479, 42.700601], [0.871476, 42.700517], [0.871883, 42.700509], [0.871881, 42.700428], [0.871577, 42.700434], [0.871573, 42.700305], [0.872201, 42.700293], [0.872205, 42.700423], [0.872056, 42.700426], [0.872059, 42.700511], [0.8722, 42.700509], [0.872206, 42.700692], [0.872463, 42.700688], [0.872462, 42.700663], [0.872518, 42.700662], [0.872517, 42.700649], [0.872606, 42.700647], [0.872608, 42.700712], [0.872593, 42.700713], [0.872597, 42.700809], [0.87257, 42.70081], [0.872571, 42.70082], [0.872548, 42.70082], [0.872548, 42.700813], [0.87248, 42.700814], [0.872481, 42.700837], [0.872328, 42.70084], [0.872233, 42.700842], [0.872231, 42.700783]]}, "properties": {"building": "yes", "name": "Parador d'Art\u00edes", "tourism": "hotel"}}, {"type": "Feature", "id": 420051356, "geometry": {"type": "LineString", "coordinates": [[1.131898, 42.594411], [1.131934, 42.594226], [1.13205, 42.594241], [1.132042, 42.594282], [1.132196, 42.594301], [1.132189, 42.594328], [1.132094, 42.594318], [1.13209, 42.594335], [1.132243, 42.594353], [1.132231, 42.594409], [1.132082, 42.594389], [1.132079, 42.594404], [1.132156, 42.594416], [1.13213, 42.59453], [1.131989, 42.594516], [1.132012, 42.594426], [1.131898, 42.594411]]}, "properties": {"building": "yes", "name": "Hotel Poldo", "tourism": "hotel", "website": "https://www.hotelpoldo.com/"}}, {"type": "Feature", "id": 420051370, "geometry": {"type": "LineString", "coordinates": [[1.131756, 42.594879], [1.131816, 42.594748], [1.132024, 42.5948], [1.131981, 42.594893], [1.131905, 42.594874], [1.131887, 42.594911], [1.131756, 42.594879]]}, "properties": {"building": "yes", "name": "Hotel Cases", "tourism": "hotel", "website": "http://www.hotelpallarssobira.com"}}, {"type": "Feature", "id": 434583504, "geometry": {"type": "LineString", "coordinates": [[1.334784, 42.791326], [1.33478, 42.791321], [1.335163, 42.791125], [1.335181, 42.791145], [1.335263, 42.791234], [1.33526, 42.791236], [1.33488, 42.791428], [1.334784, 42.791326]]}, "properties": {"building": "yes", "building:flats": "37", "name": "Le Grand H\u00f4tel Revea", "source": "cadastre-dgi-fr source : Direction G\u00e9n\u00e9rale des Finances Publiques - Cadastre. Mise \u00e0 jour : 2016", "tourism": "hotel"}}, {"type": "Feature", "id": 434583548, "geometry": {"type": "LineString", "coordinates": [[1.334395, 42.790456], [1.334386, 42.790447], [1.334384, 42.790433], [1.334379, 42.790392], [1.334391, 42.790376], [1.334448, 42.790374], [1.334627, 42.790368], [1.334764, 42.790453], [1.334768, 42.790558], [1.334825, 42.790599], [1.334859, 42.790618], [1.334859, 42.790636], [1.334768, 42.790708], [1.334762, 42.790713], [1.334739, 42.790715], [1.334597, 42.790617], [1.334596, 42.79059], [1.334592, 42.790512], [1.334595, 42.790503], [1.334482, 42.790508], [1.334416, 42.790511], [1.334393, 42.790509], [1.334395, 42.790456]]}, "properties": {"building": "yes", "name": "R\u00e9sidence des 3 C\u00e9sars", "source": "cadastre-dgi-fr source : Direction G\u00e9n\u00e9rale des Finances Publiques - Cadastre. Mise \u00e0 jour : 2016", "tourism": "hotel"}}, {"type": "Feature", "id": 440849001, "geometry": {"type": "LineString", "coordinates": [[1.108831, 42.633722], [1.109017, 42.633653], [1.108957, 42.633564], [1.108945, 42.633546], [1.10876, 42.633616], [1.108831, 42.633722]]}, "properties": {"building": "yes", "name": "Hotel lo Paller", "tourism": "hotel", "website": "http://lopaller.com"}}, {"type": "Feature", "id": 440849010, "geometry": {"type": "LineString", "coordinates": [[1.111285, 42.634603], [1.111068, 42.634458], [1.110983, 42.634525], [1.111074, 42.634586], [1.111041, 42.634613], [1.111076, 42.634636], [1.111063, 42.634647], [1.111154, 42.634709], [1.111285, 42.634603]]}, "properties": {"building": "yes", "name": "Hotel la Morera", "tourism": "hotel", "website": "https://hotel-lamorera.com/"}}, {"type": "Feature", "id": 440907469, "geometry": {"type": "LineString", "coordinates": [[1.087375, 42.57603], [1.087484, 42.575848], [1.087441, 42.575834], [1.087455, 42.575812], [1.087405, 42.575797], [1.087359, 42.575773], [1.087306, 42.575808], [1.087237, 42.575741], [1.087202, 42.575712], [1.087181, 42.575732], [1.087165, 42.575719], [1.087083, 42.575765], [1.087152, 42.575823], [1.087136, 42.575838], [1.087224, 42.575894], [1.087323, 42.575922], [1.087308, 42.575986], [1.087317, 42.57601], [1.087375, 42.57603]]}, "properties": {"addr:city": "Espot", "addr:country": "ES", "addr:postcode": "25597", "addr:street": "Carrer de la Moixera", "building": "hotel", "email": "hotelroya@hotelroya.net", "internet_access": "wlan", "internet_access:fee": "no", "name": "Hotel Roya", "phone": "+34 973624040", "rooms": "25", "stars": "3", "tourism": "hotel", "website": "https://hotelroya.net/"}}, {"type": "Feature", "id": 441121550, "geometry": {"type": "LineString", "coordinates": [[1.094177, 42.564639], [1.094222, 42.564609], [1.094239, 42.56462], [1.094257, 42.56463], [1.094276, 42.564638], [1.094297, 42.564645], [1.094318, 42.564649], [1.09434, 42.564652], [1.094362, 42.564653], [1.094384, 42.564653], [1.094407, 42.56465], [1.094428, 42.564646], [1.094449, 42.56464], [1.094506, 42.564726], [1.094631, 42.564642], [1.094694, 42.564533], [1.094683, 42.564406], [1.094614, 42.56435], [1.094545, 42.564399], [1.09452, 42.564377], [1.09449, 42.564359], [1.094456, 42.564345], [1.09442, 42.564335], [1.094383, 42.564329], [1.094344, 42.564327], [1.094305, 42.56433], [1.094268, 42.564337], [1.094233, 42.564349], [1.0942, 42.564364], [1.094171, 42.564383], [1.094147, 42.564405], [1.094127, 42.564429], [1.094113, 42.564456], [1.094104, 42.564484], [1.094102, 42.564512], [1.094105, 42.56454], [1.094115, 42.564568], [1.09413, 42.564594], [1.094151, 42.564618], [1.094177, 42.564639]]}, "properties": {"building": "yes", "name": "Or Blanc", "tourism": "hotel"}}, {"type": "Feature", "id": 458527692, "geometry": {"type": "LineString", "coordinates": [[0.930659, 42.699378], [0.930653, 42.699356], [0.930667, 42.699328], [0.930695, 42.699313], [0.930628, 42.699253], [0.930759, 42.699016], [0.930672, 42.698991], [0.930643, 42.698863], [0.930335, 42.698889], [0.930242, 42.698865], [0.930246, 42.698856], [0.930149, 42.69883], [0.930155, 42.698818], [0.930127, 42.698811], [0.930122, 42.698824], [0.93008, 42.698812], [0.930047, 42.698873], [0.930361, 42.698957], [0.930373, 42.699018], [0.930324, 42.699023], [0.930326, 42.699031], [0.93031, 42.699033], [0.930294, 42.699062], [0.930305, 42.699073], [0.930296, 42.699078], [0.930421, 42.699197], [0.930401, 42.69923], [0.930358, 42.699217], [0.930326, 42.699275], [0.930371, 42.699289], [0.930353, 42.699319], [0.930149, 42.69934], [0.93015, 42.69935], [0.930129, 42.699351], [0.930117, 42.699379], [0.930128, 42.699391], [0.930119, 42.699397], [0.930277, 42.699551], [0.930324, 42.699525], [0.930462, 42.699566], [0.930556, 42.699388], [0.930659, 42.699378]]}, "properties": {"building": "yes", "name": "Hotel Montarto", "tourism": "hotel", "website": "http://www.montarto.com"}}, {"type": "Feature", "id": 458528112, "geometry": {"type": "LineString", "coordinates": [[0.932975, 42.699453], [0.932838, 42.699204], [0.933197, 42.69905], [0.933312, 42.699031], [0.933454, 42.69895], [0.933542, 42.698932], [0.933635, 42.699017], [0.933592, 42.699077], [0.933431, 42.699173], [0.933398, 42.699219], [0.933357, 42.699391], [0.93331, 42.699452], [0.933264, 42.699447], [0.933256, 42.699473], [0.933197, 42.699464], [0.933204, 42.69944], [0.933159, 42.699434], [0.933157, 42.699424], [0.932975, 42.699453]]}, "properties": {"building": "yes", "name": "Hotel Tuc Blanc", "tourism": "hotel", "website": "https://www.hoteltucblancbaqueira.com/"}}, {"type": "Feature", "id": 458633235, "geometry": {"type": "LineString", "coordinates": [[0.93793, 42.703499], [0.937884, 42.703381], [0.937753, 42.703408], [0.937744, 42.703385], [0.93764, 42.703407], [0.937647, 42.703426], [0.937596, 42.703437], [0.937601, 42.70345], [0.937375, 42.703497], [0.937428, 42.703634], [0.937651, 42.703588], [0.937659, 42.703609], [0.93774, 42.703592], [0.93772, 42.703542], [0.93793, 42.703499]]}, "properties": {"addr:city": "Baqueira, Lleida", "addr:postcode": "25598", "addr:street": "Urbanizaci\u00f3n Tanau Ctra. de Baqueira a Beret Naut Ar\u00e1n", "brand": "Eurostars Hotel Company", "brand:wikidata": "Q8846494", "building": "yes", "email": "recepcion@eurostarsroyaltanau.com", "name": "Eurostars Royal Tanau", "nohousenumber": "yes", "phone": "+34 873612939", "tourism": "hotel", "website": "https://www.eurostarshotels.com/eurostars-royal-tanau.html"}}, {"type": "Feature", "id": 458634514, "geometry": {"type": "LineString", "coordinates": [[0.935839, 42.703267], [0.935829, 42.70324], [0.935985, 42.703052], [0.936006, 42.703047], [0.936039, 42.703061], [0.936055, 42.703042], [0.936115, 42.703069], [0.936095, 42.703092], [0.936152, 42.703117], [0.935977, 42.70333], [0.935922, 42.703305], [0.935945, 42.703277], [0.935895, 42.703254], [0.935872, 42.703282], [0.935839, 42.703267]]}, "properties": {"alt_name": "Hotel Chalet Bassibe", "building": "yes", "name": "Hotel Xalet Bassib\u00e9", "tourism": "hotel", "website": "https://www.aa-hoteles.com/bassibe.html"}}, {"type": "Feature", "id": 489737644, "geometry": {"type": "LineString", "coordinates": [[0.904633, 42.70891], [0.904662, 42.708897], [0.904561, 42.708781], [0.904508, 42.708806], [0.904478, 42.708772], [0.904403, 42.708807], [0.904411, 42.708816], [0.904371, 42.708835], [0.904428, 42.7089], [0.904435, 42.708897], [0.904494, 42.708964], [0.904504, 42.70896], [0.904511, 42.708968], [0.904575, 42.708938], [0.904591, 42.708956], [0.904649, 42.708928], [0.904633, 42.70891]]}, "properties": {"building": "yes", "name": "Hotel Mauberme", "tourism": "hotel"}}, {"type": "Feature", "id": 489742283, "geometry": {"type": "LineString", "coordinates": [[0.897583, 42.706772], [0.897226, 42.706755], [0.897222, 42.706803], [0.897199, 42.706802], [0.897198, 42.706814], [0.897162, 42.706813], [0.897163, 42.706804], [0.897142, 42.706803], [0.89714, 42.706826], [0.897152, 42.706827], [0.897148, 42.706873], [0.897625, 42.706895], [0.897629, 42.706841], [0.897577, 42.706839], [0.897583, 42.706772]]}, "properties": {"building": "yes", "name": "Hotel Petit Lacreu", "tourism": "hotel"}}, {"type": "Feature", "id": 490973703, "geometry": {"type": "LineString", "coordinates": [[0.90229, 42.710422], [0.902132, 42.710328], [0.902115, 42.710293], [0.902189, 42.710214], [0.902333, 42.710247], [0.902313, 42.710267], [0.902407, 42.71032], [0.902384, 42.710341], [0.90229, 42.710422]]}, "properties": {"building": "yes", "name": "Aparthote Es de Don Joan", "tourism": "hotel"}}, {"type": "Feature", "id": 490979686, "geometry": {"type": "LineString", "coordinates": [[0.915088, 42.703159], [0.915064, 42.703133], [0.915021, 42.703086], [0.914853, 42.703167], [0.914825, 42.703136], [0.914704, 42.703195], [0.914717, 42.70321], [0.914574, 42.70328], [0.914548, 42.703251], [0.914451, 42.703299], [0.914473, 42.703323], [0.914465, 42.703326], [0.914556, 42.703426], [0.914563, 42.703423], [0.914569, 42.70343], [0.914681, 42.703375], [0.914673, 42.703367], [0.914795, 42.703307], [0.914802, 42.703314], [0.914838, 42.703297], [0.91494, 42.703247], [0.914931, 42.703236], [0.915031, 42.703187], [0.915088, 42.703159]]}, "properties": {"addr:city": "Tred\u00f3s", "addr:country": "ES", "addr:street": "Carretera de Baqueira", "building": "hotel", "contact:website": "https://www.melia.com/es/hoteles/espana/baqueira-beret/melia-tredos-baqueira", "name": "Meli\u00e1 de Tred\u00f3s Baqueira", "old_name": "Hotel de Tred\u00f2s", "tourism": "hotel"}}, {"type": "Feature", "id": 509389686, "geometry": {"type": "LineString", "coordinates": [[0.691988, 42.783286], [0.692166, 42.783508], [0.692267, 42.783465], [0.692089, 42.783242], [0.691988, 42.783286]]}, "properties": {"addr:city": "Boss\u00f2st", "addr:housenumber": "1", "addr:postcode": "25550", "addr:street": "Eduard Aun\u00f3s", "building": "hotel", "building:levels": "4", "category": "two", "name": "Hotel Garona", "phone": "+34 973 64 82 46", "source": "survey", "tourism": "hotel"}}, {"type": "Feature", "id": 584309370, "geometry": {"type": "LineString", "coordinates": [[0.528088, 42.291213], [0.528111, 42.291222], [0.528205, 42.291261], [0.528163, 42.291321], [0.528128, 42.291331], [0.528038, 42.291404], [0.527951, 42.291361], [0.527945, 42.291358], [0.527982, 42.291315], [0.528006, 42.291327], [0.528023, 42.291312], [0.528045, 42.291271], [0.528088, 42.291213]]}, "properties": {"building": "yes", "building:levels": "4", "internet_access": "wlan", "name": "Hospeder\u00eda de Roda de Is\u00e1bena", "rooms": "10", "stars": "3", "tourism": "hotel"}}, {"type": "Feature", "id": 591354324, "geometry": {"type": "LineString", "coordinates": [[0.520424, 42.602582], [0.520172, 42.60233], [0.519949, 42.602446], [0.520205, 42.602705], [0.520424, 42.602582]]}, "properties": {"addr:city": "Benasque", "addr:postcode": "22440", "addr:street": "Paseo De Eriste", "building": "yes", "email": "info@san-anton.com", "name": "Hotel San Ant\u00f3n", "phone": "+34 692 18 90 33", "rooms": "17", "stars": "3", "tourism": "hotel", "website": "https://www.hotelsananton.net"}}, {"type": "Feature", "id": 625815245, "geometry": {"type": "LineString", "coordinates": [[0.517689, 42.603593], [0.517661, 42.603493], [0.518044, 42.603425], [0.518081, 42.603521], [0.517689, 42.603593]]}, "properties": {"building": "yes", "name": "Hotel Vallibierna", "tourism": "hotel"}}, {"type": "Feature", "id": 727328125, "geometry": {"type": "LineString", "coordinates": [[0.989048, 42.462219], [0.989082, 42.462333], [0.989146, 42.462415], [0.989177, 42.4624], [0.98934, 42.462568], [0.989314, 42.462575], [0.989366, 42.462778], [0.989415, 42.462771], [0.989374, 42.462591], [0.989427, 42.462558], [0.989319, 42.462452], [0.989258, 42.462368], [0.9892, 42.462297], [0.989181, 42.462136], [0.989048, 42.462219]]}, "properties": {"building": "hotel", "name": "Hotel Montseny", "tourism": "hotel"}}, {"type": "Feature", "id": 727330287, "geometry": {"type": "LineString", "coordinates": [[0.975906, 42.406957], [0.976064, 42.407177], [0.976193, 42.407116], [0.976158, 42.407088], [0.976297, 42.406995], [0.976182, 42.406904], [0.976016, 42.406995], [0.975975, 42.406932], [0.975906, 42.406957]]}, "properties": {"name": "Hotel Vall Fosca", "stars": "3", "tourism": "hotel"}}, {"type": "Feature", "id": 828468999, "geometry": {"type": "LineString", "coordinates": [[0.520228, 42.489471], [0.520298, 42.48952], [0.520267, 42.489544], [0.520299, 42.489567], [0.520331, 42.489542], [0.520392, 42.489586], [0.520478, 42.48952], [0.520447, 42.489498], [0.520314, 42.489404], [0.520228, 42.489471]]}, "properties": {"building": "yes", "dog": "yes", "min_age": "18", "name": "Casa Muria", "phone": "+34 974 111 313", "rooms": "7", "tourism": "hotel", "website": "https://www.casamuria.com"}}, {"type": "Feature", "id": 842449943, "geometry": {"type": "LineString", "coordinates": [[0.871253, 42.698458], [0.8715, 42.69853], [0.871498, 42.698535], [0.87151, 42.698539], [0.871496, 42.698567], [0.871454, 42.698633], [0.87145, 42.698634], [0.871439, 42.698635], [0.871431, 42.698631], [0.871431, 42.698623], [0.871434, 42.698614], [0.871263, 42.698563], [0.871259, 42.698634], [0.87121, 42.69862], [0.871214, 42.698536], [0.871208, 42.698534], [0.871253, 42.698458]]}, "properties": {"building": "yes", "name": "Besiberri", "tourism": "hotel"}}, {"type": "Feature", "id": 889514712, "geometry": {"type": "LineString", "coordinates": [[1.198418, 42.83194], [1.198326, 42.832147], [1.198227, 42.832121], [1.198202, 42.832114], [1.19826, 42.831987], [1.198196, 42.831972], [1.19823, 42.831895], [1.198359, 42.831926], [1.198418, 42.83194]]}, "properties": {"building": "yes", "tourism": "hotel"}}, {"type": "Feature", "id": 975620227, "geometry": {"type": "LineString", "coordinates": [[0.469842, 42.578176], [0.469936, 42.578113], [0.469819, 42.578012], [0.469845, 42.578005], [0.469832, 42.577974], [0.469797, 42.577945], [0.469772, 42.577957], [0.469701, 42.577857], [0.469591, 42.577893], [0.469652, 42.578001], [0.469608, 42.578012], [0.469635, 42.578062], [0.469689, 42.578104], [0.469724, 42.578086], [0.469842, 42.578176]]}, "properties": {"amenity": "restaurant", "building": "yes", "cuisine": "regional", "tourism": "hotel"}}, {"type": "Feature", "id": 1117347165, "geometry": {"type": "LineString", "coordinates": [[0.693819, 42.788342], [0.693825, 42.788336], [0.693831, 42.788339], [0.693886, 42.788299], [0.693861, 42.788279], [0.69387, 42.788271], [0.693917, 42.788307], [0.693954, 42.78828], [0.69396, 42.788284], [0.694033, 42.788231], [0.69403, 42.788193], [0.693982, 42.788186], [0.693954, 42.788167], [0.693769, 42.788302], [0.693819, 42.788342]]}, "properties": {"addr:housenumber": "3", "addr:street": "Carr\u00e8r Prat de Lops", "building": "yes", "name": "The Boss\u00f2st", "tourism": "hotel"}}, {"type": "Feature", "id": 1213925662, "geometry": {"type": "LineString", "coordinates": [[1.131447, 42.407484], [1.131776, 42.407403], [1.131568, 42.406927], [1.131182, 42.407088], [1.131447, 42.407484]]}, "properties": {"addr:city": "Sort", "air_conditioning": "yes", "heating": "yes", "internet_access": "wlan", "internet_access:fee": "customers", "name": "Florido Hotel", "pet": "yes", "phone": "+34 973 620 237", "stars": "2", "tourism": "hotel", "website": "https://www.hotelflorido.com"}}, {"type": "Feature", "id": 1354147655, "geometry": {"type": "LineString", "coordinates": [[1.211435, 42.495407], [1.211464, 42.495438], [1.211502, 42.49548], [1.211589, 42.4954], [1.211699, 42.495455], [1.211804, 42.495374], [1.211588, 42.495244], [1.211553, 42.495281], [1.21149, 42.495346], [1.211435, 42.495407]]}, "properties": {"building": "yes", "name": "Lamoga", "tourism": "hotel"}}]}