{"type": "FeatureCollection", "features": [{"type": "Feature", "id": 1326932484, "geometry": {"type": "Point", "coordinates": [1.131508, 42.412506]}, "properties": {"name": "Cam\u00ed de la Llibertat", "name:ca": "Cam\u00ed de la Llibertat", "tourism": "museum", "wikidata": "Q18005976", "wikipedia": "ca:Pres\u00f3-Museu Cam\u00ed de la Llibertat"}}, {"type": "Feature", "id": 1469110388, "geometry": {"type": "Point", "coordinates": [1.129442, 42.412983]}, "properties": {"name": "Arxiu Comarcal del Pallars Sobir\u00e0", "name:ca": "Arxiu Comarcal del Pallars Sobir\u00e0", "tourism": "museum"}}, {"type": "Feature", "id": 1471040906, "geometry": {"type": "Point", "coordinates": [1.121451, 42.627451]}, "properties": {"addr:housenumber": "22-24", "addr:street": "Carrer del Camp", "fee": "yes", "name": "Ecomuseu de les Valls d'\u00c0neu", "name:ca": "Ecomuseu de les Valls d'\u00c0neu", "tourism": "museum", "website": "https://www.ecomuseu.com", "wikidata": "Q11917975", "wikipedia": "ca:Ecomuseu de les Valls d'\u00c0neu"}}, {"type": "Feature", "id": 2885850434, "geometry": {"type": "Point", "coordinates": [0.825565, 42.524609]}, "properties": {"addr:city": "Erill la Vall", "addr:housenumber": "5", "addr:postcode": "25528", "addr:street": "Cam\u00ed del Batall\u00f3", "name": "Centre del Rom\u00e0nic de la Vall de Bo\u00ed", "short_name": "CRVB", "tourism": "museum", "wheelchair": "yes"}}, {"type": "Feature", "id": 3013849275, "geometry": {"type": "Point", "coordinates": [0.91569, 42.719427]}, "properties": {"name": "Eth Corrau", "tourism": "museum"}}, {"type": "Feature", "id": 3052000090, "geometry": {"type": "Point", "coordinates": [0.967858, 42.246454]}, "properties": {"addr:city": "la Pobla de Segur", "addr:postcode": "25500", "addr:street": "Carrer de la font", "name": "Comu de Particulars", "tourism": "museum"}}, {"type": "Feature", "id": 3352508777, "geometry": {"type": "Point", "coordinates": [1.064098, 42.323424]}, "properties": {"email": "consorcigerri@gmail.com", "fax": "+34 973 66 21 83", "name": "Museu de Gerri de la Sal", "name:ca": "Museu de Gerri de la Sal", "operator": "MNACTEC", "phone": "+34 973 66 20 40", "tourism": "museum", "website": "https://www.mnactec.cat/museum/museu_de_gerri_de_la_sal.htm"}}, {"type": "Feature", "id": 4995234537, "geometry": {"type": "Point", "coordinates": [1.086187, 42.678483]}, "properties": {"name": "Casa de l'Os Bru dels Pirineus", "opening_hours": "10:00-14:00,16:00-19:00", "tourism": "museum", "wheelchair": "no"}}, {"type": "Feature", "id": 5058330700, "geometry": {"type": "Point", "coordinates": [1.211152, 42.893039]}, "properties": {"name": "Mus\u00e9e des Colporteurs", "tourism": "museum"}}, {"type": "Feature", "id": 5076803023, "geometry": {"type": "Point", "coordinates": [0.655028, 42.721037]}, "properties": {"tourism": "museum"}}, {"type": "Feature", "id": 5849517987, "geometry": {"type": "Point", "coordinates": [1.226369, 42.563148]}, "properties": {"addr:city": "Ribera de Card\u00f3s", "addr:housenumber": "22", "addr:postcode": "25570", "addr:street": "Avinguda Hug Roger III", "email": "museu@papallones.cat", "name": "Museu de les Papallones de Catalunya", "name:ca": "Museu de les Papallones de Catalunya", "name:es": "Museo de las Mariposas de Catalu\u00f1a", "phone": "+34 655 475 661", "tourism": "museum", "website": "http://www.papallones.cat", "wikidata": "Q5658732", "wikipedia": "ca:Museu de les Papallones de Catalunya"}}, {"type": "Feature", "id": 5951467085, "geometry": {"type": "Point", "coordinates": [0.720295, 42.259153]}, "properties": {"name": "Museo de Dinosaurios de Ar\u00e9n", "tourism": "museum"}}, {"type": "Feature", "id": 6789028090, "geometry": {"type": "Point", "coordinates": [1.317675, 42.548248]}, "properties": {"name": "Ecomuseu Casa Sintet", "tourism": "museum"}}, {"type": "Feature", "id": 10196495419, "geometry": {"type": "Point", "coordinates": [0.917916, 42.931611]}, "properties": {"fee": "no", "museum": "history", "name": "Mus\u00e9e du XXe si\u00e8cle", "tourism": "museum"}}, {"type": "Feature", "id": 11932843964, "geometry": {"type": "Point", "coordinates": [0.966167, 42.240903]}, "properties": {"museum": "nature", "name": "Centre d'Interpretaci\u00f3 de la Fauna i Natura dels Pirineus", "tourism": "museum"}}, {"type": "Feature", "id": 63820570, "geometry": {"type": "LineString", "coordinates": [[0.591811, 42.789409], [0.591594, 42.789346], [0.5916, 42.789334], [0.591677, 42.789186], [0.591896, 42.789248], [0.591858, 42.789319], [0.591811, 42.789409]]}, "properties": {"addr:city": "Bagn\u00e8res-de-Luchon", "addr:country": "FR", "addr:housenumber": "18", "addr:street": "All\u00e9es d'\u00c9tigny", "building": "yes", "heritage": "2", "heritage:operator": "mhs", "image": "File:Ch\u00e2teau Lafont-Lasalle.jpg", "internet_access": "yes", "internet_access:fee": "no", "mhs:inscription_date": "1927-03-02", "name": "Ch\u00e2teau Lafont", "ref:mhs": "PA00094277", "source": "cadastre-dgi-fr source : Direction G\u00e9n\u00e9rale des Imp\u00f4ts - Cadastre;mise \u00e0 jour : 2008", "source:heritage": "data.gouv.fr:Minist\u00e8re de la Culture - 04/2015", "tourism": "museum", "wikidata": "Q23646107", "wikipedia": "fr:Mus\u00e9e du Pays de Luchon"}}, {"type": "Feature", "id": 168580784, "geometry": {"type": "LineString", "coordinates": [[1.349441, 42.89186], [1.349515, 42.891932], [1.349598, 42.891869], [1.349509, 42.891811], [1.349441, 42.89186]]}, "properties": {"building": "yes", "name": "Le vieux Moulin", "source": "cadastre-dgi-fr source : Direction G\u00e9n\u00e9rale des Imp\u00f4ts - Cadastre;Mise \u00e0 jour : 2012", "tourism": "museum"}}, {"type": "Feature", "id": 181450075, "geometry": {"type": "LineString", "coordinates": [[0.990622, 42.466587], [0.990624, 42.466848], [0.990519, 42.466848], [0.990517, 42.466587], [0.990622, 42.466587]]}, "properties": {"building": "yes", "fee": "yes", "name": "Museu Hidroel\u00e8ctric de Capdella", "tourism": "museum", "website": "http://www.vallfosca.net/ca/coses-per-fer-i-veure/museu-hidroelectric-de-capdella/"}}, {"type": "Feature", "id": 204363539, "geometry": {"type": "LineString", "coordinates": [[0.969371, 42.250208], [0.969425, 42.250182], [0.969391, 42.250143], [0.969354, 42.250099], [0.9693, 42.250124], [0.969087, 42.250224], [0.969158, 42.250308], [0.969371, 42.250208]]}, "properties": {"addr:city": "la Pobla de Segur", "addr:housenumber": "33", "addr:postcode": "25500", "addr:street": "Avinguda de Verdaguer", "building": "yes", "building:levels": "2", "name": "Mol\u00ed de l'Oli de Sant Josep", "tourism": "museum"}}, {"type": "Feature", "id": 396657938, "geometry": {"type": "LineString", "coordinates": [[0.825673, 42.524679], [0.825638, 42.524628], [0.82552, 42.524663], [0.825539, 42.524713], [0.825673, 42.524679]]}, "properties": {"building": "yes", "name": "Centre d'interpretaci\u00f3 del Rom\u00e0nic", "tourism": "museum"}}, {"type": "Feature", "id": 397031463, "geometry": {"type": "LineString", "coordinates": [[1.326318, 42.593386], [1.326306, 42.593314], [1.326348, 42.59331], [1.32636, 42.593383], [1.326318, 42.593386]]}, "properties": {"building": "yes", "name": "Serradora d'\u00c0reu", "tourism": "museum"}}, {"type": "Feature", "id": 441885155, "geometry": {"type": "LineString", "coordinates": [[0.794318, 42.701049], [0.794289, 42.700993], [0.794296, 42.700983], [0.794283, 42.700977], [0.794274, 42.700987], [0.794084, 42.701039], [0.794123, 42.701113], [0.794285, 42.701068], [0.794297, 42.701088], [0.794319, 42.701097], [0.794335, 42.701093], [0.794347, 42.701073], [0.79434, 42.701056], [0.794318, 42.701049]]}, "properties": {"building": "yes", "fee": "yes", "historic": "manor", "name": "Mus\u00e8u dera Val d'Aran", "name:ca": "Museu de la Vall d'Aran", "tourism": "museum", "wikidata": "Q18005092", "wikipedia": "ca:Mus\u00e8u dera Val d'Aran"}}, {"type": "Feature", "id": 447586672, "geometry": {"type": "LineString", "coordinates": [[0.966019, 42.239969], [0.965978, 42.239779], [0.965841, 42.239792], [0.965876, 42.239982], [0.966019, 42.239969]]}, "properties": {"building:levels": "1", "name": "Espai Raier", "tourism": "museum"}}, {"type": "Feature", "id": 490973720, "geometry": {"type": "LineString", "coordinates": [[0.904418, 42.711288], [0.904472, 42.711239], [0.904333, 42.711155], [0.904223, 42.711253], [0.904293, 42.711295], [0.904347, 42.711246], [0.904418, 42.711288]]}, "properties": {"addr:city": "Unha", "addr:street": "Carr\u00e8r Major", "building": "yes", "name": "Museu Eth Corrau", "name:ca": "Museu Eth Corrau", "name:oc": "Museu Eth Corrau", "tourism": "museum"}}, {"type": "Feature", "id": 490975985, "geometry": {"type": "LineString", "coordinates": [[0.902518, 42.709675], [0.902482, 42.709522], [0.902592, 42.709508], [0.902627, 42.709661], [0.902518, 42.709675]]}, "properties": {"building": "yes", "name": "Mus\u00e8u dera Nh\u00e8u", "tourism": "museum"}}, {"type": "Feature", "id": 584297985, "geometry": {"type": "LineString", "coordinates": [[0.528698, 42.290572], [0.528695, 42.290617], [0.528665, 42.290651], [0.52858, 42.290656], [0.52854, 42.290589], [0.528641, 42.290574], [0.528662, 42.290573], [0.528698, 42.290572]]}, "properties": {"building": "yes", "building:levels": "2", "fee": "yes", "name": "Museo La Era de Vicen", "tourism": "museum"}}, {"type": "Feature", "id": 625815444, "geometry": {"type": "LineString", "coordinates": [[0.524321, 42.606992], [0.524414, 42.60705], [0.524458, 42.607011], [0.52449, 42.607031], [0.524555, 42.606976], [0.524416, 42.606889], [0.524355, 42.606942], [0.524369, 42.606951], [0.524321, 42.606992]]}, "properties": {"building": "yes", "name": "Centro de Interpretaci\u00f3n del Parque Natural de los Glaciares Pirenaicos", "tourism": "museum"}}, {"type": "Feature", "id": 665690377, "geometry": {"type": "LineString", "coordinates": [[1.073968, 42.45168], [1.074062, 42.451704], [1.074115, 42.451591], [1.073975, 42.451555], [1.073958, 42.451591], [1.073987, 42.451599], [1.07397, 42.451635], [1.073987, 42.451639], [1.073968, 42.45168]]}, "properties": {"building": "yes", "name": "Ecomuseu la Vall d'\u00c0ssua", "tourism": "museum"}}, {"type": "Feature", "id": 842446648, "geometry": {"type": "LineString", "coordinates": [[0.725449, 42.747958], [0.725536, 42.747944], [0.725557, 42.747944], [0.725621, 42.747944], [0.725674, 42.747946], [0.725766, 42.747936], [0.725815, 42.747965], [0.725838, 42.748037], [0.725829, 42.748037], [0.725843, 42.748103], [0.725829, 42.748106], [0.725833, 42.748131], [0.725843, 42.748132], [0.725846, 42.748149], [0.725851, 42.748186], [0.725855, 42.74821], [0.725646, 42.748228], [0.725575, 42.748233], [0.72551, 42.748246], [0.72551, 42.748239], [0.725523, 42.748237], [0.725503, 42.748173], [0.725516, 42.748169], [0.725449, 42.747958]]}, "properties": {"name": "Ecomuseo de Joanchiquet", "tourism": "museum"}}]}