{"type": "FeatureCollection", "features": [{"type": "Feature", "id": 276236131, "geometry": {"type": "Point", "coordinates": [1.13311, 42.408129]}, "properties": {"addr:city": "Sort", "addr:street": "Carretera de la Seu d'Urgell", "air_conditioning": "no", "dog": "yes", "email": "info@hostalcanjosep.com", "heating": "yes", "internet_access": "wlan", "internet_access:fee": "customers", "name": "Can Josep", "name:ca": "Can Josep", "phone": "+34 973 620 176", "start_date": "1978", "tourism": "hostel", "website": "https://www.hostalcanjosep.com"}}, {"type": "Feature", "id": 1297840220, "geometry": {"type": "Point", "coordinates": [0.426858, 42.792518]}, "properties": {"name": "Auberge de Germ", "tourism": "hostel"}}, {"type": "Feature", "id": 1297840228, "geometry": {"type": "Point", "coordinates": [0.424977, 42.793628]}, "properties": {"name": "Gite de Sejour", "tourism": "hostel"}}, {"type": "Feature", "id": 1471079048, "geometry": {"type": "Point", "coordinates": [1.123174, 42.62895]}, "properties": {"addr:city": "Esterri d'\u00c0neu", "addr:housenumber": "3", "addr:street": "Carrer Major", "name": "Pensi\u00f3 La Creu", "name:ca": "Pensi\u00f3 La Creu", "phone": "+34973626437", "tourism": "hostel", "website": "https://www.pensiolacreu.com/", "wheelchair": "yes"}}, {"type": "Feature", "id": 1568058440, "geometry": {"type": "Point", "coordinates": [0.73437, 42.873879]}, "properties": {"name": "Gite d\u00c9tape", "tourism": "hostel"}}, {"type": "Feature", "id": 1868959705, "geometry": {"type": "Point", "coordinates": [1.133939, 42.401397]}, "properties": {"name": "la Borda de Ritort", "tourism": "hostel"}}, {"type": "Feature", "id": 4310533057, "geometry": {"type": "Point", "coordinates": [0.981106, 42.419425]}, "properties": {"addr:city": "La Torre de Cabdella", "addr:postcode": "25515", "addr:street": "L-503 Carretera de la Vall Fosca", "email": "alberg@latorrevallfosca.com", "internet_access": "wlan", "internet_access:fee": "no", "name": "Alberg La Torre Vall Fosca", "payment:cash": "yes", "payment:debit_cards": "yes", "payment:mastercard": "yes", "payment:visa": "yes", "phone": "+34 684133970", "smoking": "outside", "tourism": "hostel", "website": "https://www.latorrevallfosca.com/"}}, {"type": "Feature", "id": 4316727433, "geometry": {"type": "Point", "coordinates": [0.903069, 42.710867]}, "properties": {"name": "Hostal Esculis", "stars": "2", "tourism": "hostel"}}, {"type": "Feature", "id": 4657639907, "geometry": {"type": "Point", "coordinates": [0.709768, 42.812739]}, "properties": {"name": "Aub\u00e8rja Matacab\u00f2s", "tourism": "hostel"}}, {"type": "Feature", "id": 5281767913, "geometry": {"type": "Point", "coordinates": [0.78525, 42.705543]}, "properties": {"addr:city": "Casau", "addr:street": "Plaza Mola", "name": "Hostal Malida", "tourism": "hostel"}}, {"type": "Feature", "id": 5310113029, "geometry": {"type": "Point", "coordinates": [1.115308, 42.38419]}, "properties": {"addr:city": "Montardit de Baix", "guest_house": "hostel", "internet_access": "wlan", "internet_access:fee": "no", "name": "Albergue l'Orri del Pallars", "tourism": "hostel"}}, {"type": "Feature", "id": 8969108042, "geometry": {"type": "Point", "coordinates": [0.832446, 42.531466]}, "properties": {"addr:city": "Erill la Vall", "addr:postcode": "25528", "addr:street": "Pont de Bo\u00ed", "name": "Hostal Carmen Pascual", "phone": "+34 973 69 60 14", "stars": "2", "tourism": "hostel"}}, {"type": "Feature", "id": 8979336463, "geometry": {"type": "Point", "coordinates": [0.821605, 42.497975]}, "properties": {"name": "Hostal Rural Aude", "stars": "2", "tourism": "hostel"}}, {"type": "Feature", "id": 8980600410, "geometry": {"type": "Point", "coordinates": [0.848979, 42.518153]}, "properties": {"addr:street": "Avinguda les Feixes", "check_date": "2025-06-21", "name": "Hostal Sant Climent", "phone": "+34 973 69 60 52", "tourism": "hostel"}}, {"type": "Feature", "id": 9232432870, "geometry": {"type": "Point", "coordinates": [1.339603, 42.79073]}, "properties": {"name": "Residence aux Volets Bleues", "tourism": "hostel"}}, {"type": "Feature", "id": 9825079475, "geometry": {"type": "Point", "coordinates": [0.49314, 42.512603]}, "properties": {"name": "Hostal Sositana", "tourism": "hostel"}}, {"type": "Feature", "id": 10029022168, "geometry": {"type": "Point", "coordinates": [0.50684, 42.534735]}, "properties": {"addr:housenumber": "13", "addr:postcode": "22466", "addr:street": "baja", "name": "Liri", "phone": "+34 677 37 78 80", "tourism": "hostel"}}, {"type": "Feature", "id": 11892940070, "geometry": {"type": "Point", "coordinates": [0.692437, 42.441461]}, "properties": {"guest_house": "agritourism", "name": "Casa Rural Casa Farrero", "tourism": "hostel"}}, {"type": "Feature", "id": 12492094101, "geometry": {"type": "Point", "coordinates": [0.794253, 42.702096]}, "properties": {"name": "Hostal Nau Pradets", "phone": "+34 674 70 08 85", "tourism": "hostel"}}, {"type": "Feature", "id": 125865276, "geometry": {"type": "LineString", "coordinates": [[1.079654, 42.618215], [1.079524, 42.618045], [1.079983, 42.617947], [1.080577, 42.617945], [1.08081, 42.61801], [1.080785, 42.618133], [1.080749, 42.618302], [1.080133, 42.618205], [1.079654, 42.618215]]}, "properties": {"addr:city": "Son", "addr:postcode": "25589", "building": "yes", "email": "info@monnaturapirineus.com", "guest_house": "hostel", "internet_access": "yes", "internet_access:fee": "no", "mobile": "+34649419092", "name": "M\u00f3nNatura Pirineus", "operator": "Fundaci\u00f3 Catalunya La Pedrera", "phone": "+34973626722", "tourism": "hostel", "website": "https://monnaturapirineus.com/", "wheelchair": "yes"}}, {"type": "Feature", "id": 177453573, "geometry": {"type": "LineString", "coordinates": [[0.905529, 42.707712], [0.905739, 42.707486], [0.905696, 42.707463], [0.905729, 42.707429], [0.905817, 42.707475], [0.905886, 42.7074], [0.905869, 42.707393], [0.905961, 42.707296], [0.905868, 42.707252], [0.905777, 42.707348], [0.905723, 42.70732], [0.905874, 42.70716], [0.905807, 42.707128], [0.905753, 42.707102], [0.905445, 42.707427], [0.90548, 42.707446], [0.905535, 42.707477], [0.905384, 42.707639], [0.905529, 42.707712]]}, "properties": {"building": "yes", "name": "Aub\u00e8rja Era Garona", "name:ca": "Alberg Era Garona", "operator": "Generalitat de Catalunya", "tourism": "hostel"}}, {"type": "Feature", "id": 205809204, "geometry": {"type": "LineString", "coordinates": [[1.130219, 42.430454], [1.13058, 42.430563], [1.13067, 42.430393], [1.130305, 42.430284], [1.130219, 42.430454]]}, "properties": {"building": "yes", "name": "Alberg Les Estades", "name:ca": "Alberg Les Estades", "tourism": "hostel"}}, {"type": "Feature", "id": 223961614, "geometry": {"type": "LineString", "coordinates": [[0.619325, 42.832587], [0.619362, 42.832648], [0.619248, 42.832684], [0.619188, 42.832583], [0.619219, 42.832574], [0.619232, 42.832595], [0.619314, 42.832568], [0.619325, 42.832587]]}, "properties": {"alt_name": "Eth Artigaou", "building": "yes", "name": "Gite d'Etape Artigue", "source": "cadastre-dgi-fr source : Direction G\u00e9n\u00e9rale des Finances Publiques - Cadastre. Mise \u00e0 jour : 2013", "tourism": "hostel"}}, {"type": "Feature", "id": 231156903, "geometry": {"type": "LineString", "coordinates": [[1.094572, 42.564108], [1.09488, 42.564175], [1.094941, 42.56402], [1.094634, 42.563953], [1.094572, 42.564108]]}, "properties": {"building": "yes", "designation": "Alberg", "name": "Les Daines", "tourism": "hostel"}}, {"type": "Feature", "id": 331217906, "geometry": {"type": "LineString", "coordinates": [[0.904155, 42.707624], [0.904391, 42.70765], [0.904419, 42.707444], [0.904273, 42.707434], [0.904256, 42.707563], [0.904163, 42.707556], [0.904155, 42.707624]]}, "properties": {"alt_name": "Refugi Salard\u00fa", "building": "yes", "internet_access": "yes", "name": "Aran hostel", "old_name": "Refugi Juli Soler Santal\u00f3", "operator": "CEC", "phone": "+34 973 64 50 16", "tourism": "hostel", "wikidata": "Q107406348", "wikipedia": "ca:Refugi Juli Soler Santal\u00f3"}}, {"type": "Feature", "id": 342290902, "geometry": {"type": "LineString", "coordinates": [[1.129471, 42.405772], [1.129545, 42.405842], [1.12931, 42.405976], [1.129166, 42.405838], [1.1292, 42.405819], [1.129171, 42.405792], [1.12921, 42.40577], [1.129149, 42.405712], [1.129243, 42.405659], [1.129319, 42.405731], [1.12928, 42.405753], [1.129327, 42.405798], [1.129263, 42.405834], [1.129299, 42.405869], [1.129471, 42.405772]]}, "properties": {"building": "yes", "name": "Alberg Sort", "name:ca": "Alberg Sort", "tourism": "hostel"}}, {"type": "Feature", "id": 420051379, "geometry": {"type": "LineString", "coordinates": [[1.131677, 42.594429], [1.131701, 42.594338], [1.13165, 42.594331], [1.131655, 42.594313], [1.131613, 42.594308], [1.131611, 42.594316], [1.131501, 42.594301], [1.131331, 42.594354], [1.131475, 42.594401], [1.131677, 42.594429]]}, "properties": {"building": "yes", "name": "Hostal Orteu", "tourism": "hostel"}}, {"type": "Feature", "id": 592693100, "geometry": {"type": "LineString", "coordinates": [[0.475637, 42.50388], [0.475626, 42.503778], [0.475805, 42.503769], [0.47581, 42.50387], [0.475637, 42.50388]]}, "properties": {"addr:postcode": "22466", "addr:street": "Calle La Fuente", "building": "yes", "email": "info@alberguepirineos.es", "guest_house": "bed_and_breakfast", "internet_access": "wlan", "internet_access:fee": "customers", "name": "Albergue de El Run", "phone": "+34 974 55 38 72", "phone:mobile": "+34 659 23 40 83", "rooms": "7", "tourism": "hostel", "website": "http://www.alberguepirineos.es/"}}, {"type": "Feature", "id": 626214308, "geometry": {"type": "LineString", "coordinates": [[1.193014, 42.290431], [1.193083, 42.290308], [1.192999, 42.290288], [1.192975, 42.290331], [1.192916, 42.290312], [1.192927, 42.290281], [1.192794, 42.290256], [1.192774, 42.290352], [1.193014, 42.290431]]}, "properties": {"building": "yes", "internet_access": "wlan", "name": "Cal Rossa", "name:ca": "Cal Rossa", "tourism": "hostel", "website": "https://calrossa.com/"}}, {"type": "Feature", "id": 842449999, "geometry": {"type": "LineString", "coordinates": [[0.871722, 42.698856], [0.871697, 42.698687], [0.871824, 42.698681], [0.871829, 42.698717], [0.871841, 42.698717], [0.871857, 42.698792], [0.871846, 42.698793], [0.871851, 42.698829], [0.871782, 42.698837], [0.871784, 42.698852], [0.871722, 42.698856]]}, "properties": {"building": "yes", "name": "Pensi\u00f3n Portola", "tourism": "hostel"}}, {"type": "Feature", "id": 876597703, "geometry": {"type": "LineString", "coordinates": [[0.464706, 42.521255], [0.464809, 42.521197], [0.46489, 42.521167], [0.464864, 42.521125], [0.464842, 42.521133], [0.46483, 42.521112], [0.464768, 42.521132], [0.464786, 42.521155], [0.46477, 42.52116], [0.464709, 42.521196], [0.464669, 42.521145], [0.464726, 42.521131], [0.464723, 42.521092], [0.464714, 42.521052], [0.46466, 42.521058], [0.46466, 42.521102], [0.464618, 42.521105], [0.464603, 42.521108], [0.464596, 42.521118], [0.464609, 42.521154], [0.464649, 42.521206], [0.464673, 42.521227], [0.464706, 42.521255]]}, "properties": {"name": "Borda Guallart", "phone": "+34659464404", "tourism": "hostel", "website": "http://casaguallart.simplesite.com/"}}]}