{"type": "FeatureCollection", "features": [{"type": "Feature", "id": 1392334313, "geometry": {"type": "Point", "coordinates": [1.362351, 42.761455]}, "properties": {"alt_name": "Cascade d'Arse", "name": "Cascade d'Ars", "tourism": "attraction", "waterway": "waterfall", "wikidata": "Q16627473", "wikipedia": "fr:Cascade d'Ars"}}, {"type": "Feature", "id": 1902175543, "geometry": {"type": "Point", "coordinates": [0.471991, 42.868231]}, "properties": {"archaeological_site": "megalith", "historic": "archaeological_site", "megalith_type": "stone_circle", "name": "Cromlech du Port de Pierrefite", "tourism": "attraction"}}, {"type": "Feature", "id": 1991114013, "geometry": {"type": "Point", "coordinates": [0.707534, 42.68141]}, "properties": {"name": "Uelhs deth Joeu", "name:an": "Uells de Joeu", "name:ca": "G\u00fcells del Joeu", "name:fr": "Goueil de Jou\u00e8ou", "name:oc": "Guelh de Jo\u00e8u", "name:ru": "\u0440\u043e\u0434\u043d\u0438\u043a \u0413\u0443\u0451\u0439 \u0434\u0435 \u0416\u0443\u044d\u0443 (\u0433\u043b\u0430\u0437 \u042e\u043f\u0438\u0442\u0435\u0440\u0430)", "natural": "spring", "source:name:oc": "ieo-bdtopoc", "tourism": "attraction", "wheelchair": "no", "wikidata": "Q643590", "wikipedia": "fr:Guelh de Jo\u00e8u"}}, {"type": "Feature", "id": 1999701648, "geometry": {"type": "Point", "coordinates": [0.834722, 42.778057]}, "properties": {"name": "Eth Saut deth Pish", "name:ca": "Eth Saut deth Pish", "name:oc": "Eth Saut deth Pish", "source:name:oc": "ieo-bdtopoc", "tourism": "attraction", "waterway": "waterfall"}}, {"type": "Feature", "id": 2008666598, "geometry": {"type": "Point", "coordinates": [1.28747, 42.417529]}, "properties": {"name": "Estaci\u00f3 de Sant Joan de l'Erm", "name:ca": "Estaci\u00f3 de Sant Joan de l'Erm", "piste:grooming": "classic;skating", "piste:type": "nordic", "sport": "skiing", "tourism": "attraction"}}, {"type": "Feature", "id": 2047574462, "geometry": {"type": "Point", "coordinates": [0.665757, 42.668312]}, "properties": {"description": "Fen\u00f3meno natural: lugar por el que un r\u00edo superficial se hace subterr\u00e1neo", "name": "Forau d'Aigualluts", "name:fr": "Trou du Toro", "name:ru": "\u043f\u0440\u043e\u043f\u0430\u0441\u0442\u044c \u0422\u0440\u0443-\u0434\u044e-\u0422\u043e\u0440\u043e", "natural": "sinkhole;cave_entrance", "tourism": "attraction", "wikidata": "Q1397638", "wikipedia": "ca:Forat d'Aigualluts"}}, {"type": "Feature", "id": 2427006302, "geometry": {"type": "Point", "coordinates": [0.723096, 42.834103]}, "properties": {"addr:city": "Bausen", "amenity": "grave_yard", "cemetery": "grave", "name": "Cement\u00e8ri de Teresa", "name:es": "Cementerio de Teresa", "religion": "none", "tourism": "attraction", "wikidata": "Q101438668"}}, {"type": "Feature", "id": 2606374421, "geometry": {"type": "Point", "coordinates": [1.104377, 42.448659]}, "properties": {"addr:city": "Altron", "addr:postcode": "25560", "addr:street": "Cam\u00ed de les bordes", "name": "Formatgeria la pe\u00e7a d'Altron", "name:ca": "Formatgeria la pe\u00e7a d'Altron", "ref": "http://www.valldassua.cat/index.php?option=com_content&view=article&id=104%3Ala-peca-daltron-formatge-pages-altron&catid=37%3Aaltres-serveis&Itemid=76&lang=ca", "tourism": "attraction"}}, {"type": "Feature", "id": 2606917676, "geometry": {"type": "Point", "coordinates": [0.52226, 42.605824]}, "properties": {"name": "Palacio de los Condes de Ribagorza", "tourism": "attraction"}}, {"type": "Feature", "id": 2912020845, "geometry": {"type": "Point", "coordinates": [0.611404, 42.808815]}, "properties": {"name": "Cascade de Juzet", "opening_hours": "24/7", "tourism": "attraction", "waterway": "waterfall"}}, {"type": "Feature", "id": 2969970363, "geometry": {"type": "Point", "coordinates": [1.328567, 42.764738]}, "properties": {"name": "Cascade du Fouillet", "tourism": "attraction", "waterway": "waterfall"}}, {"type": "Feature", "id": 3286700639, "geometry": {"type": "Point", "coordinates": [0.842019, 42.562546]}, "properties": {"amenity": "spa", "name": "Caldes de Bo\u00ed", "name:ca": "Caldes de Bo\u00ed", "natural": "hot_spring", "tourism": "attraction", "website": "https://www.caldesdeboi.com/", "wikidata": "Q2875988", "wikipedia": "ca:Caldes de Bo\u00ed"}}, {"type": "Feature", "id": 3310324769, "geometry": {"type": "Point", "coordinates": [1.203598, 42.374186]}, "properties": {"historic": "archaeological_site", "name": "Santa Creu de Llagunes", "tourism": "attraction", "wikidata": "Q67587305"}}, {"type": "Feature", "id": 3323730863, "geometry": {"type": "Point", "coordinates": [1.313274, 42.327409]}, "properties": {"amenity": "place_of_worship", "building": "church", "denomination": "catholic", "name": "Santa Coloma", "name:ca": "Santa Coloma", "religion": "christian", "tourism": "attraction", "wikidata": "Q18007470", "wikipedia": "ca:Santa Coloma d'Argestues"}}, {"type": "Feature", "id": 4319536166, "geometry": {"type": "Point", "coordinates": [0.665709, 42.764596]}, "properties": {"attraction": "animal", "name": "Isard", "species:wikidata": "Q902896", "species:wikipedia": "fr:Isard", "tourism": "attraction"}}, {"type": "Feature", "id": 4319655581, "geometry": {"type": "Point", "coordinates": [0.664773, 42.764832]}, "properties": {"attraction": "animal", "name": "Mouflon", "species:wikidata": "Q993274", "species:wikipedia": "fr:Mouflon corse", "tourism": "attraction"}}, {"type": "Feature", "id": 4347532241, "geometry": {"type": "Point", "coordinates": [1.257516, 42.646083]}, "properties": {"historic": "castle", "name": "Castell de Tavascan", "name:ca": "Castell de Tavascan", "ruins": "yes", "tourism": "attraction"}}, {"type": "Feature", "id": 4359972144, "geometry": {"type": "Point", "coordinates": [0.997976, 42.514055]}, "properties": {"abandoned": "yes", "aerialway": "pylon", "historic": "ruins", "name": "Antic remuntador", "name:ca": "Antic remuntador", "tourism": "attraction"}}, {"type": "Feature", "id": 4414553990, "geometry": {"type": "Point", "coordinates": [0.627365, 42.729622]}, "properties": {"name": "camino de la emperatriz", "name:fr": "camino de la emperatriz", "tourism": "attraction"}}, {"type": "Feature", "id": 4451999890, "geometry": {"type": "Point", "coordinates": [1.324515, 42.228471]}, "properties": {"name": "Enlairament parapent \"Muntanya M\u00e0gica\"", "name:ca": "Enlairament parapent \"Muntanya M\u00e0gica\"", "name:es": "Despegue parapente \"Monta\u00f1a m\u00e1gica\"", "tourism": "attraction"}}, {"type": "Feature", "id": 4736727321, "geometry": {"type": "Point", "coordinates": [1.137687, 42.445326]}, "properties": {"name": "Pont penjant", "name:ca": "Pont penjant", "name:es": "Puente colgante", "tourism": "attraction"}}, {"type": "Feature", "id": 4801273991, "geometry": {"type": "Point", "coordinates": [0.53714, 42.282785]}, "properties": {"historic": "monument", "historic:civilization": "roman_and_byzantine_egyptian", "name": "Puente Rom\u00e1nico", "tourism": "attraction"}}, {"type": "Feature", "id": 4961979618, "geometry": {"type": "Point", "coordinates": [0.620439, 42.770406]}, "properties": {"name": "Cascade Sidonie", "tourism": "attraction", "waterway": "waterfall", "wikidata": "Q134548627"}}, {"type": "Feature", "id": 5467176461, "geometry": {"type": "Point", "coordinates": [1.035753, 42.292083]}, "properties": {"name": "l'Argenteria", "name:ca": "l'Argenteria", "tourism": "attraction"}}, {"type": "Feature", "id": 5808431665, "geometry": {"type": "Point", "coordinates": [1.299788, 42.778495]}, "properties": {"attraction": "alpine_coaster", "name": "Luge Guzet Express", "tourism": "attraction"}}, {"type": "Feature", "id": 5814609931, "geometry": {"type": "Point", "coordinates": [0.858152, 42.577928]}, "properties": {"tourism": "attraction", "waterway": "waterfall"}}, {"type": "Feature", "id": 5849007689, "geometry": {"type": "Point", "coordinates": [1.211784, 42.62092]}, "properties": {"name": "Bordes de", "name:es": "Bordes de Clavillats", "tourism": "attraction"}}, {"type": "Feature", "id": 5849011286, "geometry": {"type": "Point", "coordinates": [1.210308, 42.615308]}, "properties": {"name": "Bordes de Nibr\u00f3s", "name:ca": "Bordes de Nibr\u00f3s", "tourism": "attraction"}}, {"type": "Feature", "id": 5849011287, "geometry": {"type": "Point", "coordinates": [1.211322, 42.625773]}, "properties": {"name": "Bordes de", "name:es": "Bordes de Perafita", "tourism": "attraction"}}, {"type": "Feature", "id": 5849021886, "geometry": {"type": "Point", "coordinates": [1.211367, 42.618247]}, "properties": {"name": "Borda de Masover", "name:es": "Borda de Masover", "tourism": "attraction"}}, {"type": "Feature", "id": 5889524737, "geometry": {"type": "Point", "coordinates": [0.922674, 42.357066]}, "properties": {"name": "Pont del Diable", "name:ca": "Pont del Diable", "tourism": "attraction"}}, {"type": "Feature", "id": 6789065585, "geometry": {"type": "Point", "coordinates": [1.318537, 42.548656]}, "properties": {"name": "Ferrer d'Alins", "reservation": "yes", "tourism": "attraction"}}, {"type": "Feature", "id": 6943114605, "geometry": {"type": "Point", "coordinates": [0.709413, 42.684303]}, "properties": {"name": "Guardader dera Aigua", "tourism": "attraction", "wheelchair": "no"}}, {"type": "Feature", "id": 7102091772, "geometry": {"type": "Point", "coordinates": [1.219694, 42.374935]}, "properties": {"name": "Jard\u00ed de les Roques", "name:ca": "Jard\u00ed de les Roques", "opening_hours": "24/7", "reservation": "no", "tourism": "attraction"}}, {"type": "Feature", "id": 7929366285, "geometry": {"type": "Point", "coordinates": [1.248224, 42.626372]}, "properties": {"name": "Pont de Borito", "name:ca": "Pont de Borito", "tourism": "attraction"}}, {"type": "Feature", "id": 8888791775, "geometry": {"type": "Point", "coordinates": [0.999032, 42.585819]}, "properties": {"name": "Cascada de Ratera", "name:ca": "Cascada de Ratera", "tourism": "attraction"}}, {"type": "Feature", "id": 8957574485, "geometry": {"type": "Point", "coordinates": [0.793941, 42.721144]}, "properties": {"historic": "wayside_shrine", "name": "Sant Ant\u00f2ni", "name:ca": "Sant Ant\u00f2ni", "name:oc": "Sant Ant\u00f2ni", "religion": "christian", "tourism": "attraction"}}, {"type": "Feature", "id": 11271124552, "geometry": {"type": "Point", "coordinates": [1.005041, 42.865357]}, "properties": {"description": "Grande Roue de l'ancien Funiculaire", "tourism": "attraction"}}, {"type": "Feature", "id": 12183975105, "geometry": {"type": "Point", "coordinates": [1.31576, 42.549453]}, "properties": {"name": "Via ferrada del Salt del Botanal", "sport": "climbing", "tourism": "attraction"}}, {"type": "Feature", "id": 12804311619, "geometry": {"type": "Point", "coordinates": [0.648103, 42.930626]}, "properties": {"amenity": "barefootpath", "name": "Sentier pieds nus", "tourism": "attraction"}}, {"type": "Feature", "id": 12804337071, "geometry": {"type": "Point", "coordinates": [0.64887, 42.92977]}, "properties": {"name": "Circuit v\u00e9los", "tourism": "attraction"}}, {"type": "Feature", "id": 12804343004, "geometry": {"type": "Point", "coordinates": [0.64953, 42.929655]}, "properties": {"name": "Karts \u00e0 p\u00e9dales", "tourism": "attraction"}}, {"type": "Feature", "id": 12804355491, "geometry": {"type": "Point", "coordinates": [0.646929, 42.930319]}, "properties": {"name": "Toboggans g\u00e9ants", "tourism": "attraction"}}, {"type": "Feature", "id": 12804390375, "geometry": {"type": "Point", "coordinates": [0.6483, 42.930415]}, "properties": {"name": "D'\u00eeles en \u00eeles", "tourism": "attraction"}}, {"type": "Feature", "id": 63663212, "geometry": {"type": "LineString", "coordinates": [[0.509834, 42.65397], [0.509888, 42.654044], [0.509926, 42.654055], [0.509949, 42.654074], [0.510026, 42.654076], [0.510064, 42.654049], [0.510107, 42.653978], [0.510116, 42.653911], [0.510046, 42.653808], [0.51, 42.653773], [0.509907, 42.653756], [0.509853, 42.653795], [0.509826, 42.653824], [0.50985, 42.653873], [0.509834, 42.65397]]}, "properties": {"ele": "1875", "name": "Ibonet de Batisielles", "name:fr": "Laquet de Batisielles", "natural": "water", "tourism": "attraction", "water": "lake"}}, {"type": "Feature", "id": 128451052, "geometry": {"type": "LineString", "coordinates": [[1.065841, 42.323671], [1.066006, 42.323642], [1.06616, 42.323614], [1.066357, 42.323583]]}, "properties": {"alt_name": "Pont del Monestir", "alt_name:ca": "Pont del Monestir", "bridge": "yes", "foot": "yes", "highway": "residential", "motor_vehicle": "no", "name": "Pont de Gerri", "name:ca": "Pont de Gerri", "tourism": "attraction", "wikidata": "Q11942342", "wikipedia": "ca:Pont de Gerri"}}, {"type": "Feature", "id": 129249075, "geometry": {"type": "LineString", "coordinates": [[1.084544, 42.675896], [1.084611, 42.676022], [1.084834, 42.675956], [1.084756, 42.675824], [1.084719, 42.67584], [1.084544, 42.675896]]}, "properties": {"amenity": "place_of_worship", "building": "yes", "denomination": "roman_catholic", "name": "Sant Joan d'Isil", "name:ca": "Sant Joan d'Isil", "religion": "christian", "tourism": "attraction", "wikidata": "Q9007117", "wikipedia": "ca:Sant Joan d'Isil"}}, {"type": "Feature", "id": 129256677, "geometry": {"type": "LineString", "coordinates": [[1.066353, 42.322252], [1.066371, 42.322035], [1.066933, 42.322044], [1.066962, 42.322044], [1.066948, 42.32225], [1.066845, 42.322247], [1.066841, 42.322217], [1.066744, 42.322213], [1.066738, 42.322261], [1.066353, 42.322252]]}, "properties": {"amenity": "place_of_worship", "building": "church", "denomination": "catholic", "name": "Santa Maria de Gerri", "name:ca": "Santa Maria de Gerri", "religion": "christian", "tourism": "attraction", "wikidata": "Q3489240", "wikipedia": "ca:Santa Maria de Gerri"}}, {"type": "Feature", "id": 195545321, "geometry": {"type": "LineString", "coordinates": [[1.301459, 42.246951], [1.301523, 42.246894], [1.301447, 42.246848], [1.301432, 42.246861], [1.301393, 42.246838], [1.30134, 42.246886], [1.301384, 42.246913], [1.301363, 42.246931], [1.301408, 42.246958], [1.301433, 42.246935], [1.301459, 42.246951]]}, "properties": {"amenity": "place_of_worship", "building": "church", "denomination": "catholic", "name": "Sant Bernab\u00e9", "name:ca": "Sant Bernab\u00e9", "religion": "christian", "tourism": "attraction", "wikidata": "Q60167132", "wikipedia": "ca:Sant Bernab\u00e9 d'Ares"}}, {"type": "Feature", "id": 226768521, "geometry": {"type": "LineString", "coordinates": [[1.213267, 42.489878], [1.213259, 42.489844], [1.21335, 42.489847], [1.213424, 42.4898], [1.213506, 42.489777], [1.213557, 42.489763], [1.213575, 42.489779], [1.213575, 42.489835], [1.213614, 42.489883], [1.213352, 42.489999], [1.21331, 42.489977], [1.213291, 42.489938], [1.213267, 42.489878]]}, "properties": {"historic": "castle", "name": "Castell de Gilareny", "name:ca": "Castell de Gilareny", "tourism": "attraction", "wikidata": "Q107339764"}}, {"type": "Feature", "id": 226771777, "geometry": {"type": "LineString", "coordinates": [[1.134021, 42.444797], [1.134064, 42.444756], [1.133975, 42.444712], [1.133928, 42.444761], [1.133945, 42.44477], [1.133932, 42.444784], [1.133965, 42.444798], [1.133967, 42.444815], [1.133993, 42.444814], [1.133991, 42.4448], [1.133998, 42.444797], [1.134021, 42.444797]]}, "properties": {"building": "yes", "historic": "castle", "name": "Castell de Rialb", "name:ca": "Castell de Rialb", "tourism": "attraction", "wikidata": "Q19367861", "wikipedia": "ca:Castell de Rialb"}}, {"type": "Feature", "id": 227650066, "geometry": {"type": "LineString", "coordinates": [[1.257134, 42.644475], [1.257298, 42.644399], [1.257258, 42.644349], [1.257243, 42.644354], [1.25715, 42.644236], [1.257099, 42.644256], [1.256999, 42.644299], [1.257026, 42.644337], [1.257134, 42.644475]]}, "properties": {"amenity": "place_of_worship", "building": "church", "denomination": "catholic", "religion": "christian", "tourism": "attraction", "wikidata": "Q11946942", "wikipedia": "ca:Sant Bartomeu de Tavascan"}}, {"type": "Feature", "id": 232203123, "geometry": {"type": "LineString", "coordinates": [[1.263384, 42.797909], [1.263477, 42.797926], [1.263486, 42.798028], [1.263562, 42.798061], [1.263664, 42.797964], [1.263672, 42.797707], [1.263634, 42.797679], [1.263632, 42.797615], [1.263377, 42.7976], [1.263293, 42.797645], [1.263288, 42.797699], [1.263125, 42.79778], [1.263113, 42.797902], [1.263148, 42.797969], [1.263215, 42.79799], [1.263333, 42.797971], [1.263384, 42.797909]]}, "properties": {"leisure": "sports_centre", "name": "Piscine Municipale", "tourism": "attraction"}}, {"type": "Feature", "id": 323999716, "geometry": {"type": "LineString", "coordinates": [[1.085703, 42.574793], [1.085683, 42.574792], [1.085666, 42.574782], [1.085657, 42.574768], [1.08566, 42.574753], [1.085672, 42.57474], [1.085691, 42.574734], [1.085712, 42.574736], [1.085729, 42.574745], [1.085738, 42.574759], [1.085735, 42.574775], [1.085723, 42.574787], [1.085703, 42.574793]]}, "properties": {"historic": "castle", "name": "Torre dels Moros", "tourism": "attraction", "wikidata": "Q11952338", "wikipedia": "ca:Torre dels Moros (Espot)"}}, {"type": "Feature", "id": 333538962, "geometry": {"type": "LineString", "coordinates": [[0.716785, 42.738718], [0.71712, 42.738855], [0.717169, 42.738901], [0.717155, 42.738966], [0.717073, 42.738992], [0.717078, 42.739019], [0.716989, 42.739064], [0.716865, 42.738996], [0.716787, 42.73892], [0.716668, 42.738777], [0.716785, 42.738718]]}, "properties": {"historic": "castle", "name": "Cast\u00e8th Leon", "tourism": "attraction", "wikidata": "Q2941539"}}, {"type": "Feature", "id": 339700871, "geometry": {"type": "LineString", "coordinates": [[1.122165, 42.436995], [1.122063, 42.436999], [1.122066, 42.437042], [1.122168, 42.437039], [1.122165, 42.436995]]}, "properties": {"amenity": "place_of_worship", "building": "chapel", "denomination": "catholic", "name": "Sant Josep d'Olp", "name:ca": "Sant Josep d'Olp", "religion": "christian", "tourism": "attraction", "wikidata": "Q18006948", "wikipedia": "ca:Sant Josep d'Olp"}}, {"type": "Feature", "id": 339878520, "geometry": {"type": "LineString", "coordinates": [[1.242534, 42.514929], [1.242529, 42.51491], [1.242547, 42.514908], [1.242549, 42.514918], [1.242593, 42.514911], [1.242591, 42.514903], [1.242602, 42.514901], [1.242604, 42.51491], [1.242651, 42.514903], [1.242649, 42.514895], [1.242661, 42.514893], [1.242663, 42.514901], [1.242703, 42.514896], [1.2427, 42.514883], [1.242761, 42.514874], [1.242764, 42.514887], [1.242773, 42.514885], [1.242775, 42.514891], [1.242767, 42.514893], [1.242794, 42.515001], [1.242561, 42.515033], [1.242551, 42.514996], [1.242533, 42.514998], [1.242522, 42.514996], [1.24251, 42.514994], [1.2425, 42.514989], [1.242489, 42.514979], [1.242485, 42.51497], [1.242484, 42.514962], [1.242487, 42.514951], [1.242494, 42.514941], [1.2425, 42.514936], [1.242509, 42.514933], [1.242519, 42.514931], [1.242534, 42.514929]]}, "properties": {"amenity": "place_of_worship", "building": "yes", "denomination": "catholic", "name": "Sant Feliu de T\u00edrvia", "name:ca": "Sant Feliu de T\u00edrvia", "religion": "christian", "tourism": "attraction", "wikidata": "Q18006788", "wikipedia": "ca:Sant Feliu de T\u00edrvia"}}, {"type": "Feature", "id": 339878527, "geometry": {"type": "LineString", "coordinates": [[1.245087, 42.514578], [1.245133, 42.514626], [1.245221, 42.514581], [1.245174, 42.514532], [1.245087, 42.514578]]}, "properties": {"amenity": "place_of_worship", "building": "chapel", "denomination": "roman_catholic", "name": "Mare de D\u00e9u de la Pietat", "name:ca": "Mare de D\u00e9u de la Pietat", "religion": "christian", "tourism": "attraction", "wikidata": "Q11935334", "wikipedia": "ca:Mare de D\u00e9u de la Pietat de T\u00edrvia"}}, {"type": "Feature", "id": 340014024, "geometry": {"type": "LineString", "coordinates": [[0.768379, 42.306069], [0.768377, 42.305994], [0.768168, 42.305998], [0.768169, 42.306045], [0.768244, 42.306044], [0.768244, 42.306071], [0.768379, 42.306069]]}, "properties": {"building": "church", "denomination": "catholic", "historic": "wayside_shrine", "name": "Santa Maria de Miralles", "name:ca": "Santa Maria de Miralles", "religion": "christian", "tourism": "attraction", "wikidata": "Q5947046", "wikipedia": "ca:Santa Maria de Miralles (Espluga de Serra)"}}, {"type": "Feature", "id": 370304607, "geometry": {"type": "LineString", "coordinates": [[0.686709, 42.930668], [0.686756, 42.930673], [0.686766, 42.930696], [0.686754, 42.930717], [0.686737, 42.930726], [0.686702, 42.930734], [0.686668, 42.930739], [0.686633, 42.930742], [0.686598, 42.930743], [0.686583, 42.930681], [0.686645, 42.930674], [0.686709, 42.930668]]}, "properties": {"building": "church", "heritage": "2", "heritage:operator": "mhs", "mhs:inscription_date": "1955-12-30", "name": "Ancienne \u00e9glise Saint-Jean-Baptiste de Garraux", "ref:mhs": "PA00094290", "source": "cadastre-dgi-fr source : Direction G\u00e9n\u00e9rale des Imp\u00f4ts - Cadastre. Mise \u00e0 jour : 2015", "source:heritage": "data.gouv.fr:Minist\u00e8re de la Culture - 04/2015", "tourism": "attraction", "wikidata": "Q22938071"}}, {"type": "Feature", "id": 372566178, "geometry": {"type": "LineString", "coordinates": [[1.230707, 42.570473], [1.230895, 42.570518]]}, "properties": {"bridge": "yes", "highway": "track", "layer": "1", "name": "Pont de Cassibr\u00f3s", "name:ca": "Pont de Cassibr\u00f3s", "tourism": "attraction", "wikidata": "Q47166237", "wikipedia": "ca:Pont de Cassibr\u00f3s"}}, {"type": "Feature", "id": 384543797, "geometry": {"type": "LineString", "coordinates": [[0.895417, 42.249446], [0.89548, 42.249344], [0.895548, 42.249368], [0.895486, 42.249469], [0.895417, 42.249446]]}, "properties": {"amenity": "place_of_worship", "building": "church", "denomination": "roman_catholic", "name": "Sant Mart\u00ed", "name:ca": "Sant Mart\u00ed", "religion": "christian", "tourism": "attraction", "wikidata": "Q9007178", "wikipedia": "ca:Sant Mart\u00ed de Rivert"}}, {"type": "Feature", "id": 385023381, "geometry": {"type": "LineString", "coordinates": [[0.926285, 42.234413], [0.926248, 42.234423], [0.92627, 42.234465], [0.926304, 42.234454], [0.92631, 42.234466], [0.926354, 42.234454], [0.926347, 42.234442], [0.926356, 42.234437], [0.926362, 42.23443], [0.926364, 42.234422], [0.926362, 42.234414], [0.926356, 42.234407], [0.926347, 42.234402], [0.926337, 42.2344], [0.926325, 42.234401], [0.926319, 42.234392], [0.92628, 42.234403], [0.926285, 42.234413]]}, "properties": {"amenity": "place_of_worship", "building": "church", "denomination": "roman_catholic", "name": "Santa B\u00e0rbara", "name:ca": "Santa B\u00e0rbara", "religion": "christian", "tourism": "attraction", "wikidata": "Q9007395", "wikipedia": "ca:Santa B\u00e0rbara de Sensui"}}, {"type": "Feature", "id": 388917470, "geometry": {"type": "LineString", "coordinates": [[0.79725, 42.292316], [0.797274, 42.29232], [0.79727, 42.292346], [0.797339, 42.292357], [0.797334, 42.292375], [0.797374, 42.29238], [0.797381, 42.292361], [0.797405, 42.29236], [0.797416, 42.292355], [0.797421, 42.292349], [0.797424, 42.292338], [0.797423, 42.292334], [0.797421, 42.292328], [0.797417, 42.292321], [0.797401, 42.292312], [0.79739, 42.292309], [0.797395, 42.292291], [0.797334, 42.292282], [0.797289, 42.292276], [0.797283, 42.292296], [0.797256, 42.292293], [0.797253, 42.292304], [0.79725, 42.292316]]}, "properties": {"addr:city": "Tremp", "addr:housenumber": "20", "addr:place": "la Torre de Tam\u00farcia", "addr:postcode": "22583", "amenity": "place_of_worship", "building": "church", "building:levels": "1", "denomination": "roman_catholic", "name": "Sant Josep", "name:ca": "Sant Josep", "religion": "christian", "tourism": "attraction", "wikidata": "Q9007095", "wikipedia": "ca:Sant Josep de la Torre de Tam\u00farcia"}}, {"type": "Feature", "id": 389252312, "geometry": {"type": "LineString", "coordinates": [[0.789886, 42.253987], [0.789919, 42.253981], [0.789912, 42.253956], [0.789902, 42.253924], [0.789861, 42.25393], [0.789855, 42.25391], [0.789787, 42.253921], [0.789791, 42.253933], [0.789715, 42.253945], [0.789724, 42.253976], [0.789683, 42.253982], [0.789694, 42.254019], [0.789748, 42.25401], [0.789758, 42.254042], [0.789821, 42.254032], [0.789811, 42.253999], [0.789886, 42.253987]]}, "properties": {"amenity": "place_of_worship", "building": "church", "building:levels": "3", "denomination": "roman_catholic", "name": "Santa Maria", "name:ca": "Santa Maria", "religion": "christian", "tourism": "attraction", "wikidata": "Q11682910", "wikipedia": "ca:Santa Maria de Sapeira"}}, {"type": "Feature", "id": 389340515, "geometry": {"type": "LineString", "coordinates": [[0.740427, 42.256565], [0.740395, 42.256569], [0.740389, 42.256533], [0.74033, 42.25654], [0.740338, 42.256576], [0.740238, 42.256587], [0.740247, 42.256627], [0.740346, 42.256615], [0.740353, 42.256645], [0.740408, 42.256637], [0.740402, 42.256608], [0.740435, 42.256604], [0.740446, 42.256602], [0.740455, 42.256597], [0.74046, 42.256589], [0.74046, 42.256581], [0.740456, 42.256574], [0.740448, 42.256568], [0.740438, 42.256565], [0.740427, 42.256565]]}, "properties": {"addr:city": "Tremp", "addr:place": "Orrit", "addr:postcode": "22583", "amenity": "place_of_worship", "building": "church", "building:levels": "1", "denomination": "roman_catholic", "name": "Sant Pere", "name:ca": "Sant Pere", "nohousenumber": "yes", "religion": "christian", "tourism": "attraction", "wikidata": "Q9007286", "wikipedia": "ca:Sant Pere d'Orrit"}}, {"type": "Feature", "id": 389514656, "geometry": {"type": "LineString", "coordinates": [[0.801983, 42.274194], [0.802005, 42.274238], [0.802022, 42.274234], [0.80203, 42.274251], [0.802076, 42.274245], [0.802068, 42.27422], [0.802091, 42.274215], [0.802084, 42.274187], [0.802081, 42.274177], [0.802051, 42.274176], [0.801983, 42.274194]]}, "properties": {"addr:city": "Tremp", "addr:housenumber": "3", "addr:postcode": "22583", "addr:street": "Carrer de Sant Mart\u00ed", "addr:suburb": "Aul\u00e0s", "amenity": "place_of_worship", "building": "church", "building:levels": "1", "denomination": "roman_catholic", "disused:building": "public", "name": "Sant Mart\u00ed", "name:ca": "Sant Mart\u00ed", "religion": "christian", "tourism": "attraction"}}, {"type": "Feature", "id": 396843772, "geometry": {"type": "LineString", "coordinates": [[0.780157, 42.459219], [0.780142, 42.459222], [0.780141, 42.459219], [0.780056, 42.459237], [0.780071, 42.459279], [0.780176, 42.459255], [0.780182, 42.459247], [0.780177, 42.459231], [0.780169, 42.459225], [0.780157, 42.459219]]}, "properties": {"amenity": "place_of_worship", "building": "church", "denomination": "catholic", "name": "Sant Climent", "name:ca": "Sant Climent", "religion": "christian", "tourism": "attraction", "wikidata": "Q11682838", "wikipedia": "ca:Sant Climent d'Iran"}}, {"type": "Feature", "id": 396898051, "geometry": {"type": "LineString", "coordinates": [[1.328876, 42.567894], [1.328956, 42.567902], [1.329017, 42.567908], [1.329067, 42.567916], [1.329137, 42.567927], [1.329164, 42.567868], [1.329047, 42.567836], [1.328886, 42.567823], [1.328876, 42.567894]]}, "properties": {"amenity": "place_of_worship", "building": "church", "denomination": "catholic", "name": "Santa Maria de la Torre", "name:ca": "Santa Maria de la Torre", "religion": "christian", "tourism": "attraction", "wikidata": "Q11947622", "wikipedia": "ca:Santa Maria de la Torre"}}, {"type": "Feature", "id": 397204329, "geometry": {"type": "LineString", "coordinates": [[1.245362, 42.515583], [1.245295, 42.515547], [1.24526, 42.515585], [1.245327, 42.515619], [1.245342, 42.515618], [1.245353, 42.515615], [1.245361, 42.515609], [1.245363, 42.515602], [1.245364, 42.515595], [1.245363, 42.515591], [1.245362, 42.515583]]}, "properties": {"amenity": "place_of_worship", "building": "chapel", "denomination": "roman_catholic", "name": "Sant Joan Nou", "name:ca": "Sant Joan Nou", "religion": "christian", "tourism": "attraction", "wikidata": "Q11947110", "wikipedia": "ca:Sant Joan Nou de T\u00edrvia"}}, {"type": "Feature", "id": 397206709, "geometry": {"type": "LineString", "coordinates": [[1.243866, 42.505263], [1.243955, 42.505249], [1.243999, 42.505375], [1.24399, 42.505377], [1.243999, 42.505389], [1.243999, 42.505394], [1.243966, 42.505409], [1.243959, 42.505407], [1.243941, 42.505391], [1.24393, 42.505392], [1.243908, 42.505337], [1.243886, 42.505339], [1.243871, 42.505305], [1.243847, 42.505308], [1.243846, 42.505303], [1.243813, 42.50531], [1.243801, 42.505276], [1.24384, 42.505266], [1.243837, 42.505261], [1.243864, 42.505259], [1.243866, 42.505263]]}, "properties": {"amenity": "place_of_worship", "building": "church", "denomination": "roman_catholic", "name": "Sant Esteve de Montesclado", "name:ca": "Sant Esteve de Montesclado", "religion": "christian", "tourism": "attraction", "wikidata": "Q18006752", "wikipedia": "ca:Sant Esteve de Montesclado"}}, {"type": "Feature", "id": 397208651, "geometry": {"type": "LineString", "coordinates": [[1.272046, 42.504405], [1.27204, 42.504511], [1.272165, 42.504516], [1.272165, 42.504524], [1.272191, 42.504532], [1.272222, 42.504534], [1.27224, 42.504415], [1.272046, 42.504405]]}, "properties": {"alt_name": "Sant Crist\u00f2fol de Burg", "alt_name:ca": "Sant Crist\u00f2fol de Burg", "amenity": "place_of_worship", "building": "church", "denomination": "catholic", "name": "Sant Bartomeu de Burg", "name:ca": "Sant Bartomeu de Burg", "religion": "christian", "tourism": "attraction", "wikidata": "Q11946933", "wikipedia": "ca:Sant Bartomeu de Burg"}}, {"type": "Feature", "id": 397210484, "geometry": {"type": "LineString", "coordinates": [[1.266297, 42.500688], [1.266107, 42.500738], [1.26614, 42.500806], [1.26633, 42.500756], [1.266343, 42.500749], [1.266353, 42.50074], [1.266359, 42.500729], [1.266358, 42.500717], [1.266353, 42.500705], [1.266343, 42.500696], [1.266329, 42.500689], [1.266313, 42.500687], [1.266297, 42.500688]]}, "properties": {"amenity": "place_of_worship", "building": "church", "denomination": "roman_catholic", "name": "Mare de D\u00e9u de la Serra", "name:ca": "Mare de D\u00e9u de la Serra", "religion": "christian", "tourism": "attraction", "wikidata": "Q11935342", "wikipedia": "ca:Mare de D\u00e9u de la Serra (Farrera)"}}, {"type": "Feature", "id": 397210485, "geometry": {"type": "LineString", "coordinates": [[1.271744, 42.497106], [1.271732, 42.497078], [1.271685, 42.497088], [1.27169, 42.497114], [1.271529, 42.497153], [1.271549, 42.497209], [1.27173, 42.497173], [1.271766, 42.497155], [1.271765, 42.497151], [1.271772, 42.497148], [1.271771, 42.497124], [1.271761, 42.497127], [1.271744, 42.497106]]}, "properties": {"amenity": "place_of_worship", "building": "church", "denomination": "roman_catholic", "name": "Sant Roc", "name:ca": "Sant Roc", "religion": "christian", "tourism": "attraction", "wikidata": "Q18007324", "wikipedia": "ca:Sant Roc de Farrera"}}, {"type": "Feature", "id": 397212019, "geometry": {"type": "LineString", "coordinates": [[1.264101, 42.496493], [1.264115, 42.496487], [1.264124, 42.496478], [1.264129, 42.496466], [1.264128, 42.496455], [1.264121, 42.496444], [1.26411, 42.496436], [1.264095, 42.496431], [1.264079, 42.496431], [1.263914, 42.496459], [1.263943, 42.496531], [1.264101, 42.496493]]}, "properties": {"amenity": "place_of_worship", "building": "church", "denomination": "roman_catholic", "name": "Santa Eul\u00e0lia", "name:ca": "Santa Eul\u00e0lia", "religion": "christian", "tourism": "attraction", "wikidata": "Q18007499", "wikipedia": "ca:Santa Eul\u00e0lia d'Alendo"}}, {"type": "Feature", "id": 406021879, "geometry": {"type": "LineString", "coordinates": [[0.853477, 42.228608], [0.853398, 42.228606], [0.853397, 42.228649], [0.853476, 42.22865], [0.853489, 42.228647], [0.853497, 42.22864], [0.853499, 42.228626], [0.853495, 42.228615], [0.853477, 42.228608]]}, "properties": {"amenity": "place_of_worship", "building": "chapel", "building:levels": "1", "denomination": "roman_catholic", "name": "Sant Mart\u00ed", "name:ca": "Sant Mart\u00ed", "religion": "christian", "tourism": "attraction", "wikidata": "Q18007026", "wikipedia": "ca:Sant Mart\u00ed de Gurp"}}, {"type": "Feature", "id": 429022185, "geometry": {"type": "LineString", "coordinates": [[0.862127, 42.37505], [0.862142, 42.375009], [0.862039, 42.374988], [0.862024, 42.375029], [0.862127, 42.37505]]}, "properties": {"amenity": "place_of_worship", "building": "church", "denomination": "catholic", "name": "Mare de D\u00e9u de Castellgerm\u00e0", "name:ca": "Mare de D\u00e9u de Castellgerm\u00e0", "religion": "christian", "tourism": "attraction", "wikidata": "Q11935311", "wikipedia": "ca:Mare de D\u00e9u de Castellgerm\u00e0"}}, {"type": "Feature", "id": 429025591, "geometry": {"type": "LineString", "coordinates": [[0.942823, 42.398425], [0.942822, 42.398322], [0.942621, 42.398323], [0.942622, 42.398351], [0.942588, 42.398351], [0.942589, 42.398402], [0.942657, 42.398402], [0.942657, 42.398436], [0.942786, 42.398435], [0.942786, 42.398425], [0.942823, 42.398425]]}, "properties": {"amenity": "place_of_worship", "building": "church", "denomination": "catholic", "name": "Sant Joan Baptista", "name:ca": "Sant Joan Baptista", "religion": "christian", "tourism": "attraction", "wikidata": "Q11682846", "wikipedia": "ca:Sant Joan Baptista de Guir\u00f3"}}, {"type": "Feature", "id": 433041737, "geometry": {"type": "LineString", "coordinates": [[0.665791, 42.765131], [0.665712, 42.765197], [0.66539, 42.765416], [0.665232, 42.765241], [0.665007, 42.765066], [0.665416, 42.764811], [0.665885, 42.765045], [0.665843, 42.765088], [0.665791, 42.765131]]}, "properties": {"attraction": "animal", "name": "Ours brun", "natural": "grassland", "species:wikidata": "Q36341", "species:wikipedia": "fr:Ours brun", "tourism": "attraction"}}, {"type": "Feature", "id": 433042657, "geometry": {"type": "LineString", "coordinates": [[0.668796, 42.766389], [0.668945, 42.766451], [0.669026, 42.766515], [0.66907, 42.7666], [0.669072, 42.766739], [0.669064, 42.766796], [0.668995, 42.766793], [0.668948, 42.766779], [0.668885, 42.766732], [0.668871, 42.766684], [0.668816, 42.766655], [0.66865, 42.766616], [0.668736, 42.766483], [0.668747, 42.766462], [0.668796, 42.766389]]}, "properties": {"attraction": "animal", "landuse": "meadow", "name": "Marmotte", "species:wikidata": "Q131567", "species:wikipedia": "fr:Marmotte", "tourism": "attraction"}}, {"type": "Feature", "id": 435053079, "geometry": {"type": "LineString", "coordinates": [[0.992593, 42.890464], [0.992605, 42.89055], [0.992831, 42.890615], [0.992912, 42.890644], [0.992934, 42.890686], [0.992984, 42.890689], [0.993004, 42.890668], [0.993083, 42.890691], [0.993152, 42.890705], [0.993181, 42.890684], [0.993253, 42.890681], [0.993263, 42.89063], [0.993321, 42.890624], [0.993342, 42.890554], [0.993311, 42.890542], [0.993332, 42.890438], [0.993366, 42.890429], [0.993364, 42.890336], [0.993371, 42.890237], [0.993409, 42.890162], [0.993364, 42.890151], [0.993368, 42.890105], [0.993227, 42.890072], [0.993212, 42.890091], [0.993088, 42.890056], [0.993007, 42.890043], [0.992874, 42.890121], [0.992874, 42.890162], [0.992833, 42.890206], [0.99285, 42.890283], [0.992802, 42.890327], [0.992723, 42.890345], [0.992677, 42.890389], [0.992593, 42.890464]]}, "properties": {"landuse": "quarry", "name": "Carri\u00e8re de Marbre", "tourism": "attraction"}}, {"type": "Feature", "id": 437603222, "geometry": {"type": "LineString", "coordinates": [[1.248208, 42.506839], [1.248382, 42.506793], [1.248357, 42.506731], [1.248329, 42.506731], [1.248274, 42.506734], [1.248236, 42.506741], [1.248217, 42.506752], [1.248184, 42.506793], [1.248208, 42.506839]]}, "properties": {"amenity": "place_of_worship", "building": "church", "denomination": "roman_catholic", "name": "Sant Esteve vell de Montesclado", "name:ca": "Sant Esteve vell de Montesclado", "religion": "christian", "tourism": "attraction", "wikidata": "Q11947016", "wikipedia": "ca:Sant Esteve vell de Montesclado"}}, {"type": "Feature", "id": 437646572, "geometry": {"type": "LineString", "coordinates": [[1.225756, 42.44983], [1.225853, 42.449815], [1.225826, 42.449719], [1.225729, 42.449733], [1.225756, 42.44983]]}, "properties": {"amenity": "place_of_worship", "building": "church", "denomination": "roman_catholic", "name": "Sant Esteve", "name:ca": "Sant Esteve", "religion": "christian", "tourism": "attraction", "wikidata": "Q18006751", "wikipedia": "ca:Sant Esteve de Montenartr\u00f3"}}, {"type": "Feature", "id": 437650851, "geometry": {"type": "LineString", "coordinates": [[1.268364, 42.446316], [1.268454, 42.446261], [1.268467, 42.446251], [1.268471, 42.446238], [1.268467, 42.446225], [1.268456, 42.446215], [1.268439, 42.446209], [1.26842, 42.44621], [1.268405, 42.446217], [1.268315, 42.446272], [1.268364, 42.446316]]}, "properties": {"amenity": "place_of_worship", "building": "church", "denomination": "roman_catholic", "name": "Sant Mart\u00ed", "name:ca": "Sant Mart\u00ed", "religion": "christian", "tourism": "attraction", "wikidata": "Q18007084", "wikipedia": "ca:Sant Mart\u00ed de Romadriu"}}, {"type": "Feature", "id": 469681203, "geometry": {"type": "LineString", "coordinates": [[1.272048, 42.234287], [1.272011, 42.2343], [1.271872, 42.234302], [1.271871, 42.234276], [1.27187, 42.234236], [1.271907, 42.234235], [1.272037, 42.234232], [1.272038, 42.234249], [1.272082, 42.234248], [1.272083, 42.234278], [1.272048, 42.234279], [1.272048, 42.234287]]}, "properties": {"amenity": "place_of_worship", "building": "church", "denomination": "catholic", "name": "Sant Miquel", "name:ca": "Sant Miquel", "religion": "christian", "tourism": "attraction", "wikidata": "Q18007181", "wikipedia": "ca:Sant Miquel del Vilar de Cab\u00f3"}}, {"type": "Feature", "id": 496466519, "geometry": {"type": "LineString", "coordinates": [[0.9495, 42.394351], [0.949512, 42.394349], [0.949523, 42.394351], [0.949533, 42.394355], [0.949539, 42.394362], [0.949542, 42.394371], [0.94954, 42.394379], [0.949533, 42.394386], [0.949524, 42.394391], [0.949512, 42.394393], [0.949403, 42.39441], [0.949391, 42.394369], [0.949456, 42.394359], [0.949453, 42.394346], [0.949497, 42.394339], [0.9495, 42.394351]]}, "properties": {"amenity": "place_of_worship", "building": "church", "denomination": "catholic", "name": "Santa Maria", "name:ca": "Santa Maria", "religion": "christian", "tourism": "attraction", "wikidata": "Q2890804", "wikipedia": "ca:Santa Maria d'Obeix"}}, {"type": "Feature", "id": 496469256, "geometry": {"type": "LineString", "coordinates": [[0.955368, 42.395049], [0.955293, 42.395032], [0.95528, 42.395064], [0.955355, 42.395081], [0.955368, 42.39508], [0.955379, 42.395074], [0.955383, 42.395064], [0.955379, 42.395055], [0.955368, 42.395049]]}, "properties": {"alt_name": "Sant Crist\u00f2fol d'Obeix", "alt_name:ca": "Sant Crist\u00f2fol d'Obeix", "amenity": "place_of_worship", "building": "chapel", "denomination": "catholic", "name": "Sant Cristau", "name:ca": "Sant Cristau", "religion": "christian", "tourism": "attraction", "wikidata": "Q8777072", "wikipedia": "ca:Sant Crist\u00f2fol d'Obeix"}}, {"type": "Feature", "id": 497911227, "geometry": {"type": "LineString", "coordinates": [[0.823465, 42.442694], [0.823478, 42.442692], [0.823488, 42.442687], [0.823494, 42.442679], [0.823494, 42.442669], [0.823488, 42.442661], [0.823479, 42.442655], [0.823401, 42.442641], [0.823388, 42.44268], [0.823465, 42.442694]]}, "properties": {"amenity": "place_of_worship", "building": "chapel", "denomination": "catholic", "name": "Santa Margarida", "name:ca": "Santa Margarida", "name:es": "Santa Margarita", "religion": "christian", "tourism": "attraction", "wikidata": "Q8777197", "wikipedia": "ca:Santa Margarida de Peranera"}}, {"type": "Feature", "id": 616660326, "geometry": {"type": "LineString", "coordinates": [[1.075824, 42.381201], [1.075825, 42.381116], [1.075976, 42.381116], [1.075976, 42.381166], [1.075941, 42.381166], [1.07594, 42.381201], [1.075824, 42.381201]]}, "properties": {"amenity": "place_of_worship", "building": "church", "denomination": "catholic", "name": "Sant Mar\u00e7al d'Estac", "name:ca": "Sant Mar\u00e7al d'Estac", "religion": "christian", "tourism": "attraction", "wikidata": "Q11947225", "wikipedia": "ca:Sant Mar\u00e7al d'Estac"}}, {"type": "Feature", "id": 622047758, "geometry": {"type": "LineString", "coordinates": [[1.301842, 42.305533], [1.301861, 42.305499], [1.301768, 42.30547], [1.301748, 42.305503], [1.301842, 42.305533]]}, "properties": {"amenity": "place_of_worship", "building": "chapel", "denomination": "catholic", "name": "Sant Quir\u00ed i Santa Julita", "name:ca": "Sant Quir\u00ed i Santa Julita", "religion": "christian", "tourism": "attraction", "wikidata": "Q18007315", "wikipedia": "ca:Sant Quir\u00ed i Santa Julita de Ber\u00e9n"}}, {"type": "Feature", "id": 626897235, "geometry": {"type": "LineString", "coordinates": [[1.174336, 42.309392], [1.174455, 42.309347], [1.174435, 42.309319], [1.174317, 42.309363], [1.174336, 42.309392]]}, "properties": {"building": "chapel", "denomination": "catholic", "historic": "wayside_shrine", "name": "Mare de D\u00e9u de la Guia", "name:ca": "Mare de D\u00e9u de la Guia", "religion": "christian", "tourism": "attraction", "wikidata": "Q11935326", "wikipedia": "ca:Mare de D\u00e9u de la Guia (les Valls d'Aguilar)"}}, {"type": "Feature", "id": 640234028, "geometry": {"type": "LineString", "coordinates": [[1.236039, 42.285685], [1.235919, 42.285682], [1.235916, 42.28575], [1.236048, 42.285752], [1.236049, 42.285723], [1.236065, 42.285718], [1.236072, 42.285706], [1.236069, 42.285694], [1.236056, 42.285685], [1.236039, 42.285685]]}, "properties": {"amenity": "place_of_worship", "building": "church", "denomination": "catholic", "name": "Sant Esteve", "name:ca": "Sant Esteve", "religion": "christian", "tourism": "attraction"}}, {"type": "Feature", "id": 640609290, "geometry": {"type": "LineString", "coordinates": [[1.274081, 42.295446], [1.27407, 42.295436], [1.273972, 42.295433], [1.27397, 42.295473], [1.274111, 42.295477], [1.274113, 42.295447], [1.274081, 42.295446]]}, "properties": {"amenity": "place_of_worship", "building": "church", "denomination": "catholic", "name": "Santa Elena de Trejuvell", "name:ca": "Santa Elena de Trejuvell", "religion": "christian", "tourism": "attraction", "wikidata": "Q18007488", "wikipedia": "ca:Santa Elena de Trejuvell"}}, {"type": "Feature", "id": 659558937, "geometry": {"type": "LineString", "coordinates": [[1.177665, 42.299037], [1.177696, 42.299025], [1.177618, 42.298915], [1.177487, 42.298966], [1.177564, 42.299076], [1.177597, 42.299063], [1.17761, 42.299073], [1.177629, 42.299077], [1.177647, 42.299074], [1.177661, 42.299064], [1.177668, 42.299051], [1.177665, 42.299037]]}, "properties": {"amenity": "place_of_worship", "building": "ruins", "denomination": "catholic", "name": "Mare de D\u00e9u de l'Assumpci\u00f3 dels Castells", "name:ca": "Mare de D\u00e9u de l'Assumpci\u00f3 dels Castells", "religion": "christian", "ruins": "yes", "tourism": "attraction", "wikidata": "Q17619044", "wikipedia": "ca:Mare de D\u00e9u de l'Assumpci\u00f3 dels Castells"}}, {"type": "Feature", "id": 660763088, "geometry": {"type": "LineString", "coordinates": [[1.201964, 42.34253], [1.202037, 42.342579], [1.202047, 42.342571], [1.202059, 42.342579], [1.202117, 42.342533], [1.202106, 42.342525], [1.202124, 42.342511], [1.202052, 42.342463], [1.202041, 42.342471], [1.202019, 42.342456], [1.201962, 42.342502], [1.201982, 42.342516], [1.201964, 42.34253]]}, "properties": {"amenity": "place_of_worship", "building": "church", "denomination": "catholic", "name": "Sant Esteve", "name:ca": "Sant Esteve", "religion": "christian", "tourism": "attraction", "wikidata": "Q18006741", "wikipedia": "ca:Sant Esteve de Junyent"}}, {"type": "Feature", "id": 660763095, "geometry": {"type": "LineString", "coordinates": [[1.230844, 42.329324], [1.230999, 42.329378], [1.231043, 42.32931], [1.230957, 42.32928], [1.230952, 42.329289], [1.230882, 42.329264], [1.230844, 42.329324]]}, "properties": {"amenity": "place_of_worship", "building": "church", "denomination": "catholic", "name": "Santa Maria", "name:ca": "Santa Maria", "religion": "christian", "tourism": "attraction", "wikidata": "Q11947590", "wikipedia": "ca:Santa Maria de Castell\u00e0s"}}, {"type": "Feature", "id": 666447521, "geometry": {"type": "LineString", "coordinates": [[1.131141, 42.425451], [1.131171, 42.425458], [1.131165, 42.425472], [1.131198, 42.42548], [1.131271, 42.425496], [1.131286, 42.425462], [1.131332, 42.425472], [1.131356, 42.425416], [1.13135, 42.425415], [1.131309, 42.425406], [1.131323, 42.425372], [1.131242, 42.425354], [1.131237, 42.425366], [1.131182, 42.425353], [1.131141, 42.425451]]}, "properties": {"alt_name": "Sant Mart\u00ed de la Bastida de Sort", "amenity": "place_of_worship", "denomination": "catholic", "name": "Sant Mart\u00ed", "name:ca": "Sant Mart\u00ed", "religion": "christian", "tourism": "attraction", "wikidata": "Q18007063", "wikipedia": "ca:Sant Mart\u00ed de la Bastida de Sort"}}, {"type": "Feature", "id": 712661861, "geometry": {"type": "LineString", "coordinates": [[1.035094, 42.58194], [1.03516, 42.581962], [1.035153, 42.581974], [1.035195, 42.581987], [1.035175, 42.58202], [1.035133, 42.582006], [1.035123, 42.582022], [1.035057, 42.582], [1.035094, 42.58194]]}, "properties": {"building": "yes", "name": "Cabana del Pont de Pallers", "operator": "Parc Nacional d'Aig\u00fcestortes i Estany de Sant Maurici", "tourism": "attraction"}}, {"type": "Feature", "id": 726778413, "geometry": {"type": "LineString", "coordinates": [[1.316513, 42.549393], [1.316598, 42.549458], [1.316746, 42.549354], [1.316661, 42.549288], [1.316513, 42.549393]]}, "properties": {"amenity": "shelter", "name": "Farga antiga", "name:ca": "Farga antiga", "reservation": "yes", "tourism": "attraction"}}, {"type": "Feature", "id": 1257642465, "geometry": {"type": "LineString", "coordinates": [[0.812913, 42.287691], [0.81284, 42.28769], [0.81284, 42.287701], [0.812821, 42.2877], [0.812821, 42.287719], [0.81282, 42.287729], [0.812864, 42.28773], [0.812906, 42.28773], [0.812911, 42.28773], [0.812916, 42.287728], [0.81292, 42.287725], [0.812923, 42.287722], [0.812925, 42.287717], [0.812925, 42.287713], [0.812925, 42.287707], [0.812923, 42.287702], [0.812921, 42.287697], [0.812918, 42.287694], [0.812913, 42.287691]]}, "properties": {"addr:city": "Tremp", "addr:housenumber": "2", "addr:place": "Torog\u00f3", "addr:postcode": "22584", "amenity": "place_of_worship", "building": "chapel", "building:levels": "1", "denomination": "catholic", "name": "Sant Climent", "name:ca": "Sant Climent", "religion": "christian", "tourism": "attraction", "wikidata": "Q18006688", "wikipedia": "ca:Sant Climent de Torog\u00f3"}}, {"type": "Feature", "id": 1257645709, "geometry": {"type": "LineString", "coordinates": [[0.843152, 42.28565], [0.843156, 42.285696], [0.84324, 42.285692], [0.843241, 42.28571], [0.843311, 42.285707], [0.843309, 42.285689], [0.843336, 42.285688], [0.843333, 42.285654], [0.843332, 42.285643], [0.843278, 42.285646], [0.843276, 42.28562], [0.84322, 42.285622], [0.843222, 42.285647], [0.843152, 42.28565]]}, "properties": {"addr:city": "Tremp", "addr:housenumber": "38", "addr:place": "Espluga de Serra", "addr:postcode": "22583", "amenity": "place_of_worship", "building": "church", "building:levels": "1", "denomination": "catholic", "name": "Santa Maria", "name:ca": "Santa Maria", "religion": "christian", "tourism": "attraction", "wikidata": "Q5641222", "wikipedia": "ca:Santa Maria d'Espluga de Serra"}}]}