{"type": "FeatureCollection", "features": [{"type": "Feature", "id": 2780558927, "geometry": {"type": "Point", "coordinates": [0.740319, 42.405988]}, "properties": {"amenity": "social_facility", "name": "Residencia Gent Gran", "social_facility": "group_home", "social_facility:for": "senior"}}, {"type": "Feature", "id": 4277842830, "geometry": {"type": "Point", "coordinates": [1.228053, 42.563527]}, "properties": {"amenity": "social_facility", "healthcare": "yes", "name": "Casa del Poble", "name:ca": "Casa del Poble", "operator": "Ajuntament", "social_facility": "social_club"}}, {"type": "Feature", "id": 4657638406, "geometry": {"type": "Point", "coordinates": [0.710241, 42.808668]}, "properties": {"amenity": "social_facility", "name": "Espaci Joen", "operator": "Ajuntament de Les"}}, {"type": "Feature", "id": 6092468220, "geometry": {"type": "Point", "coordinates": [0.600567, 42.790784]}, "properties": {"addr:city": "Bagn\u00e8res-de-Luchon", "addr:postcode": "31110", "addr:street": "Avenue du Bois Chantant", "amenity": "social_facility", "beds": "65", "fax": "+33561790386", "name": "EHPAD Era Caso", "operator": "Hopitaux de Luchon", "phone": "+33 5 61 79 37 90", "ref:FR:FINESS": "310785332", "ref:FR:SIRET": "21310042300119", "social_facility": "nursing_home", "social_facility:for": "senior", "source": "Le minist\u00e8re des solidarit\u00e9s et de la sant\u00e9 - 03/2019", "type:FR:FINESS": "500", "website": "https://ehpad-eracaso.fr/", "wheelchair": "yes", "wikidata": "Q112993598"}}, {"type": "Feature", "id": 6307855991, "geometry": {"type": "Point", "coordinates": [0.597207, 42.791712]}, "properties": {"addr:city": "Bagn\u00e8res-de-Luchon", "addr:housenumber": "4", "addr:postcode": "31110", "addr:street": "Avenue Alexandre Dumas", "amenity": "social_facility", "name": "Centre de Convalescence et G\u00e9rontologie", "operator": "Hopitaux de Luchon", "social_facility": "nursing_home", "social_facility:for": "senior", "website": "https://mairie-luchon.fr/luchon-sante.php", "wheelchair": "yes"}}, {"type": "Feature", "id": 6307856008, "geometry": {"type": "Point", "coordinates": [0.597315, 42.791978]}, "properties": {"addr:city": "Bagn\u00e8res-de-Luchon", "addr:housenumber": "1", "addr:postcode": "31110", "addr:street": "Boulevard Charles de Gaulle", "amenity": "social_facility", "beds": "50", "fax": "+33561799313", "name": "Maison de retraite Gabriel Rouy", "operator": "Hopitaux de Luchon", "phone": "+33561799400", "ref:FR:FINESS": "310788021", "ref:FR:SIRET": "26310015800058", "social_facility": "nursing_home", "social_facility:for": "senior", "source": "Le minist\u00e8re des solidarit\u00e9s et de la sant\u00e9 - 03/2019", "type:FR:FINESS": "500", "website": "http://hopitauxdeluchon.fr/index.php/les-etablissements-d-hebergement-pour-personnes-agees-dependantes-e-h-p-a-d/les-sites", "wheelchair": "yes", "wikidata": "Q112993601"}}, {"type": "Feature", "id": 6402058671, "geometry": {"type": "Point", "coordinates": [1.13149, 42.412597]}, "properties": {"addr:city": "Sort", "addr:full": "Carrer del doctor Carles Pol i Aleu, 5", "addr:housenumber": "5", "addr:postcode": "25560", "addr:street": "Carrer del Doctor Carles Pol i Aleu", "amenity": "social_facility", "contact:email": "casaxorret@sort.cat", "contact:phone": "+34 973 620999", "name": "Servei d'informaci\u00f3 i atenci\u00f3 a les dones (SIAD) de Sort", "operator": "Ajuntament de Sort", "social_facility:for": "woman", "source": "Generalitat de Catalunya", "source:date": "2018-05-03"}}, {"type": "Feature", "id": 6402133768, "geometry": {"type": "Point", "coordinates": [0.793916, 42.70009]}, "properties": {"addr:city": "Vielha e Mijaran", "addr:full": "Carrer Major, 36", "addr:housenumber": "36", "addr:postcode": "25530", "addr:street": "Carrer Major", "amenity": "social_facility", "contact:email": "siah@aransalut.com", "contact:phone": "+34 973 642560", "name": "Servei d'informaci\u00f3 i atenci\u00f3 a les dones (SIAD) de l'Aran", "operator": "Consell General d'Aran", "social_facility:for": "woman", "source": "Generalitat de Catalunya", "source:date": "2018-05-03"}}, {"type": "Feature", "id": 6402133890, "geometry": {"type": "Point", "coordinates": [0.740501, 42.411708]}, "properties": {"addr:city": "El Pont de Suert", "addr:floor": "Baixos", "addr:full": "Carrer d'Aig\u00fcestortes, 12, baixos", "addr:housenumber": "12", "addr:postcode": "25520", "addr:street": "Carrer d'Aig\u00fcestortes", "amenity": "social_facility", "contact:email": "dones@ccar.ddl.net", "contact:phone": "+34 973 690260", "name": "Servei d'informaci\u00f3 i atenci\u00f3 a les dones (SIAD) de l'Alta Ribagor\u00e7a", "operator": "Consell Comarcal de l'Alta Ribagor\u00e7a", "social_facility:for": "woman", "source": "Generalitat de Catalunya", "source:date": "2018-05-03"}}, {"type": "Feature", "id": 6402533703, "geometry": {"type": "Point", "coordinates": [1.130203, 42.411851]}, "properties": {"addr:city": "Sort", "addr:full": "Carrer del Mig,9", "addr:housenumber": "9", "addr:postcode": "25560", "addr:street": "Carrer del Mig", "amenity": "social_facility", "contact:email": "sai@pallarssobira.cat", "contact:phone": "+34 973 620107", "name": "Servei d'Atenci\u00f3 Integral del Pallars Sobir\u00e0 (comarcal)", "name:ca": "Servei d'Atenci\u00f3 Integral del Pallars Sobir\u00e0 (comarcal)", "network:type": "Comarcal", "social_facility:for": "LGBTI", "source": "Generalitat de Catalunya", "source:date": "2019-01-21"}}, {"type": "Feature", "id": 6402533710, "geometry": {"type": "Point", "coordinates": [0.740839, 42.412261]}, "properties": {"addr:city": "El Pont de Suert", "addr:full": "Carrer Aig\u00fcestortes,10", "addr:housenumber": "10", "addr:postcode": "25520", "addr:street": "Carrer d'Aig\u00fcestortes", "amenity": "social_facility", "contact:email": "sai@ccar.ddl.net", "contact:phone": "+34 973 691264", "name": "SAI del Consell Comarcal de l'Alta Ribagor\u00e7a", "network:type": "Comarcal", "social_facility:for": "LGBTI", "source": "Generalitat de Catalunya", "source:date": "2019-01-21"}}, {"type": "Feature", "id": 7528179450, "geometry": {"type": "Point", "coordinates": [1.206591, 42.866014]}, "properties": {"amenity": "social_facility", "beds": "45", "contact:fax": "+33 5 61 96 57 60", "contact:phone": "+33 5 61 66 85 35", "name": "Ehpad R\u00e9sidence Paul \u00c2n\u00e9", "operator": "CCAS de Seix", "ref:FR:FINESS": "090782624", "social_facility": "group_home", "social_facility:for": "senior", "wikidata": "Q112963909"}}, {"type": "Feature", "id": 7528296870, "geometry": {"type": "Point", "coordinates": [1.214918, 42.87453]}, "properties": {"amenity": "social_facility", "beds": "27", "contact:phone": "+33 5 61 04 00 90", "name": "Ehpad R\u00e9sidence Saint-Joseph", "operator": "Association Ehpad Saint-Joseph", "ref:FR:FINESS": "090781634", "social_facility": "group_home", "social_facility:for": "senior", "wikidata": "Q112920694"}}, {"type": "Feature", "id": 289381272, "geometry": {"type": "LineString", "coordinates": [[1.290083, 42.848674], [1.290657, 42.848221], [1.290624, 42.8482], [1.290643, 42.848182], [1.290377, 42.847979], [1.290298, 42.84804], [1.290503, 42.848188], [1.29016, 42.848467], [1.290028, 42.848406], [1.290036, 42.848399], [1.290041, 42.84839], [1.29004, 42.84838], [1.290035, 42.848371], [1.290026, 42.848364], [1.290014, 42.84836], [1.290001, 42.84836], [1.289989, 42.848363], [1.289979, 42.848368], [1.289972, 42.848377], [1.28997, 42.848386], [1.289973, 42.848396], [1.289857, 42.848563], [1.290083, 42.848674]]}, "properties": {"amenity": "social_facility", "building": "yes", "name": "Ehpad Saint-Philippe", "ref:FR:FINESS": "090780149", "social_facility": "group_home", "wikidata": "Q112992800"}}, {"type": "Feature", "id": 298890264, "geometry": {"type": "LineString", "coordinates": [[0.968753, 42.251132], [0.968724, 42.250977], [0.968698, 42.250835], [0.968677, 42.250718], [0.968648, 42.250562], [0.969015, 42.250523], [0.969041, 42.250681], [0.969059, 42.250787], [0.969089, 42.250951], [0.969109, 42.251055], [0.969113, 42.251084], [0.968871, 42.251107], [0.968873, 42.251121], [0.968753, 42.251132]]}, "properties": {"addr:city": "la Pobla de Segur", "addr:housenumber": "27", "addr:postcode": "25500", "addr:street": "Carrer del Raier", "amenity": "social_facility", "name": "Resid\u00e8ncia Verge de Ribera", "name:ca": "Resid\u00e8ncia Verge de Ribera", "social_facility": "assisted_living", "social_facility:for": "senior"}}, {"type": "Feature", "id": 300868965, "geometry": {"type": "LineString", "coordinates": [[1.34446, 42.890242], [1.344664, 42.890205], [1.344686, 42.890281], [1.34464, 42.890285], [1.344678, 42.890399], [1.344536, 42.890475], [1.344556, 42.890499], [1.344577, 42.890525], [1.344546, 42.890541], [1.344412, 42.890608], [1.344351, 42.890541], [1.344283, 42.890542], [1.344295, 42.890688], [1.344271, 42.890688], [1.344281, 42.890801], [1.344283, 42.890827], [1.344362, 42.890814], [1.34437, 42.890836], [1.344405, 42.890934], [1.34435, 42.890945], [1.344354, 42.890959], [1.344333, 42.890964], [1.344339, 42.890988], [1.344259, 42.891004], [1.344237, 42.890935], [1.344291, 42.890923], [1.344294, 42.890898], [1.344226, 42.890908], [1.344221, 42.89088], [1.344124, 42.890888], [1.344109, 42.890678], [1.344124, 42.890678], [1.344115, 42.890578], [1.344092, 42.890579], [1.34409, 42.890526], [1.344106, 42.890525], [1.344108, 42.890487], [1.344275, 42.890481], [1.344347, 42.890443], [1.344332, 42.890426], [1.344489, 42.890348], [1.34446, 42.890242]]}, "properties": {"amenity": "social_facility", "beds": "51", "building": "yes", "capacity": "51", "contact:fax": "+33 5 61 04 02 57", "contact:phone": "+33 5 61 04 02 00", "name": "Ehpad R\u00e9sidence Servat", "operator": "CIAS de Massat", "operator_type": "public", "ref:FR:FINESS": "090781998", "social_facility": "nursing_home", "social_facility:for": "senior", "source": "action sociale OCCITANIE", "type:FR:FINESS": "500", "wikidata": "Q112992811"}}, {"type": "Feature", "id": 367159458, "geometry": {"type": "LineString", "coordinates": [[0.797023, 42.701827], [0.797018, 42.701832], [0.797016, 42.701837], [0.797015, 42.701844], [0.797018, 42.701849], [0.797022, 42.701855], [0.797027, 42.701859], [0.797035, 42.701862], [0.797043, 42.701863], [0.797051, 42.701863], [0.797059, 42.701861], [0.797065, 42.701857], [0.797072, 42.701862], [0.797113, 42.701831], [0.797129, 42.701843], [0.797043, 42.701907], [0.79712, 42.701962], [0.797204, 42.701898], [0.79727, 42.701945], [0.797334, 42.701896], [0.797268, 42.701849], [0.797278, 42.701842], [0.797186, 42.701777], [0.79721, 42.701759], [0.797202, 42.701753], [0.797227, 42.701734], [0.797184, 42.701703], [0.797158, 42.701723], [0.797152, 42.701719], [0.797129, 42.701736], [0.797036, 42.70167], [0.797026, 42.701678], [0.796961, 42.701632], [0.796897, 42.70168], [0.796962, 42.701727], [0.796897, 42.701777], [0.796894, 42.701787], [0.796895, 42.701797], [0.796899, 42.701807], [0.796907, 42.701816], [0.796917, 42.701823], [0.796929, 42.701829], [0.796943, 42.701831], [0.796957, 42.701832], [0.796971, 42.70183], [0.79704, 42.701778], [0.797056, 42.701789], [0.797014, 42.701821], [0.797023, 42.701827]]}, "properties": {"amenity": "social_facility", "building": "yes", "name": "Resid\u00e8ncia assitida Sant Antoni", "social_facility": "assisted_living", "social_facility:for": "senior"}}, {"type": "Feature", "id": 975816665, "geometry": {"type": "LineString", "coordinates": [[1.030438, 42.920239], [1.030371, 42.919247], [1.030932, 42.919132], [1.031004, 42.919548], [1.031077, 42.919537], [1.031115, 42.91973], [1.031206, 42.919717], [1.031246, 42.920118], [1.030867, 42.920172], [1.030438, 42.920239]]}, "properties": {"amenity": "social_facility", "beds": "49", "contact:fax": "+33 5 61 04 81 20", "contact:phone": "+33 5 61 96 75 34", "name": "Ehpad R\u00e9sidence des 4 Vall\u00e9es", "operator": "Association Ari\u00e8ge Assistance", "operator:type": "private", "ref:FR:FINESS": "090783283", "social_facility": "group_home", "social_facility:for": "senior", "source": "action sociale OCCITANIE", "type:FR:FINESS": "500", "wikidata": "Q112992843"}}]}