{"type": "FeatureCollection", "features": [{"type": "Feature", "id": 850028975, "geometry": {"type": "Point", "coordinates": [0.592171, 42.78841]}, "properties": {"amenity": "fountain", "source": "local_knowledge"}}, {"type": "Feature", "id": 850029071, "geometry": {"type": "Point", "coordinates": [0.591465, 42.790223]}, "properties": {"amenity": "fountain"}}, {"type": "Feature", "id": 850029195, "geometry": {"type": "Point", "coordinates": [0.591389, 42.7911]}, "properties": {"amenity": "fountain", "source": "local_knowledge"}}, {"type": "Feature", "id": 2282061149, "geometry": {"type": "Point", "coordinates": [0.577903, 42.799258]}, "properties": {"amenity": "fountain"}}, {"type": "Feature", "id": 2282061217, "geometry": {"type": "Point", "coordinates": [0.577797, 42.799489]}, "properties": {"amenity": "fountain"}}, {"type": "Feature", "id": 2283548605, "geometry": {"type": "Point", "coordinates": [0.550987, 42.826601]}, "properties": {"amenity": "fountain"}}, {"type": "Feature", "id": 2284607014, "geometry": {"type": "Point", "coordinates": [0.522315, 42.85087]}, "properties": {"amenity": "fountain"}}, {"type": "Feature", "id": 2328292827, "geometry": {"type": "Point", "coordinates": [0.608143, 42.808578]}, "properties": {"amenity": "fountain"}}, {"type": "Feature", "id": 2470784049, "geometry": {"type": "Point", "coordinates": [0.795772, 42.703197]}, "properties": {"amenity": "fountain"}}, {"type": "Feature", "id": 3028513027, "geometry": {"type": "Point", "coordinates": [0.968477, 42.247117]}, "properties": {"amenity": "fountain"}}, {"type": "Feature", "id": 3028517737, "geometry": {"type": "Point", "coordinates": [0.969582, 42.246839]}, "properties": {"amenity": "fountain"}}, {"type": "Feature", "id": 3030542215, "geometry": {"type": "Point", "coordinates": [0.961508, 42.403383]}, "properties": {"amenity": "fountain", "name": "Font de la Malea"}}, {"type": "Feature", "id": 3219970354, "geometry": {"type": "Point", "coordinates": [0.412644, 42.795306]}, "properties": {"amenity": "fountain"}}, {"type": "Feature", "id": 3219970519, "geometry": {"type": "Point", "coordinates": [0.412926, 42.795541]}, "properties": {"amenity": "fountain"}}, {"type": "Feature", "id": 3219970593, "geometry": {"type": "Point", "coordinates": [0.41281, 42.795852]}, "properties": {"amenity": "fountain"}}, {"type": "Feature", "id": 3219970640, "geometry": {"type": "Point", "coordinates": [0.412821, 42.796268]}, "properties": {"amenity": "fountain"}}, {"type": "Feature", "id": 3706176531, "geometry": {"type": "Point", "coordinates": [0.842717, 42.56206]}, "properties": {"amenity": "fountain"}}, {"type": "Feature", "id": 3883496885, "geometry": {"type": "Point", "coordinates": [0.894511, 42.249698]}, "properties": {"amenity": "fountain", "drinking_water": "no", "name": "Font d'Amont", "wikidata": "Q11922304", "wikipedia": "ca:Font d'Amont (Rivert)"}}, {"type": "Feature", "id": 3883496886, "geometry": {"type": "Point", "coordinates": [0.894933, 42.249403]}, "properties": {"amenity": "fountain", "name": "Font d'Avall", "name:ca": "Font d'Avall"}}, {"type": "Feature", "id": 3883496887, "geometry": {"type": "Point", "coordinates": [0.896947, 42.25019]}, "properties": {"amenity": "fountain", "name": "Font del Puyol"}}, {"type": "Feature", "id": 4319821391, "geometry": {"type": "Point", "coordinates": [0.507304, 42.807074]}, "properties": {"amenity": "fountain", "name": "La Moraine"}}, {"type": "Feature", "id": 4344766645, "geometry": {"type": "Point", "coordinates": [1.256199, 42.642994]}, "properties": {"amenity": "fountain"}}, {"type": "Feature", "id": 5085958104, "geometry": {"type": "Point", "coordinates": [0.595908, 42.782772]}, "properties": {"amenity": "fountain"}}, {"type": "Feature", "id": 5191764919, "geometry": {"type": "Point", "coordinates": [0.833214, 42.906373]}, "properties": {"amenity": "fountain", "description": "Fontaine \u00e0 sec (conduite d'eau coup\u00e9e). Eau disponible \u00e0 la fontaine du Mouchet au sud.", "name": "Fontaine de Pi\u00e9jau"}}, {"type": "Feature", "id": 5207992475, "geometry": {"type": "Point", "coordinates": [0.599945, 42.825808]}, "properties": {"amenity": "fountain", "drinking_water": "no"}}, {"type": "Feature", "id": 7605062906, "geometry": {"type": "Point", "coordinates": [1.242715, 42.820734]}, "properties": {"amenity": "fountain"}}, {"type": "Feature", "id": 7674160567, "geometry": {"type": "Point", "coordinates": [0.547339, 42.806192]}, "properties": {"amenity": "fountain"}}, {"type": "Feature", "id": 7674160568, "geometry": {"type": "Point", "coordinates": [0.546054, 42.805489]}, "properties": {"amenity": "fountain"}}, {"type": "Feature", "id": 7674160569, "geometry": {"type": "Point", "coordinates": [0.546277, 42.806202]}, "properties": {"amenity": "fountain"}}, {"type": "Feature", "id": 7840608510, "geometry": {"type": "Point", "coordinates": [1.065803, 42.324281]}, "properties": {"amenity": "fountain"}}, {"type": "Feature", "id": 8130645715, "geometry": {"type": "Point", "coordinates": [0.739471, 42.874556]}, "properties": {"amenity": "fountain", "name": "Fontaine de sant\u00e9", "salt": "no", "tidal": "no", "wetland": "fountain"}}, {"type": "Feature", "id": 8464112620, "geometry": {"type": "Point", "coordinates": [1.153452, 42.575191]}, "properties": {"addr:district": "Guingueta d'\u00c0neu", "addr:housenumber": "L'Estudi", "addr:place": "Rural Berr\u00f3s", "addr:postcode": "25597", "addr:province": "Lleida", "addr:street": "Carrer Major", "addr:subdistrict": "Berr\u00f3s Juss\u00e0", "addr:suburb": "Guingueta d'\u00c0neu", "amenity": "fountain", "drinking_water": "yes", "fountain": "nasone", "name": "Font de la Pla\u00e7a", "name:ca": "Font de la Pla\u00e7a"}}, {"type": "Feature", "id": 8492987376, "geometry": {"type": "Point", "coordinates": [1.160089, 42.588085]}, "properties": {"amenity": "fountain", "drinking_water": "no", "name": "Font de Posa", "name:ca": "Font de Posa"}}, {"type": "Feature", "id": 8495130162, "geometry": {"type": "Point", "coordinates": [1.153374, 42.57421]}, "properties": {"amenity": "fountain", "drinking_water": "no", "name": "Font Fresca", "name:ca": "Font Fresca"}}, {"type": "Feature", "id": 8599955167, "geometry": {"type": "Point", "coordinates": [1.355944, 42.90183]}, "properties": {"amenity": "fountain"}}, {"type": "Feature", "id": 8736118464, "geometry": {"type": "Point", "coordinates": [0.941792, 42.846574]}, "properties": {"amenity": "fountain"}}, {"type": "Feature", "id": 8789634875, "geometry": {"type": "Point", "coordinates": [0.733175, 42.87894]}, "properties": {"amenity": "fountain", "name": "Hont det gat"}}, {"type": "Feature", "id": 8798248288, "geometry": {"type": "Point", "coordinates": [0.734501, 42.873804]}, "properties": {"amenity": "fountain", "name": "Fontaine du Sarramoulin"}}, {"type": "Feature", "id": 8798250659, "geometry": {"type": "Point", "coordinates": [0.733337, 42.874775]}, "properties": {"amenity": "fountain", "name": "Fontaine du Pas de Moine"}}, {"type": "Feature", "id": 8798250660, "geometry": {"type": "Point", "coordinates": [0.736994, 42.87321]}, "properties": {"amenity": "fountain", "name": "Fontaine du Pigeot"}}, {"type": "Feature", "id": 8798250661, "geometry": {"type": "Point", "coordinates": [0.732609, 42.873172]}, "properties": {"amenity": "fountain"}}, {"type": "Feature", "id": 8820908518, "geometry": {"type": "Point", "coordinates": [0.732455, 42.874201]}, "properties": {"amenity": "fountain"}}, {"type": "Feature", "id": 8820908519, "geometry": {"type": "Point", "coordinates": [0.733123, 42.873807]}, "properties": {"amenity": "fountain"}}, {"type": "Feature", "id": 8895465517, "geometry": {"type": "Point", "coordinates": [0.901869, 42.70725]}, "properties": {"amenity": "fountain"}}, {"type": "Feature", "id": 8897608904, "geometry": {"type": "Point", "coordinates": [0.839832, 42.56012]}, "properties": {"amenity": "fountain"}}, {"type": "Feature", "id": 8897612966, "geometry": {"type": "Point", "coordinates": [0.839372, 42.560601]}, "properties": {"amenity": "fountain"}}, {"type": "Feature", "id": 8897701317, "geometry": {"type": "Point", "coordinates": [0.840759, 42.561082]}, "properties": {"amenity": "fountain"}}, {"type": "Feature", "id": 8951312641, "geometry": {"type": "Point", "coordinates": [0.739725, 42.410478]}, "properties": {"amenity": "fountain"}}, {"type": "Feature", "id": 8998887623, "geometry": {"type": "Point", "coordinates": [1.406464, 42.696317]}, "properties": {"amenity": "fountain"}}, {"type": "Feature", "id": 9008677759, "geometry": {"type": "Point", "coordinates": [0.466067, 42.578404]}, "properties": {"amenity": "fountain"}}, {"type": "Feature", "id": 9008677760, "geometry": {"type": "Point", "coordinates": [0.465051, 42.576393]}, "properties": {"amenity": "fountain"}}, {"type": "Feature", "id": 9207039527, "geometry": {"type": "Point", "coordinates": [1.175609, 42.79321]}, "properties": {"amenity": "fountain", "ele": "1020", "ref:refuges.info": "7749"}}, {"type": "Feature", "id": 9207823852, "geometry": {"type": "Point", "coordinates": [0.931881, 42.804136]}, "properties": {"amenity": "fountain", "name": "Robinet"}}, {"type": "Feature", "id": 9208427162, "geometry": {"type": "Point", "coordinates": [1.26578, 42.893055]}, "properties": {"amenity": "fountain"}}, {"type": "Feature", "id": 9661775087, "geometry": {"type": "Point", "coordinates": [1.280394, 42.896078]}, "properties": {"amenity": "fountain"}}, {"type": "Feature", "id": 9794972090, "geometry": {"type": "Point", "coordinates": [0.615285, 42.815549]}, "properties": {"access": "yes", "amenity": "fountain", "bottle": "yes", "description": "Fontaine.", "drinking_water": "conditional", "fee": "no", "fountain": "drinking"}}, {"type": "Feature", "id": 9795448189, "geometry": {"type": "Point", "coordinates": [0.758308, 42.868097]}, "properties": {"amenity": "fountain", "description": "Fontaine publique.", "drinking_water": "conditional", "fountain": "drinking"}}, {"type": "Feature", "id": 9864067334, "geometry": {"type": "Point", "coordinates": [0.426094, 42.792747]}, "properties": {"amenity": "fountain", "name": "Fontaine"}}, {"type": "Feature", "id": 9956908451, "geometry": {"type": "Point", "coordinates": [0.619787, 42.831274]}, "properties": {"amenity": "fountain", "description": "eau pour b\u00e9tail", "drinking_water": "no"}}, {"type": "Feature", "id": 10049558776, "geometry": {"type": "Point", "coordinates": [1.144945, 42.90839]}, "properties": {"amenity": "fountain", "drinking_water": "no"}}, {"type": "Feature", "id": 10652056205, "geometry": {"type": "Point", "coordinates": [0.604104, 42.78267]}, "properties": {"amenity": "fountain"}}, {"type": "Feature", "id": 11091257067, "geometry": {"type": "Point", "coordinates": [1.031685, 42.921343]}, "properties": {"amenity": "fountain"}}, {"type": "Feature", "id": 11109062420, "geometry": {"type": "Point", "coordinates": [1.097828, 42.699896]}, "properties": {"amenity": "fountain"}}, {"type": "Feature", "id": 11182017202, "geometry": {"type": "Point", "coordinates": [0.596829, 42.787783]}, "properties": {"amenity": "fountain"}}, {"type": "Feature", "id": 11182017203, "geometry": {"type": "Point", "coordinates": [0.597071, 42.787313]}, "properties": {"amenity": "fountain"}}, {"type": "Feature", "id": 11203140160, "geometry": {"type": "Point", "coordinates": [0.57883, 42.798459]}, "properties": {"amenity": "fountain", "drinking_water": "yes", "fountain": "drinking"}}, {"type": "Feature", "id": 11243445073, "geometry": {"type": "Point", "coordinates": [1.278936, 42.61155]}, "properties": {"amenity": "fountain", "description": "Agua no tractada", "name": "Font de la Plana"}}, {"type": "Feature", "id": 11243526274, "geometry": {"type": "Point", "coordinates": [1.272442, 42.613528]}, "properties": {"amenity": "fountain", "description": "Agua no tractada", "name": "Font"}}, {"type": "Feature", "id": 11245229888, "geometry": {"type": "Point", "coordinates": [1.248516, 42.637757]}, "properties": {"amenity": "fountain", "name": "Font"}}, {"type": "Feature", "id": 11245631120, "geometry": {"type": "Point", "coordinates": [1.210406, 42.588026]}, "properties": {"amenity": "fountain", "name": "Font"}}, {"type": "Feature", "id": 11245971498, "geometry": {"type": "Point", "coordinates": [1.211025, 42.587604]}, "properties": {"amenity": "fountain", "name": "Font"}}, {"type": "Feature", "id": 11381517569, "geometry": {"type": "Point", "coordinates": [1.065238, 42.324014]}, "properties": {"amenity": "fountain"}}, {"type": "Feature", "id": 11633855708, "geometry": {"type": "Point", "coordinates": [1.240505, 42.920887]}, "properties": {"amenity": "fountain"}}, {"type": "Feature", "id": 296716120, "geometry": {"type": "LineString", "coordinates": [[0.937087, 42.358481], [0.937101, 42.358484], [0.937096, 42.358497], [0.937082, 42.358494], [0.937087, 42.358481]]}, "properties": {"amenity": "fountain"}}, {"type": "Feature", "id": 296716121, "geometry": {"type": "LineString", "coordinates": [[0.937065, 42.358491], [0.93707, 42.358477], [0.937087, 42.358481], [0.937082, 42.358494], [0.937065, 42.358491]]}, "properties": {"amenity": "fountain"}}, {"type": "Feature", "id": 296716122, "geometry": {"type": "LineString", "coordinates": [[0.937023, 42.358579], [0.937021, 42.358516], [0.937014, 42.358516], [0.937016, 42.35858], [0.937023, 42.358579]]}, "properties": {"amenity": "fountain"}}, {"type": "Feature", "id": 297387594, "geometry": {"type": "LineString", "coordinates": [[1.076183, 42.451694], [1.076259, 42.451691], [1.076258, 42.45168], [1.076182, 42.451684], [1.076183, 42.451694]]}, "properties": {"amenity": "fountain", "name": "Font del Poble", "name:ca": "Font del Poble"}}, {"type": "Feature", "id": 297712895, "geometry": {"type": "LineString", "coordinates": [[1.098548, 42.452006], [1.098576, 42.452018], [1.098596, 42.451991], [1.098568, 42.451979], [1.098548, 42.452006]]}, "properties": {"amenity": "fountain", "name": "Font del Poble", "name:ca": "Font del Poble"}}, {"type": "Feature", "id": 330654459, "geometry": {"type": "LineString", "coordinates": [[1.10438, 42.394657], [1.104365, 42.394659], [1.104352, 42.394655], [1.104343, 42.394647], [1.104342, 42.394636], [1.104348, 42.394627], [1.104361, 42.394621], [1.104376, 42.394622], [1.104388, 42.394628], [1.104393, 42.394638], [1.10439, 42.394649], [1.10438, 42.394657]]}, "properties": {"amenity": "fountain"}}, {"type": "Feature", "id": 522124037, "geometry": {"type": "LineString", "coordinates": [[0.595345, 42.784376], [0.595366, 42.784374], [0.59538, 42.78437], [0.59539, 42.784364], [0.595397, 42.784356], [0.595401, 42.784347], [0.595403, 42.784335], [0.5954, 42.784326], [0.595383, 42.784309], [0.595371, 42.784298], [0.595356, 42.784294], [0.59534, 42.784291], [0.595325, 42.784293], [0.595306, 42.784295], [0.595292, 42.7843], [0.595283, 42.784307], [0.59528, 42.784323], [0.59528, 42.784339], [0.595287, 42.78435], [0.595299, 42.784362], [0.595323, 42.784371], [0.595345, 42.784376]]}, "properties": {"amenity": "fountain"}}, {"type": "Feature", "id": 540368986, "geometry": {"type": "LineString", "coordinates": [[1.322782, 42.927587], [1.322785, 42.927581], [1.32282, 42.927596], [1.322825, 42.92759], [1.322875, 42.927614], [1.322868, 42.927624], [1.322782, 42.927587]]}, "properties": {"amenity": "fountain", "source": "cadastre-dgi-fr source : Direction G\u00e9n\u00e9rale des Finances Publiques - Cadastre. Mise \u00e0 jour : 2017"}}, {"type": "Feature", "id": 544819269, "geometry": {"type": "LineString", "coordinates": [[0.901277, 42.706761], [0.901205, 42.706774], [0.901197, 42.706747], [0.901267, 42.706735], [0.901277, 42.706761]]}, "properties": {"amenity": "fountain"}}, {"type": "Feature", "id": 589413522, "geometry": {"type": "LineString", "coordinates": [[1.378148, 42.847836], [1.378194, 42.847811], [1.378204, 42.84782], [1.378218, 42.847805], [1.378225, 42.847807], [1.378208, 42.847824], [1.37816, 42.84785], [1.378148, 42.847836]]}, "properties": {"amenity": "fountain", "description": "Lavoir couvert"}}, {"type": "Feature", "id": 849928814, "geometry": {"type": "LineString", "coordinates": [[0.692604, 42.785183], [0.692593, 42.785185], [0.692584, 42.785189], [0.692577, 42.785195], [0.692573, 42.785203], [0.692573, 42.785211], [0.692577, 42.785218], [0.692585, 42.785224], [0.692593, 42.785228], [0.692603, 42.785229], [0.692613, 42.785229], [0.692622, 42.785226], [0.692629, 42.785221], [0.692634, 42.785214], [0.692636, 42.785207], [0.692635, 42.7852], [0.692631, 42.785193], [0.692624, 42.785188], [0.692615, 42.785184], [0.692604, 42.785183]]}, "properties": {"amenity": "fountain"}}, {"type": "Feature", "id": 1022330803, "geometry": {"type": "LineString", "coordinates": [[0.506215, 42.811074], [0.506226, 42.811067], [0.506169, 42.811025], [0.506158, 42.811032], [0.506215, 42.811074]]}, "properties": {"amenity": "fountain"}}, {"type": "Feature", "id": 1022330805, "geometry": {"type": "LineString", "coordinates": [[0.506579, 42.811395], [0.5066, 42.811417], [0.50661, 42.811438], [0.506599, 42.811442], [0.506565, 42.811401], [0.506579, 42.811395]]}, "properties": {"amenity": "fountain"}}, {"type": "Feature", "id": 1132437080, "geometry": {"type": "LineString", "coordinates": [[1.177478, 42.87115], [1.17746, 42.871149], [1.177467, 42.871114], [1.177486, 42.871114], [1.177478, 42.87115]]}, "properties": {"amenity": "fountain"}}, {"type": "Feature", "id": 1201091894, "geometry": {"type": "LineString", "coordinates": [[1.20146, 42.864015], [1.20147, 42.864013], [1.201478, 42.864006], [1.201479, 42.864001], [1.201476, 42.863994], [1.201471, 42.86399], [1.201461, 42.863988], [1.201453, 42.863989], [1.201445, 42.863995], [1.201442, 42.864001], [1.201445, 42.864008], [1.20145, 42.864012], [1.20146, 42.864015]]}, "properties": {"amenity": "fountain", "drinking_water": "yes"}}]}