{"type": "FeatureCollection", "features": [{"type": "Feature", "id": 1338414067, "geometry": {"type": "Point", "coordinates": [1.246809, 42.905008]}, "properties": {"amenity": "drinking_water"}}, {"type": "Feature", "id": 1462752556, "geometry": {"type": "Point", "coordinates": [0.715381, 42.835391]}, "properties": {"amenity": "drinking_water"}}, {"type": "Feature", "id": 1469160872, "geometry": {"type": "Point", "coordinates": [1.12972, 42.411047]}, "properties": {"amenity": "drinking_water"}}, {"type": "Feature", "id": 1469265660, "geometry": {"type": "Point", "coordinates": [1.131333, 42.412456]}, "properties": {"amenity": "drinking_water"}}, {"type": "Feature", "id": 1476044187, "geometry": {"type": "Point", "coordinates": [1.130879, 42.411164]}, "properties": {"amenity": "drinking_water"}}, {"type": "Feature", "id": 1476044203, "geometry": {"type": "Point", "coordinates": [1.131438, 42.411469]}, "properties": {"amenity": "drinking_water"}}, {"type": "Feature", "id": 1852592355, "geometry": {"type": "Point", "coordinates": [0.893543, 42.928171]}, "properties": {"amenity": "drinking_water"}}, {"type": "Feature", "id": 1854656774, "geometry": {"type": "Point", "coordinates": [0.894741, 42.928714]}, "properties": {"amenity": "drinking_water"}}, {"type": "Feature", "id": 1854656781, "geometry": {"type": "Point", "coordinates": [0.895388, 42.928798]}, "properties": {"amenity": "drinking_water"}}, {"type": "Feature", "id": 1854656784, "geometry": {"type": "Point", "coordinates": [0.894761, 42.929299]}, "properties": {"amenity": "drinking_water"}}, {"type": "Feature", "id": 1861440663, "geometry": {"type": "Point", "coordinates": [0.650324, 42.669121]}, "properties": {"amenity": "drinking_water"}}, {"type": "Feature", "id": 1899095257, "geometry": {"type": "Point", "coordinates": [0.489581, 42.512351]}, "properties": {"amenity": "drinking_water"}}, {"type": "Feature", "id": 1905747190, "geometry": {"type": "Point", "coordinates": [0.516266, 42.600074]}, "properties": {"amenity": "drinking_water"}}, {"type": "Feature", "id": 2033132231, "geometry": {"type": "Point", "coordinates": [0.452069, 42.545093]}, "properties": {"amenity": "drinking_water"}}, {"type": "Feature", "id": 2361417695, "geometry": {"type": "Point", "coordinates": [1.212677, 42.475597]}, "properties": {"amenity": "drinking_water"}}, {"type": "Feature", "id": 2400162686, "geometry": {"type": "Point", "coordinates": [0.716785, 42.476688]}, "properties": {"amenity": "drinking_water", "name": "Font dels Coms"}}, {"type": "Feature", "id": 2405303815, "geometry": {"type": "Point", "coordinates": [1.263362, 42.79901]}, "properties": {"amenity": "drinking_water"}}, {"type": "Feature", "id": 2415818323, "geometry": {"type": "Point", "coordinates": [0.516093, 42.809136]}, "properties": {"amenity": "drinking_water", "drinking_water": "yes", "mapillary": "495925934882759"}}, {"type": "Feature", "id": 2432413421, "geometry": {"type": "Point", "coordinates": [0.761526, 42.919546]}, "properties": {"amenity": "drinking_water", "name": "Fontaine du Col de Ment\u00e9", "ref:refuges.info": "7748", "wheelchair": "no"}}, {"type": "Feature", "id": 2439198390, "geometry": {"type": "Point", "coordinates": [1.201461, 42.864001]}, "properties": {"amenity": "drinking_water"}}, {"type": "Feature", "id": 2470792015, "geometry": {"type": "Point", "coordinates": [0.796856, 42.702588]}, "properties": {"amenity": "drinking_water"}}, {"type": "Feature", "id": 2473223553, "geometry": {"type": "Point", "coordinates": [0.847938, 42.519775]}, "properties": {"amenity": "drinking_water"}}, {"type": "Feature", "id": 2475291958, "geometry": {"type": "Point", "coordinates": [0.960259, 42.343928]}, "properties": {"amenity": "drinking_water", "name": "Font de la Pla\u00e7a", "name:ca": "Font de la Pla\u00e7a"}}, {"type": "Feature", "id": 2475291963, "geometry": {"type": "Point", "coordinates": [0.960215, 42.344744]}, "properties": {"amenity": "drinking_water"}}, {"type": "Feature", "id": 2476378679, "geometry": {"type": "Point", "coordinates": [0.873336, 42.701439]}, "properties": {"amenity": "drinking_water"}}, {"type": "Feature", "id": 2476380036, "geometry": {"type": "Point", "coordinates": [0.831183, 42.699298]}, "properties": {"amenity": "drinking_water"}}, {"type": "Feature", "id": 2476381538, "geometry": {"type": "Point", "coordinates": [0.808924, 42.697673]}, "properties": {"amenity": "drinking_water", "name": "Hont de Cal"}}, {"type": "Feature", "id": 2555353636, "geometry": {"type": "Point", "coordinates": [1.34793, 42.890249]}, "properties": {"amenity": "drinking_water"}}, {"type": "Feature", "id": 2617102994, "geometry": {"type": "Point", "coordinates": [0.49, 42.476804]}, "properties": {"amenity": "drinking_water"}}, {"type": "Feature", "id": 2617104830, "geometry": {"type": "Point", "coordinates": [0.473155, 42.468653]}, "properties": {"amenity": "drinking_water"}}, {"type": "Feature", "id": 2639803775, "geometry": {"type": "Point", "coordinates": [0.493526, 42.512208]}, "properties": {"amenity": "drinking_water"}}, {"type": "Feature", "id": 2742230417, "geometry": {"type": "Point", "coordinates": [0.740486, 42.407956]}, "properties": {"amenity": "drinking_water"}}, {"type": "Feature", "id": 2809095123, "geometry": {"type": "Point", "coordinates": [0.806886, 42.69778]}, "properties": {"amenity": "drinking_water", "bottle": "yes", "image": "https://i.imgur.com/a2P6m8Q.jpg"}}, {"type": "Feature", "id": 2809095125, "geometry": {"type": "Point", "coordinates": [0.80746, 42.697949]}, "properties": {"amenity": "drinking_water", "bottle": "yes", "image": "https://i.imgur.com/HH5ntBN.jpg"}}, {"type": "Feature", "id": 2813810398, "geometry": {"type": "Point", "coordinates": [0.720759, 42.737354]}, "properties": {"amenity": "drinking_water"}}, {"type": "Feature", "id": 2813811128, "geometry": {"type": "Point", "coordinates": [0.718595, 42.737931]}, "properties": {"amenity": "drinking_water"}}, {"type": "Feature", "id": 2813811132, "geometry": {"type": "Point", "coordinates": [0.719208, 42.737949]}, "properties": {"amenity": "drinking_water"}}, {"type": "Feature", "id": 2813811177, "geometry": {"type": "Point", "coordinates": [0.716614, 42.834837]}, "properties": {"amenity": "drinking_water"}}, {"type": "Feature", "id": 2830339570, "geometry": {"type": "Point", "coordinates": [0.7952, 42.700084]}, "properties": {"amenity": "drinking_water"}}, {"type": "Feature", "id": 2830339577, "geometry": {"type": "Point", "coordinates": [0.794567, 42.700504]}, "properties": {"amenity": "drinking_water"}}, {"type": "Feature", "id": 2830339580, "geometry": {"type": "Point", "coordinates": [0.7949, 42.700982]}, "properties": {"amenity": "drinking_water"}}, {"type": "Feature", "id": 2830339581, "geometry": {"type": "Point", "coordinates": [0.794371, 42.701036]}, "properties": {"amenity": "drinking_water"}}, {"type": "Feature", "id": 2833136000, "geometry": {"type": "Point", "coordinates": [0.807852, 42.707732]}, "properties": {"amenity": "drinking_water"}}, {"type": "Feature", "id": 2874236882, "geometry": {"type": "Point", "coordinates": [1.419646, 42.367972]}, "properties": {"amenity": "drinking_water"}}, {"type": "Feature", "id": 2874237117, "geometry": {"type": "Point", "coordinates": [1.418947, 42.369405]}, "properties": {"amenity": "drinking_water"}}, {"type": "Feature", "id": 2959148218, "geometry": {"type": "Point", "coordinates": [0.548579, 42.806232]}, "properties": {"amenity": "drinking_water"}}, {"type": "Feature", "id": 2959614406, "geometry": {"type": "Point", "coordinates": [0.609453, 42.808517]}, "properties": {"amenity": "drinking_water"}}, {"type": "Feature", "id": 2990990601, "geometry": {"type": "Point", "coordinates": [0.415261, 42.819978]}, "properties": {"amenity": "drinking_water"}}, {"type": "Feature", "id": 3005411281, "geometry": {"type": "Point", "coordinates": [0.913678, 42.362819]}, "properties": {"amenity": "drinking_water", "name": "Font del Poble", "name:ca": "Font del Poble"}}, {"type": "Feature", "id": 3029433268, "geometry": {"type": "Point", "coordinates": [1.142507, 42.270557]}, "properties": {"amenity": "drinking_water"}}, {"type": "Feature", "id": 3294593401, "geometry": {"type": "Point", "coordinates": [0.820799, 42.499062]}, "properties": {"amenity": "drinking_water"}}, {"type": "Feature", "id": 3350221800, "geometry": {"type": "Point", "coordinates": [1.047778, 42.328758]}, "properties": {"amenity": "drinking_water", "name": "Font de la Pla\u00e7a", "name:ca": "Font de la Pla\u00e7a"}}, {"type": "Feature", "id": 3514800540, "geometry": {"type": "Point", "coordinates": [1.344856, 42.888772]}, "properties": {"amenity": "drinking_water"}}, {"type": "Feature", "id": 3514807364, "geometry": {"type": "Point", "coordinates": [1.346621, 42.889385]}, "properties": {"amenity": "drinking_water"}}, {"type": "Feature", "id": 3710244683, "geometry": {"type": "Point", "coordinates": [0.661693, 42.767455]}, "properties": {"amenity": "drinking_water"}}, {"type": "Feature", "id": 3710257943, "geometry": {"type": "Point", "coordinates": [0.850094, 42.362158]}, "properties": {"amenity": "drinking_water"}}, {"type": "Feature", "id": 3710257944, "geometry": {"type": "Point", "coordinates": [0.717017, 42.474737]}, "properties": {"amenity": "drinking_water"}}, {"type": "Feature", "id": 3722853438, "geometry": {"type": "Point", "coordinates": [1.080955, 42.660059]}, "properties": {"amenity": "drinking_water"}}, {"type": "Feature", "id": 3998656188, "geometry": {"type": "Point", "coordinates": [1.29756, 42.537968]}, "properties": {"amenity": "drinking_water"}}, {"type": "Feature", "id": 4266035100, "geometry": {"type": "Point", "coordinates": [1.412922, 42.399774]}, "properties": {"amenity": "drinking_water", "designation": "Font de la Torre", "source": "GPS"}}, {"type": "Feature", "id": 4266716788, "geometry": {"type": "Point", "coordinates": [1.422574, 42.412421]}, "properties": {"amenity": "drinking_water", "designation": "Font de la Baralla"}}, {"type": "Feature", "id": 4272202375, "geometry": {"type": "Point", "coordinates": [0.85373, 42.763378]}, "properties": {"amenity": "drinking_water"}}, {"type": "Feature", "id": 4290305853, "geometry": {"type": "Point", "coordinates": [1.199017, 42.864722]}, "properties": {"amenity": "drinking_water"}}, {"type": "Feature", "id": 4345701989, "geometry": {"type": "Point", "coordinates": [0.475672, 42.503981]}, "properties": {"amenity": "drinking_water", "drinking_water": "yes", "name": "Fuente de El Run"}}, {"type": "Feature", "id": 4348442490, "geometry": {"type": "Point", "coordinates": [0.563453, 42.815841]}, "properties": {"amenity": "drinking_water"}}, {"type": "Feature", "id": 4348442491, "geometry": {"type": "Point", "coordinates": [0.486395, 42.813214]}, "properties": {"amenity": "drinking_water"}}, {"type": "Feature", "id": 4355129224, "geometry": {"type": "Point", "coordinates": [0.67578, 42.457225]}, "properties": {"amenity": "drinking_water"}}, {"type": "Feature", "id": 4391685231, "geometry": {"type": "Point", "coordinates": [0.499699, 42.730541]}, "properties": {"amenity": "drinking_water", "description": "eau non trait\u00e9e", "source": "local knowledge"}}, {"type": "Feature", "id": 4475519940, "geometry": {"type": "Point", "coordinates": [0.96883, 42.250541]}, "properties": {"amenity": "drinking_water"}}, {"type": "Feature", "id": 4809433951, "geometry": {"type": "Point", "coordinates": [0.59703, 42.397694]}, "properties": {"amenity": "drinking_water"}}, {"type": "Feature", "id": 4881995140, "geometry": {"type": "Point", "coordinates": [1.027976, 42.270941]}, "properties": {"amenity": "drinking_water", "name": "Font de la Figuereta", "name:ca": "Font de la Figuereta"}}, {"type": "Feature", "id": 4921297841, "geometry": {"type": "Point", "coordinates": [0.542582, 42.301663]}, "properties": {"amenity": "drinking_water", "drinking_water": "no"}}, {"type": "Feature", "id": 4939754522, "geometry": {"type": "Point", "coordinates": [0.50557, 42.796031]}, "properties": {"amenity": "drinking_water"}}, {"type": "Feature", "id": 4995237066, "geometry": {"type": "Point", "coordinates": [1.085934, 42.679022]}, "properties": {"amenity": "drinking_water"}}, {"type": "Feature", "id": 4995487100, "geometry": {"type": "Point", "coordinates": [1.125106, 42.626633]}, "properties": {"amenity": "drinking_water", "check_date": "2023-08-28", "man_made": "water_tap"}}, {"type": "Feature", "id": 4995513856, "geometry": {"type": "Point", "coordinates": [1.123815, 42.627294]}, "properties": {"amenity": "drinking_water", "check_date": "2023-08-28", "man_made": "water_tap"}}, {"type": "Feature", "id": 5041547622, "geometry": {"type": "Point", "coordinates": [1.149679, 42.646877]}, "properties": {"amenity": "drinking_water", "name": "Font de la Morera", "name:ca": "Font de la Morera"}}, {"type": "Feature", "id": 5041547623, "geometry": {"type": "Point", "coordinates": [1.148149, 42.647625]}, "properties": {"amenity": "drinking_water"}}, {"type": "Feature", "id": 5098267661, "geometry": {"type": "Point", "coordinates": [1.097241, 42.452424]}, "properties": {"amenity": "drinking_water"}}, {"type": "Feature", "id": 5098275834, "geometry": {"type": "Point", "coordinates": [1.135187, 42.443684]}, "properties": {"amenity": "drinking_water", "man_made": "water_tap"}}, {"type": "Feature", "id": 5104112221, "geometry": {"type": "Point", "coordinates": [1.065307, 42.324169]}, "properties": {"amenity": "drinking_water"}}, {"type": "Feature", "id": 5104126043, "geometry": {"type": "Point", "coordinates": [1.065761, 42.324246]}, "properties": {"amenity": "drinking_water"}}, {"type": "Feature", "id": 5255578069, "geometry": {"type": "Point", "coordinates": [1.085789, 42.360375]}, "properties": {"amenity": "drinking_water"}}, {"type": "Feature", "id": 5319307230, "geometry": {"type": "Point", "coordinates": [0.742659, 42.407843]}, "properties": {"amenity": "drinking_water"}}, {"type": "Feature", "id": 5319310729, "geometry": {"type": "Point", "coordinates": [0.741077, 42.409313]}, "properties": {"amenity": "drinking_water"}}, {"type": "Feature", "id": 5380876338, "geometry": {"type": "Point", "coordinates": [0.752793, 42.389984]}, "properties": {"amenity": "drinking_water"}}, {"type": "Feature", "id": 5696890476, "geometry": {"type": "Point", "coordinates": [0.986601, 42.244865]}, "properties": {"amenity": "drinking_water"}}, {"type": "Feature", "id": 5733816034, "geometry": {"type": "Point", "coordinates": [1.388075, 42.625054]}, "properties": {"amenity": "drinking_water"}}, {"type": "Feature", "id": 5812101534, "geometry": {"type": "Point", "coordinates": [0.619997, 42.832305]}, "properties": {"amenity": "drinking_water", "drinking_water": "yes", "ref:refuges.info": "8650"}}, {"type": "Feature", "id": 5817829427, "geometry": {"type": "Point", "coordinates": [0.663569, 42.458465]}, "properties": {"amenity": "drinking_water"}}, {"type": "Feature", "id": 5817829428, "geometry": {"type": "Point", "coordinates": [0.662907, 42.497584]}, "properties": {"amenity": "drinking_water"}}, {"type": "Feature", "id": 5827510359, "geometry": {"type": "Point", "coordinates": [0.888193, 42.857227]}, "properties": {"amenity": "drinking_water"}}, {"type": "Feature", "id": 5848412077, "geometry": {"type": "Point", "coordinates": [1.088137, 42.575863]}, "properties": {"amenity": "drinking_water"}}, {"type": "Feature", "id": 5880182696, "geometry": {"type": "Point", "coordinates": [0.99427, 42.327438]}, "properties": {"amenity": "drinking_water"}}, {"type": "Feature", "id": 5885994973, "geometry": {"type": "Point", "coordinates": [0.959061, 42.342102]}, "properties": {"amenity": "drinking_water"}}, {"type": "Feature", "id": 5911865514, "geometry": {"type": "Point", "coordinates": [1.193726, 42.291922]}, "properties": {"amenity": "drinking_water"}}, {"type": "Feature", "id": 5913504785, "geometry": {"type": "Point", "coordinates": [1.19252, 42.290621]}, "properties": {"amenity": "drinking_water"}}, {"type": "Feature", "id": 5913504786, "geometry": {"type": "Point", "coordinates": [1.192178, 42.290309]}, "properties": {"amenity": "drinking_water"}}, {"type": "Feature", "id": 5913504787, "geometry": {"type": "Point", "coordinates": [1.193301, 42.290266]}, "properties": {"amenity": "drinking_water"}}, {"type": "Feature", "id": 5924346585, "geometry": {"type": "Point", "coordinates": [0.794136, 42.700357]}, "properties": {"amenity": "drinking_water"}}, {"type": "Feature", "id": 5936912934, "geometry": {"type": "Point", "coordinates": [0.902541, 42.710701]}, "properties": {"access": "yes", "amenity": "drinking_water", "fee": "no"}}, {"type": "Feature", "id": 5988227126, "geometry": {"type": "Point", "coordinates": [0.881144, 42.35982]}, "properties": {"amenity": "drinking_water"}}, {"type": "Feature", "id": 6213044284, "geometry": {"type": "Point", "coordinates": [1.14004, 42.368287]}, "properties": {"amenity": "drinking_water", "description": "No tractada sanitariament", "indoor": "yes"}}, {"type": "Feature", "id": 6213299856, "geometry": {"type": "Point", "coordinates": [1.161704, 42.379558]}, "properties": {"amenity": "drinking_water", "indoor": "yes"}}, {"type": "Feature", "id": 6317734771, "geometry": {"type": "Point", "coordinates": [0.59001, 42.790157]}, "properties": {"amenity": "drinking_water", "man_made": "water_tap"}}, {"type": "Feature", "id": 6320613005, "geometry": {"type": "Point", "coordinates": [0.58813, 42.791335]}, "properties": {"amenity": "drinking_water", "man_made": "water_tap"}}, {"type": "Feature", "id": 6320647540, "geometry": {"type": "Point", "coordinates": [0.588201, 42.790996]}, "properties": {"amenity": "drinking_water", "man_made": "water_tap"}}, {"type": "Feature", "id": 6323121126, "geometry": {"type": "Point", "coordinates": [0.814848, 42.494022]}, "properties": {"amenity": "drinking_water", "name": "Font dels Bets"}}, {"type": "Feature", "id": 6533774059, "geometry": {"type": "Point", "coordinates": [1.210205, 42.58754]}, "properties": {"amenity": "drinking_water", "name": "font", "name:ca": "font"}}, {"type": "Feature", "id": 6562683185, "geometry": {"type": "Point", "coordinates": [1.326715, 42.588668]}, "properties": {"amenity": "drinking_water"}}, {"type": "Feature", "id": 6562683285, "geometry": {"type": "Point", "coordinates": [1.279775, 42.527295]}, "properties": {"amenity": "drinking_water"}}, {"type": "Feature", "id": 6564391086, "geometry": {"type": "Point", "coordinates": [0.871765, 42.699165]}, "properties": {"amenity": "drinking_water", "wikimedia_commons": "File:Fountain_Arties_Spain.jpg"}}, {"type": "Feature", "id": 6564488686, "geometry": {"type": "Point", "coordinates": [0.930928, 42.698991]}, "properties": {"amenity": "drinking_water"}}, {"type": "Feature", "id": 6571998287, "geometry": {"type": "Point", "coordinates": [0.872642, 42.700386]}, "properties": {"amenity": "drinking_water"}}, {"type": "Feature", "id": 6572004186, "geometry": {"type": "Point", "coordinates": [0.903645, 42.70546]}, "properties": {"amenity": "drinking_water"}}, {"type": "Feature", "id": 6602481018, "geometry": {"type": "Point", "coordinates": [0.409257, 42.801931]}, "properties": {"amenity": "drinking_water", "man_made": "water_tap"}}, {"type": "Feature", "id": 6644550486, "geometry": {"type": "Point", "coordinates": [0.854694, 42.634634]}, "properties": {"amenity": "drinking_water"}}, {"type": "Feature", "id": 6646932060, "geometry": {"type": "Point", "coordinates": [1.088893, 42.575706]}, "properties": {"amenity": "drinking_water"}}, {"type": "Feature", "id": 6647692118, "geometry": {"type": "Point", "coordinates": [1.148635, 42.591349]}, "properties": {"amenity": "drinking_water"}}, {"type": "Feature", "id": 6718118486, "geometry": {"type": "Point", "coordinates": [0.53866, 42.593123]}, "properties": {"amenity": "drinking_water"}}, {"type": "Feature", "id": 6718118487, "geometry": {"type": "Point", "coordinates": [0.53907, 42.591482]}, "properties": {"amenity": "drinking_water"}}, {"type": "Feature", "id": 6723210401, "geometry": {"type": "Point", "coordinates": [1.072324, 42.797348]}, "properties": {"amenity": "drinking_water"}}, {"type": "Feature", "id": 6738522902, "geometry": {"type": "Point", "coordinates": [0.777851, 42.731335]}, "properties": {"amenity": "drinking_water", "fee": "no"}}, {"type": "Feature", "id": 6742123582, "geometry": {"type": "Point", "coordinates": [1.11512, 42.384141]}, "properties": {"amenity": "drinking_water"}}, {"type": "Feature", "id": 6742171749, "geometry": {"type": "Point", "coordinates": [1.10385, 42.401072]}, "properties": {"amenity": "drinking_water"}}, {"type": "Feature", "id": 6787806085, "geometry": {"type": "Point", "coordinates": [1.06574, 42.324229]}, "properties": {"amenity": "drinking_water", "artwork_type": "sculpture", "material": "metal", "name": "gall fer", "name:ca": "gall fer", "tourism": "artwork"}}, {"type": "Feature", "id": 6788553585, "geometry": {"type": "Point", "coordinates": [1.210216, 42.495731]}, "properties": {"amenity": "drinking_water", "name": "Font del Portal", "name:ca": "Font del Portal"}}, {"type": "Feature", "id": 6789030998, "geometry": {"type": "Point", "coordinates": [1.317632, 42.548748]}, "properties": {"amenity": "drinking_water"}}, {"type": "Feature", "id": 6790154086, "geometry": {"type": "Point", "coordinates": [1.273609, 42.504072]}, "properties": {"amenity": "drinking_water"}}, {"type": "Feature", "id": 6790515186, "geometry": {"type": "Point", "coordinates": [1.264638, 42.494856]}, "properties": {"amenity": "drinking_water"}}, {"type": "Feature", "id": 6790725186, "geometry": {"type": "Point", "coordinates": [1.122966, 42.629115]}, "properties": {"amenity": "drinking_water"}}, {"type": "Feature", "id": 6792391185, "geometry": {"type": "Point", "coordinates": [0.990866, 42.465711]}, "properties": {"amenity": "drinking_water"}}, {"type": "Feature", "id": 6792769886, "geometry": {"type": "Point", "coordinates": [0.987844, 42.455213]}, "properties": {"amenity": "drinking_water"}}, {"type": "Feature", "id": 7168726257, "geometry": {"type": "Point", "coordinates": [0.54705, 42.806675]}, "properties": {"access": "yes", "amenity": "drinking_water", "fee": "no", "wheelchair": "yes", "wikimedia_commons": "File:Saint-Aventin fontaine abreuvoir.JPG"}}, {"type": "Feature", "id": 7578503100, "geometry": {"type": "Point", "coordinates": [0.95816, 42.893755]}, "properties": {"amenity": "drinking_water"}}, {"type": "Feature", "id": 7674160543, "geometry": {"type": "Point", "coordinates": [0.546676, 42.80666]}, "properties": {"amenity": "drinking_water", "fixme": "fontaine dans le mur. V\u00e9rifier si l'eau est potable", "wikimedia_commons": "File:Saint-Aventin fontaine.JPG"}}, {"type": "Feature", "id": 7674160544, "geometry": {"type": "Point", "coordinates": [0.54646, 42.806531]}, "properties": {"amenity": "drinking_water", "fixme": "fontaine dans le mur. V\u00e9rifier si l'eau est potable"}}, {"type": "Feature", "id": 7674160551, "geometry": {"type": "Point", "coordinates": [0.544798, 42.806495]}, "properties": {"amenity": "drinking_water", "fixme": "fontaine dans le mur. V\u00e9rifier si l'eau est potable"}}, {"type": "Feature", "id": 7740619879, "geometry": {"type": "Point", "coordinates": [1.306834, 42.521201]}, "properties": {"amenity": "drinking_water"}}, {"type": "Feature", "id": 7750201903, "geometry": {"type": "Point", "coordinates": [0.522502, 42.606547]}, "properties": {"amenity": "drinking_water"}}, {"type": "Feature", "id": 7769339817, "geometry": {"type": "Point", "coordinates": [0.856454, 42.873032]}, "properties": {"amenity": "drinking_water"}}, {"type": "Feature", "id": 7771974304, "geometry": {"type": "Point", "coordinates": [0.903875, 42.70773]}, "properties": {"amenity": "drinking_water"}}, {"type": "Feature", "id": 7771974584, "geometry": {"type": "Point", "coordinates": [0.692622, 42.784956]}, "properties": {"amenity": "drinking_water", "man_made": "water_tap"}}, {"type": "Feature", "id": 7771993577, "geometry": {"type": "Point", "coordinates": [0.71242, 42.757045]}, "properties": {"amenity": "drinking_water"}}, {"type": "Feature", "id": 7771994485, "geometry": {"type": "Point", "coordinates": [0.692981, 42.78577]}, "properties": {"amenity": "drinking_water"}}, {"type": "Feature", "id": 7773386251, "geometry": {"type": "Point", "coordinates": [1.272047, 42.777213]}, "properties": {"amenity": "drinking_water"}}, {"type": "Feature", "id": 7778257992, "geometry": {"type": "Point", "coordinates": [0.598073, 42.470508]}, "properties": {"amenity": "drinking_water", "name": "Fuente en la plaza"}}, {"type": "Feature", "id": 7778760243, "geometry": {"type": "Point", "coordinates": [0.795489, 42.702106]}, "properties": {"amenity": "drinking_water"}}, {"type": "Feature", "id": 7778773258, "geometry": {"type": "Point", "coordinates": [0.795025, 42.701555]}, "properties": {"amenity": "drinking_water"}}, {"type": "Feature", "id": 7780178675, "geometry": {"type": "Point", "coordinates": [0.707216, 42.447987]}, "properties": {"amenity": "drinking_water", "name": "Water at tourist information"}}, {"type": "Feature", "id": 7781245897, "geometry": {"type": "Point", "coordinates": [0.96658, 42.247431]}, "properties": {"amenity": "drinking_water"}}, {"type": "Feature", "id": 7784119333, "geometry": {"type": "Point", "coordinates": [1.132304, 42.414999]}, "properties": {"amenity": "drinking_water"}}, {"type": "Feature", "id": 7797048744, "geometry": {"type": "Point", "coordinates": [0.528046, 42.604187]}, "properties": {"amenity": "drinking_water"}}, {"type": "Feature", "id": 7797048745, "geometry": {"type": "Point", "coordinates": [0.527471, 42.603013]}, "properties": {"amenity": "drinking_water"}}, {"type": "Feature", "id": 7802022743, "geometry": {"type": "Point", "coordinates": [0.934473, 42.834387]}, "properties": {"amenity": "drinking_water"}}, {"type": "Feature", "id": 7802032636, "geometry": {"type": "Point", "coordinates": [0.968499, 42.826833]}, "properties": {"amenity": "drinking_water"}}, {"type": "Feature", "id": 7802032640, "geometry": {"type": "Point", "coordinates": [0.986813, 42.83338]}, "properties": {"amenity": "drinking_water", "name": "Fontaine parking de la Pucelle", "ref:refuges.info": "7758"}}, {"type": "Feature", "id": 7803511275, "geometry": {"type": "Point", "coordinates": [1.22789, 42.824674]}, "properties": {"amenity": "drinking_water"}}, {"type": "Feature", "id": 7847373341, "geometry": {"type": "Point", "coordinates": [0.986928, 42.455037]}, "properties": {"amenity": "drinking_water", "start_date": "1937"}}, {"type": "Feature", "id": 7847373342, "geometry": {"type": "Point", "coordinates": [0.987183, 42.455095]}, "properties": {"amenity": "drinking_water", "start_date": "1937"}}, {"type": "Feature", "id": 7847373343, "geometry": {"type": "Point", "coordinates": [0.988171, 42.454851]}, "properties": {"amenity": "drinking_water"}}, {"type": "Feature", "id": 7872701031, "geometry": {"type": "Point", "coordinates": [1.244591, 42.515107]}, "properties": {"amenity": "drinking_water", "covered": "yes"}}, {"type": "Feature", "id": 7880732840, "geometry": {"type": "Point", "coordinates": [0.943196, 42.398599]}, "properties": {"amenity": "drinking_water"}}, {"type": "Feature", "id": 7880732841, "geometry": {"type": "Point", "coordinates": [0.764532, 42.421441]}, "properties": {"amenity": "drinking_water", "name": "Font de Sapena", "name:ca": "Font de Sapena"}}, {"type": "Feature", "id": 7882128760, "geometry": {"type": "Point", "coordinates": [1.083712, 42.533325]}, "properties": {"amenity": "drinking_water", "name": "Font Blanca", "name:ca": "Font Blanca"}}, {"type": "Feature", "id": 7882145846, "geometry": {"type": "Point", "coordinates": [0.771234, 42.472872]}, "properties": {"amenity": "drinking_water"}}, {"type": "Feature", "id": 7968869155, "geometry": {"type": "Point", "coordinates": [1.229761, 42.827961]}, "properties": {"amenity": "drinking_water"}}, {"type": "Feature", "id": 8335368027, "geometry": {"type": "Point", "coordinates": [0.901635, 42.277161]}, "properties": {"alt_name": "Font Fresca", "alt_name:ca": "Font Fresca", "amenity": "drinking_water", "description": "Surg\u00e8ncia activa de 16 metres de recorregut Conglomerats", "ele": "960", "name": "Font de Serradell", "name:ca": "Font de Serradell", "natural": "cave_entrance", "source": "survey;gps;local knowledge"}}, {"type": "Feature", "id": 8355429683, "geometry": {"type": "Point", "coordinates": [0.925797, 42.276534]}, "properties": {"amenity": "drinking_water", "bottle": "yes", "covered": "no", "fee": "no", "indoor": "no", "source": "survey;gps", "wheelchair": "no"}}, {"type": "Feature", "id": 8376905245, "geometry": {"type": "Point", "coordinates": [0.542582, 42.303754]}, "properties": {"amenity": "drinking_water"}}, {"type": "Feature", "id": 8384699410, "geometry": {"type": "Point", "coordinates": [0.864788, 42.37894]}, "properties": {"access": "yes", "amenity": "drinking_water", "bottle": "no", "fee": "no", "source": "survey;gps", "wheelchair": "no"}}, {"type": "Feature", "id": 8426743134, "geometry": {"type": "Point", "coordinates": [0.830837, 42.271799]}, "properties": {"access": "yes", "amenity": "drinking_water", "fee": "no", "source": "survey"}}, {"type": "Feature", "id": 8426743156, "geometry": {"type": "Point", "coordinates": [0.84111, 42.276731]}, "properties": {"access": "yes", "amenity": "drinking_water", "fee": "no", "name": "Font dels Capellans", "name:ca": "Font dels Capellans", "source": "survey"}}, {"type": "Feature", "id": 8426743158, "geometry": {"type": "Point", "coordinates": [0.844507, 42.281299]}, "properties": {"access": "yes", "amenity": "drinking_water", "fee": "no", "source": "survey"}}, {"type": "Feature", "id": 8426743159, "geometry": {"type": "Point", "coordinates": [0.844065, 42.285937]}, "properties": {"access": "permissive", "amenity": "drinking_water", "fee": "no", "source": "survey"}}, {"type": "Feature", "id": 8446846468, "geometry": {"type": "Point", "coordinates": [0.921086, 42.264155]}, "properties": {"access": "yes", "amenity": "drinking_water", "fee": "no", "source": "survey"}}, {"type": "Feature", "id": 8682536272, "geometry": {"type": "Point", "coordinates": [1.194645, 42.831322]}, "properties": {"amenity": "drinking_water"}}, {"type": "Feature", "id": 8714421517, "geometry": {"type": "Point", "coordinates": [1.09111, 42.248126]}, "properties": {"amenity": "drinking_water"}}, {"type": "Feature", "id": 8714421617, "geometry": {"type": "Point", "coordinates": [1.079182, 42.248847]}, "properties": {"amenity": "drinking_water"}}, {"type": "Feature", "id": 8719427189, "geometry": {"type": "Point", "coordinates": [0.921781, 42.311757]}, "properties": {"access": "yes", "amenity": "drinking_water", "covered": "no", "fee": "no", "indoor": "no", "note": "A 08/05/2021, no en rajava aigua; no funciona", "source": "survey"}}, {"type": "Feature", "id": 8720983717, "geometry": {"type": "Point", "coordinates": [1.042031, 42.244113]}, "properties": {"amenity": "drinking_water"}}, {"type": "Feature", "id": 8828177239, "geometry": {"type": "Point", "coordinates": [0.41002, 42.795322]}, "properties": {"amenity": "drinking_water"}}, {"type": "Feature", "id": 8828194143, "geometry": {"type": "Point", "coordinates": [0.41178, 42.796264]}, "properties": {"amenity": "drinking_water", "fountain": "drinking"}}, {"type": "Feature", "id": 8828194757, "geometry": {"type": "Point", "coordinates": [0.410703, 42.796527]}, "properties": {"amenity": "drinking_water"}}, {"type": "Feature", "id": 8828200503, "geometry": {"type": "Point", "coordinates": [0.412624, 42.795329]}, "properties": {"amenity": "drinking_water"}}, {"type": "Feature", "id": 8874343718, "geometry": {"type": "Point", "coordinates": [0.712354, 42.757491]}, "properties": {"amenity": "drinking_water", "fountain": "drinking"}}, {"type": "Feature", "id": 8875689717, "geometry": {"type": "Point", "coordinates": [0.801618, 42.700532]}, "properties": {"amenity": "drinking_water"}}, {"type": "Feature", "id": 8879341817, "geometry": {"type": "Point", "coordinates": [0.69025, 42.787902]}, "properties": {"amenity": "drinking_water"}}, {"type": "Feature", "id": 8879816519, "geometry": {"type": "Point", "coordinates": [0.708519, 42.808754]}, "properties": {"amenity": "drinking_water"}}, {"type": "Feature", "id": 8879829818, "geometry": {"type": "Point", "coordinates": [0.706839, 42.807181]}, "properties": {"amenity": "drinking_water"}}, {"type": "Feature", "id": 8882109417, "geometry": {"type": "Point", "coordinates": [0.834221, 42.522908]}, "properties": {"amenity": "drinking_water"}}, {"type": "Feature", "id": 8883322417, "geometry": {"type": "Point", "coordinates": [1.088749, 42.576436]}, "properties": {"amenity": "drinking_water"}}, {"type": "Feature", "id": 8887165017, "geometry": {"type": "Point", "coordinates": [0.797265, 42.823958]}, "properties": {"amenity": "drinking_water"}}, {"type": "Feature", "id": 8887374121, "geometry": {"type": "Point", "coordinates": [0.805115, 42.820638]}, "properties": {"amenity": "drinking_water"}}, {"type": "Feature", "id": 8887374917, "geometry": {"type": "Point", "coordinates": [0.805304, 42.820451]}, "properties": {"amenity": "drinking_water"}}, {"type": "Feature", "id": 8887641817, "geometry": {"type": "Point", "coordinates": [0.738784, 42.838414]}, "properties": {"amenity": "drinking_water"}}, {"type": "Feature", "id": 8892237718, "geometry": {"type": "Point", "coordinates": [0.870948, 42.697979]}, "properties": {"amenity": "drinking_water"}}, {"type": "Feature", "id": 8893251586, "geometry": {"type": "Point", "coordinates": [0.871785, 42.699243]}, "properties": {"amenity": "drinking_water", "bottle": "yes", "image": "https://i.imgur.com/hawmfOZ.jpg"}}, {"type": "Feature", "id": 8895465217, "geometry": {"type": "Point", "coordinates": [0.901195, 42.70676]}, "properties": {"amenity": "drinking_water"}}, {"type": "Feature", "id": 8895516917, "geometry": {"type": "Point", "coordinates": [0.902823, 42.707017]}, "properties": {"amenity": "drinking_water", "name": "Era H\u00f2nt"}}, {"type": "Feature", "id": 8897612937, "geometry": {"type": "Point", "coordinates": [0.8392, 42.559254]}, "properties": {"amenity": "drinking_water", "name": "Font del Ferro", "name:ca": "Font del Ferro", "ref": "H-1"}}, {"type": "Feature", "id": 8897701117, "geometry": {"type": "Point", "coordinates": [0.839233, 42.560922]}, "properties": {"amenity": "drinking_water", "name": "Santa Ll\u00facia", "name:ca": "Santa Ll\u00facia", "ref": "8-B"}}, {"type": "Feature", "id": 8897701118, "geometry": {"type": "Point", "coordinates": [0.840638, 42.560822]}, "properties": {"amenity": "drinking_water", "name": "Font del Bosc; Font del Boix; Font Titus I i II; Font del Bou", "name:ca": "Font del Bosc; Font del Boix; Font Titus I i II; Font del Bou", "ref": "A-8"}}, {"type": "Feature", "id": 8897701517, "geometry": {"type": "Point", "coordinates": [0.841495, 42.561353]}, "properties": {"amenity": "drinking_water", "name": "Font del Bou", "name:ca": "Font del Bou", "ref": "W-7"}}, {"type": "Feature", "id": 8897701617, "geometry": {"type": "Point", "coordinates": [0.841657, 42.561618]}, "properties": {"amenity": "drinking_water", "name": "Font del Besort", "ref": "7-D"}}, {"type": "Feature", "id": 8897701817, "geometry": {"type": "Point", "coordinates": [0.841725, 42.561746]}, "properties": {"amenity": "drinking_water", "name": "Font de l'Avellaner", "name:ca": "Font de l'Avellaner", "ref": "Z-9"}}, {"type": "Feature", "id": 8897701917, "geometry": {"type": "Point", "coordinates": [0.84197, 42.561433]}, "properties": {"amenity": "drinking_water", "name": "Font del Boix", "name:ca": "Font del Boix", "ref": "H-7"}}, {"type": "Feature", "id": 8897702017, "geometry": {"type": "Point", "coordinates": [0.840491, 42.56042]}, "properties": {"amenity": "drinking_water", "name": "Font del C\u00e0nem", "name:ca": "Font del C\u00e0nem", "ref": "T-2"}}, {"type": "Feature", "id": 8928410317, "geometry": {"type": "Point", "coordinates": [0.71635, 42.476328]}, "properties": {"amenity": "drinking_water"}}, {"type": "Feature", "id": 8939654805, "geometry": {"type": "Point", "coordinates": [0.457188, 42.627506]}, "properties": {"amenity": "drinking_water"}}, {"type": "Feature", "id": 8945391515, "geometry": {"type": "Point", "coordinates": [1.235189, 42.670496]}, "properties": {"amenity": "drinking_water"}}, {"type": "Feature", "id": 8967871355, "geometry": {"type": "Point", "coordinates": [0.927312, 42.852481]}, "properties": {"amenity": "drinking_water"}}, {"type": "Feature", "id": 8967871361, "geometry": {"type": "Point", "coordinates": [0.925917, 42.853711]}, "properties": {"amenity": "drinking_water"}}, {"type": "Feature", "id": 8979507835, "geometry": {"type": "Point", "coordinates": [0.811138, 42.495028]}, "properties": {"amenity": "drinking_water"}}, {"type": "Feature", "id": 8983680489, "geometry": {"type": "Point", "coordinates": [0.802862, 42.504866]}, "properties": {"amenity": "drinking_water"}}, {"type": "Feature", "id": 8985123391, "geometry": {"type": "Point", "coordinates": [0.709088, 42.409899]}, "properties": {"amenity": "drinking_water"}}, {"type": "Feature", "id": 8985341245, "geometry": {"type": "Point", "coordinates": [0.7406, 42.408879]}, "properties": {"amenity": "drinking_water"}}, {"type": "Feature", "id": 9002570928, "geometry": {"type": "Point", "coordinates": [0.820511, 42.498202]}, "properties": {"amenity": "drinking_water"}}, {"type": "Feature", "id": 9013843122, "geometry": {"type": "Point", "coordinates": [0.530351, 42.403123]}, "properties": {"amenity": "drinking_water", "name": "Fuente Ag\u00fcistas"}}, {"type": "Feature", "id": 9014046250, "geometry": {"type": "Point", "coordinates": [1.287836, 42.413618]}, "properties": {"amenity": "drinking_water"}}, {"type": "Feature", "id": 9014666439, "geometry": {"type": "Point", "coordinates": [1.287942, 42.417317]}, "properties": {"amenity": "drinking_water"}}, {"type": "Feature", "id": 9019545728, "geometry": {"type": "Point", "coordinates": [1.01609, 42.829411]}, "properties": {"amenity": "drinking_water", "description": "Mai 2022 : le tuyau ne coule plus, captage \u00e0 sec."}}, {"type": "Feature", "id": 9020383084, "geometry": {"type": "Point", "coordinates": [1.274209, 42.39101]}, "properties": {"amenity": "drinking_water"}}, {"type": "Feature", "id": 9020389645, "geometry": {"type": "Point", "coordinates": [1.258537, 42.438728]}, "properties": {"amenity": "drinking_water", "name": "Font del Cobert", "name:ca": "Font del Cobert"}}, {"type": "Feature", "id": 9025975814, "geometry": {"type": "Point", "coordinates": [1.336583, 42.790232]}, "properties": {"amenity": "drinking_water"}}, {"type": "Feature", "id": 9025994757, "geometry": {"type": "Point", "coordinates": [1.289527, 42.848849]}, "properties": {"amenity": "drinking_water"}}, {"type": "Feature", "id": 9028732809, "geometry": {"type": "Point", "coordinates": [1.274089, 42.498289]}, "properties": {"amenity": "drinking_water"}}, {"type": "Feature", "id": 9031720489, "geometry": {"type": "Point", "coordinates": [0.690559, 42.781728]}, "properties": {"amenity": "drinking_water"}}, {"type": "Feature", "id": 9031949417, "geometry": {"type": "Point", "coordinates": [0.530512, 42.403696]}, "properties": {"amenity": "drinking_water"}}, {"type": "Feature", "id": 9033109391, "geometry": {"type": "Point", "coordinates": [0.725872, 42.748167]}, "properties": {"amenity": "drinking_water"}}, {"type": "Feature", "id": 9033129320, "geometry": {"type": "Point", "coordinates": [0.712105, 42.757282]}, "properties": {"amenity": "drinking_water"}}, {"type": "Feature", "id": 9034226987, "geometry": {"type": "Point", "coordinates": [0.550006, 42.81778]}, "properties": {"amenity": "drinking_water"}}, {"type": "Feature", "id": 9034410401, "geometry": {"type": "Point", "coordinates": [0.499554, 42.858947]}, "properties": {"amenity": "drinking_water"}}, {"type": "Feature", "id": 9036277008, "geometry": {"type": "Point", "coordinates": [1.399578, 42.854324]}, "properties": {"amenity": "drinking_water"}}, {"type": "Feature", "id": 9038823734, "geometry": {"type": "Point", "coordinates": [0.795609, 42.701999]}, "properties": {"amenity": "drinking_water"}}, {"type": "Feature", "id": 9038957117, "geometry": {"type": "Point", "coordinates": [0.795459, 42.702028]}, "properties": {"amenity": "drinking_water"}}, {"type": "Feature", "id": 9041072239, "geometry": {"type": "Point", "coordinates": [0.717347, 42.888403]}, "properties": {"amenity": "drinking_water"}}, {"type": "Feature", "id": 9071656417, "geometry": {"type": "Point", "coordinates": [0.877232, 42.60532]}, "properties": {"amenity": "drinking_water"}}, {"type": "Feature", "id": 9137687893, "geometry": {"type": "Point", "coordinates": [1.13337, 42.443031]}, "properties": {"amenity": "drinking_water"}}, {"type": "Feature", "id": 9137713327, "geometry": {"type": "Point", "coordinates": [1.023194, 42.473295]}, "properties": {"amenity": "drinking_water"}}, {"type": "Feature", "id": 9207195432, "geometry": {"type": "Point", "coordinates": [1.271816, 42.872481]}, "properties": {"access": "yes", "amenity": "drinking_water"}}, {"type": "Feature", "id": 9259398146, "geometry": {"type": "Point", "coordinates": [0.715876, 42.350561]}, "properties": {"amenity": "drinking_water"}}, {"type": "Feature", "id": 9382299669, "geometry": {"type": "Point", "coordinates": [0.485189, 42.518684]}, "properties": {"amenity": "drinking_water"}}, {"type": "Feature", "id": 9386363493, "geometry": {"type": "Point", "coordinates": [0.520763, 42.606016]}, "properties": {"amenity": "drinking_water"}}, {"type": "Feature", "id": 9557307422, "geometry": {"type": "Point", "coordinates": [0.788791, 42.920343]}, "properties": {"amenity": "drinking_water", "name": "Fontaine"}}, {"type": "Feature", "id": 9794928276, "geometry": {"type": "Point", "coordinates": [0.614688, 42.816331]}, "properties": {"access": "yes", "amenity": "drinking_water", "bottle": "yes", "description": "Robinet eau potable.", "fee": "no"}}, {"type": "Feature", "id": 9795481058, "geometry": {"type": "Point", "coordinates": [0.808023, 42.905458]}, "properties": {"access": "yes", "amenity": "drinking_water", "bottle": "yes", "description": "Robinet eau potable en acc\u00e8s libre.", "fee": "no"}}, {"type": "Feature", "id": 9795519331, "geometry": {"type": "Point", "coordinates": [0.807677, 42.907703]}, "properties": {"access": "yes", "amenity": "drinking_water", "bottle": "yes", "description": "Robinet d'eau potable sur la place du village.", "fee": "no"}}, {"type": "Feature", "id": 9810581648, "geometry": {"type": "Point", "coordinates": [1.374565, 42.865343]}, "properties": {"amenity": "drinking_water"}}, {"type": "Feature", "id": 9810974343, "geometry": {"type": "Point", "coordinates": [1.383639, 42.860312]}, "properties": {"amenity": "drinking_water"}}, {"type": "Feature", "id": 9810974344, "geometry": {"type": "Point", "coordinates": [1.380419, 42.861746]}, "properties": {"amenity": "drinking_water"}}, {"type": "Feature", "id": 9866495605, "geometry": {"type": "Point", "coordinates": [0.425704, 42.793048]}, "properties": {"amenity": "drinking_water"}}, {"type": "Feature", "id": 9894929935, "geometry": {"type": "Point", "coordinates": [1.187269, 42.865637]}, "properties": {"amenity": "drinking_water"}}, {"type": "Feature", "id": 9895563391, "geometry": {"type": "Point", "coordinates": [1.14551, 42.853421]}, "properties": {"amenity": "drinking_water"}}, {"type": "Feature", "id": 9904782409, "geometry": {"type": "Point", "coordinates": [1.145529, 42.908104]}, "properties": {"amenity": "drinking_water"}}, {"type": "Feature", "id": 9906308427, "geometry": {"type": "Point", "coordinates": [0.600607, 42.78527]}, "properties": {"amenity": "drinking_water"}}, {"type": "Feature", "id": 9907408717, "geometry": {"type": "Point", "coordinates": [0.814174, 42.70983]}, "properties": {"amenity": "drinking_water"}}, {"type": "Feature", "id": 9907713551, "geometry": {"type": "Point", "coordinates": [0.606587, 42.77286]}, "properties": {"amenity": "drinking_water"}}, {"type": "Feature", "id": 9927962317, "geometry": {"type": "Point", "coordinates": [0.920868, 42.63169]}, "properties": {"amenity": "drinking_water"}}, {"type": "Feature", "id": 9927962617, "geometry": {"type": "Point", "coordinates": [0.920894, 42.631737]}, "properties": {"amenity": "drinking_water"}}, {"type": "Feature", "id": 9927962717, "geometry": {"type": "Point", "coordinates": [1.109672, 42.633108]}, "properties": {"amenity": "drinking_water"}}, {"type": "Feature", "id": 9927964017, "geometry": {"type": "Point", "coordinates": [1.110015, 42.634348]}, "properties": {"amenity": "drinking_water"}}, {"type": "Feature", "id": 9942330810, "geometry": {"type": "Point", "coordinates": [1.132113, 42.593565]}, "properties": {"amenity": "drinking_water"}}, {"type": "Feature", "id": 9956748009, "geometry": {"type": "Point", "coordinates": [0.602531, 42.862235]}, "properties": {"amenity": "drinking_water"}}, {"type": "Feature", "id": 9957045844, "geometry": {"type": "Point", "coordinates": [0.508006, 42.703898]}, "properties": {"amenity": "drinking_water", "drinking_water": "yes"}}, {"type": "Feature", "id": 9958729647, "geometry": {"type": "Point", "coordinates": [0.521672, 42.605078]}, "properties": {"amenity": "drinking_water"}}, {"type": "Feature", "id": 9959427352, "geometry": {"type": "Point", "coordinates": [1.184103, 42.794078]}, "properties": {"amenity": "drinking_water"}}, {"type": "Feature", "id": 9960381412, "geometry": {"type": "Point", "coordinates": [1.130436, 42.897455]}, "properties": {"amenity": "drinking_water"}}, {"type": "Feature", "id": 9968086017, "geometry": {"type": "Point", "coordinates": [0.737542, 42.412436]}, "properties": {"amenity": "drinking_water"}}, {"type": "Feature", "id": 9976630618, "geometry": {"type": "Point", "coordinates": [0.538822, 42.594282]}, "properties": {"amenity": "drinking_water"}}, {"type": "Feature", "id": 9981129342, "geometry": {"type": "Point", "coordinates": [0.539005, 42.591477]}, "properties": {"amenity": "drinking_water"}}, {"type": "Feature", "id": 9981130128, "geometry": {"type": "Point", "coordinates": [0.538934, 42.59559]}, "properties": {"amenity": "drinking_water"}}, {"type": "Feature", "id": 9981203317, "geometry": {"type": "Point", "coordinates": [0.590338, 42.369581]}, "properties": {"amenity": "drinking_water"}}, {"type": "Feature", "id": 9982859118, "geometry": {"type": "Point", "coordinates": [0.470445, 42.581688]}, "properties": {"amenity": "drinking_water"}}, {"type": "Feature", "id": 9988606017, "geometry": {"type": "Point", "coordinates": [1.207943, 42.441793]}, "properties": {"amenity": "drinking_water"}}, {"type": "Feature", "id": 9992558978, "geometry": {"type": "Point", "coordinates": [0.801001, 42.504269]}, "properties": {"amenity": "drinking_water"}}, {"type": "Feature", "id": 10001319217, "geometry": {"type": "Point", "coordinates": [0.465066, 42.576379]}, "properties": {"amenity": "drinking_water"}}, {"type": "Feature", "id": 10015176188, "geometry": {"type": "Point", "coordinates": [1.033329, 42.830552]}, "properties": {"amenity": "drinking_water"}}, {"type": "Feature", "id": 10029032772, "geometry": {"type": "Point", "coordinates": [0.507242, 42.53609]}, "properties": {"amenity": "drinking_water"}}, {"type": "Feature", "id": 10049558775, "geometry": {"type": "Point", "coordinates": [1.124767, 42.922236]}, "properties": {"amenity": "drinking_water"}}, {"type": "Feature", "id": 10049558777, "geometry": {"type": "Point", "coordinates": [1.152656, 42.893338]}, "properties": {"amenity": "drinking_water"}}, {"type": "Feature", "id": 10049577625, "geometry": {"type": "Point", "coordinates": [0.793446, 42.69798]}, "properties": {"amenity": "drinking_water"}}, {"type": "Feature", "id": 10080553516, "geometry": {"type": "Point", "coordinates": [0.523626, 42.605395]}, "properties": {"amenity": "drinking_water", "fee": "yes"}}, {"type": "Feature", "id": 10080569585, "geometry": {"type": "Point", "coordinates": [0.52541, 42.605185]}, "properties": {"amenity": "drinking_water"}}, {"type": "Feature", "id": 10158139316, "geometry": {"type": "Point", "coordinates": [0.986229, 42.792829]}, "properties": {"amenity": "drinking_water"}}, {"type": "Feature", "id": 10158179470, "geometry": {"type": "Point", "coordinates": [0.990041, 42.805261]}, "properties": {"amenity": "drinking_water"}}, {"type": "Feature", "id": 10206779520, "geometry": {"type": "Point", "coordinates": [0.843811, 42.701444]}, "properties": {"amenity": "drinking_water"}}, {"type": "Feature", "id": 10206801819, "geometry": {"type": "Point", "coordinates": [0.843615, 42.700573]}, "properties": {"amenity": "drinking_water"}}, {"type": "Feature", "id": 10285727076, "geometry": {"type": "Point", "coordinates": [0.634571, 42.785271]}, "properties": {"amenity": "drinking_water", "name": "Fontaine de Laprade"}}, {"type": "Feature", "id": 10289974950, "geometry": {"type": "Point", "coordinates": [1.136918, 42.445449]}, "properties": {"amenity": "drinking_water"}}, {"type": "Feature", "id": 10289995335, "geometry": {"type": "Point", "coordinates": [1.213856, 42.495523]}, "properties": {"amenity": "drinking_water"}}, {"type": "Feature", "id": 10291954728, "geometry": {"type": "Point", "coordinates": [1.175657, 42.800769]}, "properties": {"amenity": "drinking_water"}}, {"type": "Feature", "id": 10294218685, "geometry": {"type": "Point", "coordinates": [1.085156, 42.860446]}, "properties": {"amenity": "drinking_water"}}, {"type": "Feature", "id": 10294937861, "geometry": {"type": "Point", "coordinates": [1.084694, 42.862713]}, "properties": {"amenity": "drinking_water"}}, {"type": "Feature", "id": 10680026232, "geometry": {"type": "Point", "coordinates": [0.652243, 42.857336]}, "properties": {"amenity": "drinking_water"}}, {"type": "Feature", "id": 10875754805, "geometry": {"type": "Point", "coordinates": [0.985541, 42.252529]}, "properties": {"amenity": "drinking_water"}}, {"type": "Feature", "id": 11019908425, "geometry": {"type": "Point", "coordinates": [0.453531, 42.554855]}, "properties": {"amenity": "drinking_water"}}, {"type": "Feature", "id": 11063072478, "geometry": {"type": "Point", "coordinates": [1.288093, 42.756065]}, "properties": {"amenity": "drinking_water"}}, {"type": "Feature", "id": 11063289807, "geometry": {"type": "Point", "coordinates": [1.273984, 42.498067]}, "properties": {"amenity": "drinking_water"}}, {"type": "Feature", "id": 11076608790, "geometry": {"type": "Point", "coordinates": [1.214256, 42.738929]}, "properties": {"amenity": "drinking_water"}}, {"type": "Feature", "id": 11109617805, "geometry": {"type": "Point", "coordinates": [0.528079, 42.292208]}, "properties": {"amenity": "drinking_water"}}, {"type": "Feature", "id": 11123554887, "geometry": {"type": "Point", "coordinates": [1.396525, 42.691253]}, "properties": {"access": "yes", "amenity": "drinking_water", "bottle": "yes", "description": "Robinet d'eau potable sous la terrasse", "fee": "no", "wheelchair": "no"}}, {"type": "Feature", "id": 11149860383, "geometry": {"type": "Point", "coordinates": [1.122774, 42.627831]}, "properties": {"amenity": "drinking_water", "name": "Font"}}, {"type": "Feature", "id": 11153438958, "geometry": {"type": "Point", "coordinates": [1.090419, 42.575516]}, "properties": {"amenity": "drinking_water"}}, {"type": "Feature", "id": 11153470870, "geometry": {"type": "Point", "coordinates": [1.209915, 42.496857]}, "properties": {"amenity": "drinking_water"}}, {"type": "Feature", "id": 11171398178, "geometry": {"type": "Point", "coordinates": [0.757539, 42.456224]}, "properties": {"amenity": "drinking_water"}}, {"type": "Feature", "id": 11173797815, "geometry": {"type": "Point", "coordinates": [0.466084, 42.578411]}, "properties": {"amenity": "drinking_water"}}, {"type": "Feature", "id": 11173898545, "geometry": {"type": "Point", "coordinates": [0.466638, 42.54652]}, "properties": {"amenity": "drinking_water"}}, {"type": "Feature", "id": 11173898547, "geometry": {"type": "Point", "coordinates": [0.484209, 42.550777]}, "properties": {"amenity": "drinking_water"}}, {"type": "Feature", "id": 11173900472, "geometry": {"type": "Point", "coordinates": [0.494086, 42.542566]}, "properties": {"amenity": "drinking_water"}}, {"type": "Feature", "id": 11173900495, "geometry": {"type": "Point", "coordinates": [0.493186, 42.54272]}, "properties": {"amenity": "drinking_water"}}, {"type": "Feature", "id": 11173946746, "geometry": {"type": "Point", "coordinates": [0.529719, 42.512062]}, "properties": {"amenity": "drinking_water"}}, {"type": "Feature", "id": 11182613592, "geometry": {"type": "Point", "coordinates": [0.499736, 42.582756]}, "properties": {"amenity": "drinking_water", "name": "Fuen Gardeta"}}, {"type": "Feature", "id": 11189712206, "geometry": {"type": "Point", "coordinates": [0.509845, 42.590716]}, "properties": {"amenity": "drinking_water"}}, {"type": "Feature", "id": 11189712207, "geometry": {"type": "Point", "coordinates": [0.5098, 42.591004]}, "properties": {"amenity": "drinking_water"}}, {"type": "Feature", "id": 11196004340, "geometry": {"type": "Point", "coordinates": [1.163154, 42.448602]}, "properties": {"amenity": "drinking_water"}}, {"type": "Feature", "id": 11212139437, "geometry": {"type": "Point", "coordinates": [0.715777, 42.477605]}, "properties": {"amenity": "drinking_water"}}, {"type": "Feature", "id": 11215819837, "geometry": {"type": "Point", "coordinates": [0.807701, 42.707673]}, "properties": {"amenity": "drinking_water", "drinking_water:legal": "no"}}, {"type": "Feature", "id": 11218197538, "geometry": {"type": "Point", "coordinates": [0.792055, 42.707546]}, "properties": {"amenity": "drinking_water"}}, {"type": "Feature", "id": 11218204839, "geometry": {"type": "Point", "coordinates": [0.790279, 42.708085]}, "properties": {"amenity": "drinking_water"}}, {"type": "Feature", "id": 11219349437, "geometry": {"type": "Point", "coordinates": [0.727881, 42.73974]}, "properties": {"amenity": "drinking_water", "drinking_water:legal": "yes"}}, {"type": "Feature", "id": 11219378937, "geometry": {"type": "Point", "coordinates": [0.734348, 42.741379]}, "properties": {"amenity": "drinking_water", "drinking_water:legal": "no"}}, {"type": "Feature", "id": 11219544838, "geometry": {"type": "Point", "coordinates": [0.711153, 42.754846]}, "properties": {"amenity": "drinking_water"}}, {"type": "Feature", "id": 11220660737, "geometry": {"type": "Point", "coordinates": [0.792658, 42.702943]}, "properties": {"amenity": "drinking_water"}}, {"type": "Feature", "id": 11224479437, "geometry": {"type": "Point", "coordinates": [0.90121, 42.709913]}, "properties": {"amenity": "drinking_water"}}, {"type": "Feature", "id": 11224503937, "geometry": {"type": "Point", "coordinates": [0.890105, 42.705487]}, "properties": {"amenity": "drinking_water"}}, {"type": "Feature", "id": 11224594337, "geometry": {"type": "Point", "coordinates": [0.844921, 42.700723]}, "properties": {"amenity": "drinking_water"}}, {"type": "Feature", "id": 11225687619, "geometry": {"type": "Point", "coordinates": [1.084172, 42.85957]}, "properties": {"amenity": "drinking_water"}}, {"type": "Feature", "id": 11226467337, "geometry": {"type": "Point", "coordinates": [0.764188, 42.627048]}, "properties": {"amenity": "drinking_water", "drinking_water:legal": "no"}}, {"type": "Feature", "id": 11236009169, "geometry": {"type": "Point", "coordinates": [1.214767, 42.873207]}, "properties": {"amenity": "drinking_water"}}, {"type": "Feature", "id": 11243532243, "geometry": {"type": "Point", "coordinates": [1.271505, 42.61394]}, "properties": {"amenity": "drinking_water", "name": "Font 1980"}}, {"type": "Feature", "id": 11243888081, "geometry": {"type": "Point", "coordinates": [1.256789, 42.643622]}, "properties": {"amenity": "drinking_water", "name": "Font de Llacs de Card\u00f3s"}}, {"type": "Feature", "id": 11245221677, "geometry": {"type": "Point", "coordinates": [1.249082, 42.637873]}, "properties": {"amenity": "drinking_water", "name": "Font"}}, {"type": "Feature", "id": 11245323516, "geometry": {"type": "Point", "coordinates": [1.236004, 42.619861]}, "properties": {"amenity": "drinking_water", "name": "Font Lleret"}}, {"type": "Feature", "id": 11250696231, "geometry": {"type": "Point", "coordinates": [1.22005, 42.855964]}, "properties": {"amenity": "drinking_water"}}, {"type": "Feature", "id": 11306874024, "geometry": {"type": "Point", "coordinates": [0.41376, 42.815288]}, "properties": {"amenity": "drinking_water", "man_made": "water_tap"}}, {"type": "Feature", "id": 11465512039, "geometry": {"type": "Point", "coordinates": [1.198426, 42.831956]}, "properties": {"amenity": "drinking_water"}}, {"type": "Feature", "id": 11465695695, "geometry": {"type": "Point", "coordinates": [1.018365, 42.350132]}, "properties": {"amenity": "drinking_water"}}, {"type": "Feature", "id": 11538349359, "geometry": {"type": "Point", "coordinates": [1.219168, 42.895952]}, "properties": {"amenity": "drinking_water"}}, {"type": "Feature", "id": 11579053057, "geometry": {"type": "Point", "coordinates": [0.589197, 42.790161]}, "properties": {"amenity": "drinking_water", "man_made": "water_tap"}}, {"type": "Feature", "id": 11688292573, "geometry": {"type": "Point", "coordinates": [0.460641, 42.547075]}, "properties": {"amenity": "drinking_water", "name": "Fuen de Alto"}}, {"type": "Feature", "id": 11688292586, "geometry": {"type": "Point", "coordinates": [0.461717, 42.547031]}, "properties": {"amenity": "drinking_water"}}, {"type": "Feature", "id": 11688292630, "geometry": {"type": "Point", "coordinates": [0.462149, 42.547362]}, "properties": {"amenity": "drinking_water", "name": "La Fontaneta"}}, {"type": "Feature", "id": 11754131959, "geometry": {"type": "Point", "coordinates": [0.729991, 42.746178]}, "properties": {"amenity": "drinking_water"}}, {"type": "Feature", "id": 11754182969, "geometry": {"type": "Point", "coordinates": [0.739053, 42.745033]}, "properties": {"amenity": "drinking_water"}}, {"type": "Feature", "id": 11773957499, "geometry": {"type": "Point", "coordinates": [0.639445, 42.915764]}, "properties": {"amenity": "drinking_water"}}]}