{"type": "FeatureCollection", "features": [{"type": "Feature", "id": 252529165, "geometry": {"type": "Point", "coordinates": [0.539037, 42.593368]}, "properties": {"addr:housenumber": "3", "addr:street": "Calle Obispo", "amenity": "restaurant", "name": "La Picada"}}, {"type": "Feature", "id": 252529616, "geometry": {"type": "Point", "coordinates": [0.538577, 42.59467]}, "properties": {"amenity": "restaurant", "name": "El Rinc\u00f3n"}}, {"type": "Feature", "id": 252529821, "geometry": {"type": "Point", "coordinates": [0.539915, 42.589371]}, "properties": {"amenity": "restaurant", "cuisine": "pizza", "name": "Planet 81"}}, {"type": "Feature", "id": 296874063, "geometry": {"type": "Point", "coordinates": [0.980475, 42.663971]}, "properties": {"amenity": "restaurant", "name": "Cap del Port", "name:ca": "Cap del Port", "name:fr": "Cap du port"}}, {"type": "Feature", "id": 440756104, "geometry": {"type": "Point", "coordinates": [1.217525, 42.874862]}, "properties": {"amenity": "restaurant", "name": "Caf\u00e9 Restaurant \"Chez Sirgant\""}}, {"type": "Feature", "id": 446064004, "geometry": {"type": "Point", "coordinates": [0.522112, 42.603538]}, "properties": {"addr:street": "Avenida los Tilos", "amenity": "restaurant", "cuisine": "regional", "name": "Restaurante El Fogaril", "phone": "+34 974 55 16 12"}}, {"type": "Feature", "id": 471554743, "geometry": {"type": "Point", "coordinates": [1.231446, 42.875619]}, "properties": {"amenity": "restaurant", "cuisine": "pizza", "name": "Coumariau"}}, {"type": "Feature", "id": 506092658, "geometry": {"type": "Point", "coordinates": [1.21145, 42.89392]}, "properties": {"amenity": "restaurant", "name": "Restaurant Du Perroquet"}}, {"type": "Feature", "id": 632220125, "geometry": {"type": "Point", "coordinates": [0.446388, 42.790108]}, "properties": {"amenity": "restaurant", "name": "Snack bar Les Sil\u00e8nes"}}, {"type": "Feature", "id": 952629543, "geometry": {"type": "Point", "coordinates": [0.573929, 42.320917]}, "properties": {"amenity": "restaurant", "name": "Casa Peix", "name:ca": "Casa Peix", "tourism": "hotel"}}, {"type": "Feature", "id": 1140754663, "geometry": {"type": "Point", "coordinates": [0.539924, 42.591373]}, "properties": {"amenity": "restaurant", "cuisine": "regional", "name": "Bar Restaurante Chiniella"}}, {"type": "Feature", "id": 1228553087, "geometry": {"type": "Point", "coordinates": [1.402931, 42.366656]}, "properties": {"amenity": "restaurant", "name": "Cal Roqueta", "name:ca": "Cal Roqueta", "source": "PNOA", "source:date": "2008"}}, {"type": "Feature", "id": 1326685923, "geometry": {"type": "Point", "coordinates": [0.740864, 42.409249]}, "properties": {"amenity": "restaurant", "name": "Pizzeria Las Cumbres"}}, {"type": "Feature", "id": 1326932480, "geometry": {"type": "Point", "coordinates": [1.12952, 42.409975]}, "properties": {"addr:city": "Sort", "addr:postcode": "25560", "amenity": "restaurant", "brand:website": "https://www.hotelpessets.com/es/restaurantes/", "cuisine": "regional", "name": "Pessets", "website": "https://www.mesmenu.com/p7s-restaurant"}}, {"type": "Feature", "id": 1369156302, "geometry": {"type": "Point", "coordinates": [0.466682, 42.519961]}, "properties": {"amenity": "restaurant", "cuisine": "regional", "internet_access": "yes", "internet_access:fee": "no", "name": "Chongast\u00e1n", "phone": "+34 974 553 200", "smoking": "no", "website": "http://www.chongastan.com", "wheelchair": "yes"}}, {"type": "Feature", "id": 1469265591, "geometry": {"type": "Point", "coordinates": [1.132308, 42.414747]}, "properties": {"amenity": "restaurant", "cuisine": "regional", "name": "Les Brases", "phone": "+34 973 621 071", "website": "https://www.hotellesbrases.com/restaurante.html"}}, {"type": "Feature", "id": 1469265598, "geometry": {"type": "Point", "coordinates": [1.130793, 42.410704]}, "properties": {"amenity": "restaurant", "cuisine": "regional", "name": "Pey"}}, {"type": "Feature", "id": 1469265609, "geometry": {"type": "Point", "coordinates": [1.13086, 42.409421]}, "properties": {"amenity": "restaurant", "cuisine": "regional", "name": "Lo Pont"}}, {"type": "Feature", "id": 1469265613, "geometry": {"type": "Point", "coordinates": [1.131797, 42.412781]}, "properties": {"amenity": "restaurant", "cuisine": "regional", "name": "Can Punyetes", "name:ca": "Can Punyetes"}}, {"type": "Feature", "id": 1469265617, "geometry": {"type": "Point", "coordinates": [1.131298, 42.411068]}, "properties": {"amenity": "restaurant", "cuisine": "pizza", "name": "La Pizzeria del Riuet"}}, {"type": "Feature", "id": 1469265656, "geometry": {"type": "Point", "coordinates": [1.132429, 42.413536]}, "properties": {"amenity": "restaurant", "cuisine": "regional", "name": "El Poll", "name:ca": "El Poll"}}, {"type": "Feature", "id": 1469265658, "geometry": {"type": "Point", "coordinates": [1.132226, 42.415261]}, "properties": {"addr:city": "Sort", "addr:housenumber": "45", "addr:postcode": "25560", "addr:street": "Avinguda de la Generalitat", "amenity": "restaurant", "award:michelin": "1", "cuisine": "regional", "name": "El Fogony", "phone": "+34973621225", "stars": "1", "website": "http://www.fogony.com/"}}, {"type": "Feature", "id": 1471074096, "geometry": {"type": "Point", "coordinates": [1.123538, 42.627526]}, "properties": {"addr:postcode": "25580", "addr:street": "Areny", "amenity": "restaurant", "cuisine": "spanish", "name": "L'Areny", "name:ca": "L'Areny", "website": "http://restaurantlareny.blogspot.com/"}}, {"type": "Feature", "id": 1472937798, "geometry": {"type": "Point", "coordinates": [1.122642, 42.627778]}, "properties": {"amenity": "restaurant", "name": "Fonda Agust\u00ed"}}, {"type": "Feature", "id": 1472937799, "geometry": {"type": "Point", "coordinates": [1.12322, 42.625354]}, "properties": {"amenity": "restaurant", "cuisine": "cake;coffee_shop;crepe;donut;ice_cream;hot_dog", "ele": "1006.33", "name": "L'Aneuenca", "time": "2011-10-18T10:58:31Z"}}, {"type": "Feature", "id": 1472937801, "geometry": {"type": "Point", "coordinates": [1.123427, 42.62571]}, "properties": {"amenity": "restaurant", "cuisine": "spanish", "ele": "1011.219727", "name": "Hotel Bruna", "time": "2011-10-18T11:00:55Z"}}, {"type": "Feature", "id": 1472937803, "geometry": {"type": "Point", "coordinates": [1.122972, 42.629147]}, "properties": {"amenity": "restaurant", "cuisine": "spanish", "name": "Posada", "time": "2011-10-18T11:11:04Z"}}, {"type": "Feature", "id": 1472937804, "geometry": {"type": "Point", "coordinates": [1.123067, 42.627561]}, "properties": {"amenity": "restaurant", "cuisine": "spanish", "time": "2011-10-18T11:05:56Z"}}, {"type": "Feature", "id": 1472937805, "geometry": {"type": "Point", "coordinates": [1.122157, 42.624392]}, "properties": {"amenity": "restaurant", "cuisine": "spanish"}}, {"type": "Feature", "id": 1472937806, "geometry": {"type": "Point", "coordinates": [1.123384, 42.625001]}, "properties": {"amenity": "restaurant", "cuisine": "spanish", "ele": "1009.12", "name": "Ha trainera", "time": "2011-10-18T10:59:27Z"}}, {"type": "Feature", "id": 1472937807, "geometry": {"type": "Point", "coordinates": [1.123417, 42.625791]}, "properties": {"amenity": "restaurant", "cuisine": "spanish", "ele": "1013.625549", "name": "Restaurant Esterri d'\u00c0neu", "time": "2011-10-18T11:01:18Z"}}, {"type": "Feature", "id": 1472937808, "geometry": {"type": "Point", "coordinates": [1.123411, 42.62586]}, "properties": {"amenity": "restaurant", "cuisine": "spanish", "ele": "1014.589600", "name": "Pizzeria vall d'\u00c0neu", "time": "2011-10-18T11:01:29Z"}}, {"type": "Feature", "id": 1472937809, "geometry": {"type": "Point", "coordinates": [1.123095, 42.627036]}, "properties": {"amenity": "restaurant", "cuisine": "spanish", "ele": "1014.693054", "name": "Tarrado", "time": "2011-10-18T11:04:52Z"}}, {"type": "Feature", "id": 1517604614, "geometry": {"type": "Point", "coordinates": [1.115476, 42.382439]}, "properties": {"amenity": "restaurant", "name": "la Borda d'Arnaldo", "name:ca": "la Borda d'Arnaldo", "website": "http://bordadearnaldo.com"}}, {"type": "Feature", "id": 1557155882, "geometry": {"type": "Point", "coordinates": [0.509754, 42.590918]}, "properties": {"amenity": "restaurant", "cuisine": "regional", "name": "Ansils"}}, {"type": "Feature", "id": 1626070473, "geometry": {"type": "Point", "coordinates": [0.709885, 42.448957]}, "properties": {"amenity": "restaurant", "cuisine": "spanish", "name": "Restaurant Ca Milieta"}}, {"type": "Feature", "id": 1676124582, "geometry": {"type": "Point", "coordinates": [0.960199, 42.344071]}, "properties": {"amenity": "restaurant", "name": "Arturo", "website": "http://www.hotelarturo.com"}}, {"type": "Feature", "id": 1718385106, "geometry": {"type": "Point", "coordinates": [1.00709, 42.647923]}, "properties": {"amenity": "restaurant", "name": "Restaurant les Ares"}}, {"type": "Feature", "id": 1872884985, "geometry": {"type": "Point", "coordinates": [0.762082, 42.918767]}, "properties": {"amenity": "restaurant", "name": "La Soulan", "wheelchair": "yes", "wheelchair:description": "Parking PMR. Label \"Tourism et Handicape\". Entr\u00e9e sans marche."}}, {"type": "Feature", "id": 1896881842, "geometry": {"type": "Point", "coordinates": [0.521511, 42.602914]}, "properties": {"amenity": "restaurant", "cuisine": "regional", "name": "Casa Paco"}}, {"type": "Feature", "id": 1896881891, "geometry": {"type": "Point", "coordinates": [0.521651, 42.603117]}, "properties": {"amenity": "restaurant", "cuisine": "regional", "name": "La Brasa"}}, {"type": "Feature", "id": 1896881899, "geometry": {"type": "Point", "coordinates": [0.522171, 42.604834]}, "properties": {"amenity": "restaurant", "cuisine": "pizza", "name": "La Pizzeria"}}, {"type": "Feature", "id": 1897164406, "geometry": {"type": "Point", "coordinates": [0.523215, 42.603554]}, "properties": {"amenity": "restaurant", "cuisine": "pizza", "name": "Mamma Mia"}}, {"type": "Feature", "id": 1905823902, "geometry": {"type": "Point", "coordinates": [0.524178, 42.604939]}, "properties": {"amenity": "restaurant", "name": "Restaurante Les Arcades"}}, {"type": "Feature", "id": 1914398223, "geometry": {"type": "Point", "coordinates": [1.31501, 42.898179]}, "properties": {"amenity": "restaurant", "name": "Auberge du Gypaete barbu"}}, {"type": "Feature", "id": 2000017672, "geometry": {"type": "Point", "coordinates": [0.824517, 42.697973]}, "properties": {"amenity": "restaurant", "name": "Es Pletieus"}}, {"type": "Feature", "id": 2159923726, "geometry": {"type": "Point", "coordinates": [1.116148, 42.384719]}, "properties": {"amenity": "restaurant", "name": "L'Hortet", "name:ca": "L'Hortet"}}, {"type": "Feature", "id": 2159923761, "geometry": {"type": "Point", "coordinates": [1.115949, 42.384553]}, "properties": {"amenity": "restaurant", "name": "El Celler dels joglars"}}, {"type": "Feature", "id": 2185285953, "geometry": {"type": "Point", "coordinates": [1.308432, 42.768095]}, "properties": {"amenity": "restaurant", "cuisine": "french", "email": "contact@chaletdebeauregard.com", "name": "Chalet de Beauregard", "phone": "+33 5 61 66 75 99", "website": "https://www.chaletdebeauregard.com/"}}, {"type": "Feature", "id": 2269075094, "geometry": {"type": "Point", "coordinates": [0.442512, 42.778401]}, "properties": {"amenity": "restaurant", "name": "Le Cabanou"}}, {"type": "Feature", "id": 2323000489, "geometry": {"type": "Point", "coordinates": [1.23572, 42.582451]}, "properties": {"addr:housename": "Samarra", "addr:housenumber": "61", "addr:postcode": "25571", "addr:street": "Carretera de Tavascan", "amenity": "restaurant", "contact:email": "info@pensiosamarra.com", "cuisine": "spanish", "name": "Samarra", "website": "http://www.pensiosamarra.com"}}, {"type": "Feature", "id": 2361439516, "geometry": {"type": "Point", "coordinates": [0.850864, 42.516573]}, "properties": {"addr:city": "Ta\u00fcll", "addr:housenumber": "10", "addr:postcode": "25528", "addr:street": "Carrer dels Aiguals", "amenity": "restaurant", "cuisine": "traditional", "name": "Restaurant El Fai", "phone": "+34 973 69 62 01", "website": "http://www.restaurant-elfai.com/"}}, {"type": "Feature", "id": 2361460135, "geometry": {"type": "Point", "coordinates": [1.317367, 42.54868]}, "properties": {"amenity": "restaurant", "name": "Hotel Monta\u00f1a"}}, {"type": "Feature", "id": 2361460282, "geometry": {"type": "Point", "coordinates": [1.317281, 42.548972]}, "properties": {"amenity": "restaurant", "name": "Hotel Sal\u00f2ria"}}, {"type": "Feature", "id": 2363003112, "geometry": {"type": "Point", "coordinates": [1.257032, 42.643792]}, "properties": {"amenity": "restaurant", "name": "Casa Feliu"}}, {"type": "Feature", "id": 2363003133, "geometry": {"type": "Point", "coordinates": [1.256747, 42.643644]}, "properties": {"amenity": "restaurant", "name": "Llacs de Card\u00f3s", "name:ca": "Llacs de Card\u00f3s", "note": "pizza and snack restaurant open to non-residents"}}, {"type": "Feature", "id": 2426947984, "geometry": {"type": "Point", "coordinates": [0.795293, 42.700955]}, "properties": {"addr:city": "Vielha", "addr:housenumber": "5", "addr:postcode": "25530", "addr:street": "Pla\u00e7a de Coto Mar\u00e7o", "amenity": "restaurant", "contact:instagram": "https://www.instagram.com/barrestaurantecotomarzo", "cuisine": "regional", "name": "Coto Marzo", "phone": "+34 973642208"}}, {"type": "Feature", "id": 2426947994, "geometry": {"type": "Point", "coordinates": [0.795278, 42.701163]}, "properties": {"amenity": "restaurant", "name": "Ribaeta", "source": "survey"}}, {"type": "Feature", "id": 2426971802, "geometry": {"type": "Point", "coordinates": [0.831363, 42.699069]}, "properties": {"amenity": "restaurant", "cuisine": "regional"}}, {"type": "Feature", "id": 2426971828, "geometry": {"type": "Point", "coordinates": [0.873312, 42.701502]}, "properties": {"amenity": "restaurant", "cuisine": "regional"}}, {"type": "Feature", "id": 2426971829, "geometry": {"type": "Point", "coordinates": [0.91493, 42.701672]}, "properties": {"amenity": "restaurant"}}, {"type": "Feature", "id": 2426971842, "geometry": {"type": "Point", "coordinates": [0.901177, 42.706953]}, "properties": {"addr:city": "Salard\u00fa", "amenity": "restaurant", "check_date": "2022-08-04", "name": "Eth Bot"}}, {"type": "Feature", "id": 2427019786, "geometry": {"type": "Point", "coordinates": [0.748647, 42.737298]}, "properties": {"amenity": "restaurant", "indoor_seating": "yes", "name": "\"Boixetes\" de Cal Manel", "outdoor_seating": "yes"}}, {"type": "Feature", "id": 2468006833, "geometry": {"type": "Point", "coordinates": [0.711091, 42.810302]}, "properties": {"amenity": "restaurant", "name": "Cafe deth Pont"}}, {"type": "Feature", "id": 2473220479, "geometry": {"type": "Point", "coordinates": [0.848669, 42.517675]}, "properties": {"amenity": "restaurant", "name": "Mallador", "source": "survey"}}, {"type": "Feature", "id": 2475286730, "geometry": {"type": "Point", "coordinates": [0.960822, 42.344166]}, "properties": {"amenity": "restaurant", "name": "Restaurant Braser\u00eda L'Era del Marxant", "phone": "+34 973 661 735", "website": "http://www.leradelmarxant.es"}}, {"type": "Feature", "id": 2475314700, "geometry": {"type": "Point", "coordinates": [0.964698, 42.381614]}, "properties": {"addr:city": "la Plana de Mont-Ros", "addr:postcode": "25510", "addr:street": "carretera L-503z", "amenity": "restaurant", "cuisine": "regional", "email": "info@casateresina.cat", "name": "Bar Restaurant Casa Gallart", "phone": "+34 646076145"}}, {"type": "Feature", "id": 2603353674, "geometry": {"type": "Point", "coordinates": [0.793401, 42.703354]}, "properties": {"amenity": "restaurant", "name": "Casa El Bomba", "source": "survey"}}, {"type": "Feature", "id": 2605235056, "geometry": {"type": "Point", "coordinates": [0.80178, 42.69937]}, "properties": {"addr:housenumber": "29", "amenity": "restaurant", "name": "Can Pere", "source": "survey"}}, {"type": "Feature", "id": 2605235058, "geometry": {"type": "Point", "coordinates": [0.800274, 42.701598]}, "properties": {"addr:housenumber": "29", "addr:street": "Av. Garona", "amenity": "restaurant", "name": "Era Coquela", "opening_hours": "Mo-Su 13:00-16:00", "phone": "+34 973642915", "source": "survey", "website": "http://menu.eracoquela.com/carta/"}}, {"type": "Feature", "id": 2605235062, "geometry": {"type": "Point", "coordinates": [0.799552, 42.699708]}, "properties": {"addr:city": "Vielha", "addr:housenumber": "52", "addr:postcode": "25530", "addr:street": "Avenguda deth Pas d'Arro", "amenity": "restaurant", "name": "La Fonda d'en Pep", "source": "survey"}}, {"type": "Feature", "id": 2606415924, "geometry": {"type": "Point", "coordinates": [0.79462, 42.700673]}, "properties": {"amenity": "restaurant", "name": "El Mol\u00ed", "source": "survey"}}, {"type": "Feature", "id": 2606415935, "geometry": {"type": "Point", "coordinates": [0.797126, 42.701117]}, "properties": {"amenity": "restaurant", "name": "Tauerna Aranesa", "source": "survey"}}, {"type": "Feature", "id": 2618942259, "geometry": {"type": "Point", "coordinates": [0.795918, 42.701601]}, "properties": {"amenity": "restaurant", "name": "Era Pla\u00e7a", "outdoor_seating": "yes", "source": "survey"}}, {"type": "Feature", "id": 2618942260, "geometry": {"type": "Point", "coordinates": [0.797357, 42.700979]}, "properties": {"amenity": "restaurant", "name": "Mandronius", "source": "survey"}}, {"type": "Feature", "id": 2660346181, "geometry": {"type": "Point", "coordinates": [0.742663, 42.408945]}, "properties": {"amenity": "restaurant", "name": "Casa Modesto", "source": "survey"}}, {"type": "Feature", "id": 2661021967, "geometry": {"type": "Point", "coordinates": [0.825822, 42.52481]}, "properties": {"amenity": "restaurant", "name": "Hostal La Pla\u00e7a", "source": "survey", "tourism": "hotel"}}, {"type": "Feature", "id": 2661021969, "geometry": {"type": "Point", "coordinates": [0.849005, 42.518206]}, "properties": {"amenity": "restaurant", "name": "Hostal Sant Climent", "source": "survey", "tourism": "hotel"}}, {"type": "Feature", "id": 2735175032, "geometry": {"type": "Point", "coordinates": [1.300917, 42.779162]}, "properties": {"amenity": "restaurant", "name": "Le Graillou"}}, {"type": "Feature", "id": 2735199871, "geometry": {"type": "Point", "coordinates": [1.300852, 42.779105]}, "properties": {"amenity": "restaurant", "name": "Le Refuge", "website": "https://lerefugeguzet.com/"}}, {"type": "Feature", "id": 2735210239, "geometry": {"type": "Point", "coordinates": [1.298992, 42.787758]}, "properties": {"amenity": "restaurant", "cuisine": "pizza", "name": "Le Trappeur"}}, {"type": "Feature", "id": 2735216583, "geometry": {"type": "Point", "coordinates": [1.298719, 42.787812]}, "properties": {"amenity": "restaurant", "name": "Le Chalet Prat"}}, {"type": "Feature", "id": 2780519278, "geometry": {"type": "Point", "coordinates": [0.740918, 42.409326]}, "properties": {"amenity": "restaurant", "cuisine": "pizza", "name": "Pizzeria", "name:ca": "Pizzeria"}}, {"type": "Feature", "id": 2780558929, "geometry": {"type": "Point", "coordinates": [0.742455, 42.408432]}, "properties": {"amenity": "restaurant", "cuisine": "regional", "name": "Restaurant Prades", "opening_hours": "We-Su 09:00-22:00"}}, {"type": "Feature", "id": 2808986184, "geometry": {"type": "Point", "coordinates": [0.823906, 42.697951]}, "properties": {"amenity": "restaurant", "name": "El Niu"}}, {"type": "Feature", "id": 2808988444, "geometry": {"type": "Point", "coordinates": [0.824282, 42.696756]}, "properties": {"amenity": "restaurant", "name": "rac\u00f3 d'Escunhau"}}, {"type": "Feature", "id": 2809095118, "geometry": {"type": "Point", "coordinates": [0.809045, 42.697386]}, "properties": {"amenity": "restaurant", "name": "Eth Paum"}}, {"type": "Feature", "id": 2830339215, "geometry": {"type": "Point", "coordinates": [0.793985, 42.701274]}, "properties": {"amenity": "restaurant", "check_date": "2022-08-02", "name": "Era Canaula"}}, {"type": "Feature", "id": 2870657077, "geometry": {"type": "Point", "coordinates": [0.760157, 42.455956]}, "properties": {"addr:city": "Llesp", "amenity": "restaurant", "cuisine": "regional", "name": "Villa Maria", "website": "http://www.restvillamaria.com/"}}, {"type": "Feature", "id": 2874236810, "geometry": {"type": "Point", "coordinates": [1.421968, 42.371324]}, "properties": {"amenity": "restaurant", "name": "Cal Peret", "name:ca": "Cal Peret"}}, {"type": "Feature", "id": 2882579849, "geometry": {"type": "Point", "coordinates": [0.848738, 42.520383]}, "properties": {"addr:city": "Ta\u00fcll", "addr:housenumber": "11", "addr:postcode": "25528", "addr:street": "Carrer Feixanes", "amenity": "restaurant", "cuisine": "regional", "name": "El Caliu", "website": "https://www.elcaliutaull.com/"}}, {"type": "Feature", "id": 2886735274, "geometry": {"type": "Point", "coordinates": [0.803514, 42.504893]}, "properties": {"addr:housenumber": "47", "addr:street": "Passeig de Sant Feliu", "amenity": "restaurant", "name": "Plato", "phone": "+34 973694055"}}, {"type": "Feature", "id": 2886915823, "geometry": {"type": "Point", "coordinates": [0.74298, 42.434986]}, "properties": {"amenity": "restaurant"}}, {"type": "Feature", "id": 2983350030, "geometry": {"type": "Point", "coordinates": [0.416465, 42.822138]}, "properties": {"amenity": "restaurant", "name": "Les Cimes", "tourism": "hotel"}}, {"type": "Feature", "id": 2998625655, "geometry": {"type": "Point", "coordinates": [1.333887, 42.791962]}, "properties": {"amenity": "restaurant", "name": "L'Oustalet"}}, {"type": "Feature", "id": 3000327563, "geometry": {"type": "Point", "coordinates": [1.336812, 42.790359]}, "properties": {"amenity": "restaurant", "name": "Caf\u00e9 Restaurant L'Etape"}}, {"type": "Feature", "id": 3013848695, "geometry": {"type": "Point", "coordinates": [0.915926, 42.718873]}, "properties": {"amenity": "restaurant", "name": "Casa Per\u00fa"}}, {"type": "Feature", "id": 3014758466, "geometry": {"type": "Point", "coordinates": [1.087861, 42.450676]}, "properties": {"amenity": "restaurant", "cuisine": "catalan", "name": "Restaurant Casa Joana", "phone": "+34 973621758", "ref": "http://www.valldassua.cat/index.php?option=com_content&view=article&id=95:restaurant-casa-joana-bernui&catid=39:restaurants&Itemid=74"}}, {"type": "Feature", "id": 3039633867, "geometry": {"type": "Point", "coordinates": [1.065408, 42.324292]}, "properties": {"amenity": "restaurant", "cuisine": "regional", "name": "Restaurant La Cova"}}, {"type": "Feature", "id": 3039637255, "geometry": {"type": "Point", "coordinates": [0.96922, 42.249501]}, "properties": {"addr:city": "la Pobla de Segur", "addr:housenumber": "40", "addr:postcode": "25500", "addr:street": "Avinguda de Verdaguer", "amenity": "restaurant", "cuisine": "bulgaria;pizza", "name": "La Fusteria"}}, {"type": "Feature", "id": 3401736367, "geometry": {"type": "Point", "coordinates": [0.931652, 42.703412]}, "properties": {"amenity": "restaurant", "name": "Monty's", "website": "https://montysbaqueira.com/"}}, {"type": "Feature", "id": 3413054772, "geometry": {"type": "Point", "coordinates": [1.422185, 42.431173]}, "properties": {"amenity": "restaurant", "name": "Cal Pauet", "name:ca": "Cal Pauet", "phone": "+34 973 35 34 84", "website": "https://calpauet.com/"}}, {"type": "Feature", "id": 3460986791, "geometry": {"type": "Point", "coordinates": [1.089152, 42.575855]}, "properties": {"addr:housenumber": "4", "amenity": "restaurant", "name": "Juquim", "opening_hours": "Mo-Su 12:45-16:00, 19:30-22:00"}}, {"type": "Feature", "id": 3467842756, "geometry": {"type": "Point", "coordinates": [1.088503, 42.575807]}, "properties": {"amenity": "restaurant", "name": "L'avet de Sant Maurici"}}, {"type": "Feature", "id": 3514792008, "geometry": {"type": "Point", "coordinates": [1.347163, 42.8888]}, "properties": {"amenity": "restaurant", "cuisine": "pizza", "name": "L'Oumbass"}}, {"type": "Feature", "id": 3603100404, "geometry": {"type": "Point", "coordinates": [0.743988, 42.408899]}, "properties": {"addr:city": "el Pont de Suert", "addr:housenumber": "29 A", "addr:postcode": "25520", "addr:street": "Carrer de Sant Avent\u00ed", "amenity": "restaurant", "capacity": "70", "cuisine": "regional", "name": "BRASERIA ISARD", "name:ca": "BRASERIA ISARD", "name:fr": "RESTAURNT ISARD", "phone": "+34 973690139"}}, {"type": "Feature", "id": 3647022967, "geometry": {"type": "Point", "coordinates": [0.522717, 42.605087]}, "properties": {"addr:postcode": "22440", "addr:street": "Calle Las Plazas", "amenity": "restaurant", "name": "Bardanca"}}, {"type": "Feature", "id": 3699962736, "geometry": {"type": "Point", "coordinates": [0.872734, 42.700043]}, "properties": {"addr:city": "Arties", "addr:housenumber": "16", "addr:postcode": "25599", "addr:street": "Carrer Major", "amenity": "restaurant", "capacity": "Entre 150 y 200", "cuisine": "regional", "name": "La Casuca de Arties", "opening_hours": "\"Servicio comidas y cenas\"", "phone": "+34 973 642 024", "smoking": "outside", "takeaway": "yes", "wheelchair": "limited"}}, {"type": "Feature", "id": 3849432459, "geometry": {"type": "Point", "coordinates": [0.488458, 42.512097]}, "properties": {"addr:city": "Castej\u00f3n de Sos", "addr:housenumber": "12", "addr:postcode": "22466", "addr:street": "Avenida El Ral", "amenity": "restaurant", "cuisine": "regional", "name": "Restaurante Casa Juan", "smoking": "outside"}}, {"type": "Feature", "id": 3990058983, "geometry": {"type": "Point", "coordinates": [0.857878, 42.515002]}, "properties": {"amenity": "restaurant"}}, {"type": "Feature", "id": 3994848587, "geometry": {"type": "Point", "coordinates": [0.847616, 42.520193]}, "properties": {"addr:housenumber": "9", "addr:street": "pla\u00e7a santa maria", "amenity": "restaurant", "name": "Bar de la pla\u00e7a"}}, {"type": "Feature", "id": 3996779400, "geometry": {"type": "Point", "coordinates": [0.801397, 42.504443]}, "properties": {"amenity": "restaurant"}}, {"type": "Feature", "id": 3996798102, "geometry": {"type": "Point", "coordinates": [0.799871, 42.504525]}, "properties": {"amenity": "restaurant", "name": "Noray"}}, {"type": "Feature", "id": 4016870197, "geometry": {"type": "Point", "coordinates": [0.541122, 42.301952]}, "properties": {"amenity": "restaurant", "name": "Casa Custodio", "tourism": "hotel"}}, {"type": "Feature", "id": 4038233923, "geometry": {"type": "Point", "coordinates": [0.803817, 42.504722]}, "properties": {"addr:city": "Barruera", "amenity": "restaurant", "name": "La Llebreta"}}, {"type": "Feature", "id": 4046488288, "geometry": {"type": "Point", "coordinates": [0.700374, 42.749815]}, "properties": {"amenity": "restaurant", "name": "Cabana d'Aubas"}}, {"type": "Feature", "id": 4122899984, "geometry": {"type": "Point", "coordinates": [1.08579, 42.359346]}, "properties": {"amenity": "restaurant", "name": "el Carro", "name:ca": "el Carro"}}, {"type": "Feature", "id": 4243457908, "geometry": {"type": "Point", "coordinates": [0.826186, 42.525271]}, "properties": {"amenity": "restaurant", "name": "La Granja", "name:ca": "La Granja", "outdoor_seating": "yes", "wheelchair": "yes"}}, {"type": "Feature", "id": 4252273558, "geometry": {"type": "Point", "coordinates": [0.989782, 42.507258]}, "properties": {"amenity": "restaurant", "name": "Restaurant Sallente"}}, {"type": "Feature", "id": 4277846026, "geometry": {"type": "Point", "coordinates": [1.227994, 42.565083]}, "properties": {"addr:city": "Ribera de Card\u00f3s", "addr:housenumber": "16", "addr:postcode": "25570", "addr:street": "Av. Hug Roger III", "amenity": "restaurant", "contact:email": "info@hotellaribera.com", "name": "La Ribera", "name:ca": "La Ribera", "phone": "+34 973 62 30 35", "phone_1": "+34 680460762", "tourism": "hotel"}}, {"type": "Feature", "id": 4310533058, "geometry": {"type": "Point", "coordinates": [0.98113, 42.419212]}, "properties": {"addr:city": "La Torre de Cabdella", "addr:postcode": "25515", "addr:street": "L-503 Carretera de la Vall Fosca", "amenity": "restaurant", "cuisine": "regional", "name": "La Torre Vall Fosca", "outdoor_seating": "no", "smoking": "no", "takeaway": "no"}}, {"type": "Feature", "id": 4319426495, "geometry": {"type": "Point", "coordinates": [0.90135, 42.706933]}, "properties": {"amenity": "restaurant", "check_date": "2022-08-04", "cuisine": "spanish;local", "internet_access": "wlan", "name": "Vinoteca Eth Gris"}}, {"type": "Feature", "id": 4338607306, "geometry": {"type": "Point", "coordinates": [0.99655, 42.509699]}, "properties": {"amenity": "restaurant", "name": "Telef\u00e8ric 2200", "name:ca": "Telef\u00e8ric 2200", "outdoor_seating": "yes", "phone": "+34 973 25 23 37;+34 973 25 22 31"}}, {"type": "Feature", "id": 4344482284, "geometry": {"type": "Point", "coordinates": [1.031193, 42.919059]}, "properties": {"addr:city": "Castillon-en-Couserans", "addr:postcode": "09800", "addr:street": "Avenue No\u00ebl Peyrevidal", "amenity": "restaurant", "cuisine": "brasserie", "name": "Cas'Ty Bar"}}, {"type": "Feature", "id": 4344482285, "geometry": {"type": "Point", "coordinates": [1.031749, 42.919207]}, "properties": {"addr:city": "Castillon-en-Couserans", "addr:postcode": "09800", "addr:street": "Rue Fran\u00e7ois Camel", "amenity": "restaurant", "cuisine": "pizza", "name": "Chez Tof"}}, {"type": "Feature", "id": 4355083537, "geometry": {"type": "Point", "coordinates": [1.402576, 42.328146]}, "properties": {"addr:city": "Adrall", "addr:country": "ES", "addr:housenumber": "233.5", "addr:street": "N-260", "amenity": "restaurant", "cuisine": "regional", "email": "llardefoc@restaurantllardefoc.com", "name": "Llar de Foc", "phone": "+34 973 387 118"}}, {"type": "Feature", "id": 4357397292, "geometry": {"type": "Point", "coordinates": [0.40936, 42.796835]}, "properties": {"amenity": "restaurant", "cuisine": "regional", "name": "L'Escapade", "source": "survey"}}, {"type": "Feature", "id": 4357397296, "geometry": {"type": "Point", "coordinates": [0.409417, 42.797192]}, "properties": {"amenity": "restaurant", "cuisine": "french;regional", "name": "L'ardoise", "opening_hours": "Mo,Tu,Fr,Su 11:00-14:00,18:30-21:00; We off; SH 11:00-14:00,18:30-21:00", "operator": "Skiset", "phone": "+33 5 62 39 24 09", "website": "https://lardoise-loudenvielle.com/"}}, {"type": "Feature", "id": 4384526694, "geometry": {"type": "Point", "coordinates": [1.313259, 42.795709]}, "properties": {"amenity": "restaurant", "cuisine": "regional", "name": "Les Souleillons"}}, {"type": "Feature", "id": 4396694243, "geometry": {"type": "Point", "coordinates": [1.211367, 42.494724]}, "properties": {"amenity": "restaurant", "name": "Restaurant Noguera"}}, {"type": "Feature", "id": 4397725492, "geometry": {"type": "Point", "coordinates": [0.528573, 42.291471]}, "properties": {"addr:postcode": "22482", "addr:street": "Calle Santa Ana", "amenity": "restaurant", "name": "Mes\u00f3n de Roda", "name:ca": "Mes\u00f3n de Roda", "phone": "+34 655342123"}}, {"type": "Feature", "id": 4446722136, "geometry": {"type": "Point", "coordinates": [0.965415, 42.241677]}, "properties": {"addr:city": "la Pobla de Segur", "addr:housenumber": "44", "addr:postcode": "25516", "addr:street": "Avinguda de l'Estaci\u00f3", "amenity": "restaurant", "email": "info@hotelsole.es", "name": "Sol\u00e9", "phone": "+34 973 680 452", "tourism": "hotel", "website": "https://www.hotelsole.es/"}}, {"type": "Feature", "id": 4446722138, "geometry": {"type": "Point", "coordinates": [0.96543, 42.242333]}, "properties": {"addr:city": "la Pobla de Segur", "addr:housenumber": "34", "addr:postcode": "25516", "addr:street": "Avinguda de l'Estaci\u00f3", "amenity": "restaurant", "cuisine": "brasserie", "name": "Les Falles", "name:ca": "Les Falles"}}, {"type": "Feature", "id": 4542672862, "geometry": {"type": "Point", "coordinates": [1.10933, 42.633303]}, "properties": {"amenity": "restaurant", "name": "Bar restaurant Felip"}}, {"type": "Feature", "id": 4545232770, "geometry": {"type": "Point", "coordinates": [0.977687, 42.664523]}, "properties": {"amenity": "restaurant", "name": "el Refugi", "name:ca": "el Refugi"}}, {"type": "Feature", "id": 4634728207, "geometry": {"type": "Point", "coordinates": [1.405663, 42.36004]}, "properties": {"amenity": "restaurant"}}, {"type": "Feature", "id": 4657634342, "geometry": {"type": "Point", "coordinates": [0.710314, 42.808442]}, "properties": {"amenity": "restaurant", "name": "Tiurna"}}, {"type": "Feature", "id": 4657634343, "geometry": {"type": "Point", "coordinates": [0.709026, 42.807228]}, "properties": {"amenity": "restaurant", "name": "Es Banhs"}}, {"type": "Feature", "id": 4657637519, "geometry": {"type": "Point", "coordinates": [0.710732, 42.8109]}, "properties": {"amenity": "restaurant", "name": "Eth Cornereth de Les"}}, {"type": "Feature", "id": 4657637524, "geometry": {"type": "Point", "coordinates": [0.71167, 42.814393]}, "properties": {"amenity": "restaurant", "name": "Es T\u00e8rmes"}}, {"type": "Feature", "id": 4657639909, "geometry": {"type": "Point", "coordinates": [0.70974, 42.810685]}, "properties": {"amenity": "restaurant", "name": "Juan Canejan", "tourism": "hotel"}}, {"type": "Feature", "id": 4683169208, "geometry": {"type": "Point", "coordinates": [1.211713, 42.428203]}, "properties": {"amenity": "restaurant"}}, {"type": "Feature", "id": 4683219549, "geometry": {"type": "Point", "coordinates": [1.21217, 42.422416]}, "properties": {"amenity": "restaurant"}}, {"type": "Feature", "id": 4692211785, "geometry": {"type": "Point", "coordinates": [0.59524, 42.785852]}, "properties": {"amenity": "restaurant", "name": "H\u00f4tel d'Etigny"}}, {"type": "Feature", "id": 4707343709, "geometry": {"type": "Point", "coordinates": [0.801925, 42.699324]}, "properties": {"addr:city": "Vielha", "addr:housenumber": "29", "addr:postcode": "25530", "addr:street": "Avinguda deth Pas d'Arr\u00f3", "amenity": "restaurant", "cuisine": "burger;sandwich;hotdog;breakfast;ice_cream;sausage;local;coffee_shop;pasta;chicken;spanish;diner;tapas", "name": "Casa Luis", "name:es": "El Rey del Bocata", "opening_hours": "Mo-Su 06:00-23:00", "phone": "+34973642587", "website": "https://www.casaluisvielha.com/"}}, {"type": "Feature", "id": 4830832760, "geometry": {"type": "Point", "coordinates": [0.871145, 42.700674]}, "properties": {"amenity": "restaurant", "name": "Mozart"}}, {"type": "Feature", "id": 4914171833, "geometry": {"type": "Point", "coordinates": [0.677116, 42.925933]}, "properties": {"amenity": "restaurant", "name": "Le Marrakech"}}, {"type": "Feature", "id": 4915116336, "geometry": {"type": "Point", "coordinates": [0.730084, 42.834497]}, "properties": {"addr:city": "Bausen", "addr:housenumber": "185", "addr:postcode": "25549", "addr:street": "Carretera N-230 L\u00e9rida-Viella-Francia", "amenity": "restaurant", "name": "Era Balan\u00e7a", "phone": "+34626782817"}}, {"type": "Feature", "id": 4920469620, "geometry": {"type": "Point", "coordinates": [0.545221, 42.307575]}, "properties": {"amenity": "restaurant", "breakfast": "yes", "brewery": "estrella", "cuisine": "regional;german", "dinner": "a_la_carte;menu", "distillery": "cazique", "drink": "espresso", "fixme": "Check kitchen hours", "opening_hours": "08:00-22:00", "opening_hours:kitchen": "08:00-10:00,18:00-21:00", "reservation": "required"}}, {"type": "Feature", "id": 4924518112, "geometry": {"type": "Point", "coordinates": [0.492157, 42.512299]}, "properties": {"amenity": "restaurant"}}, {"type": "Feature", "id": 4988447183, "geometry": {"type": "Point", "coordinates": [0.524914, 42.605089]}, "properties": {"addr:city": "Benasque", "addr:postcode": "22440", "addr:street": "Carretera de Francia", "amenity": "restaurant", "contact:facebook": "https://www.facebook.com/laparrillabenasque", "email": "bostariz@hotmail.com", "name": "La Parilla", "nohousenumber": "yes", "phone": "+34974551134"}}, {"type": "Feature", "id": 4988449129, "geometry": {"type": "Point", "coordinates": [0.522126, 42.605892]}, "properties": {"amenity": "restaurant", "name": "Sayo"}}, {"type": "Feature", "id": 4988449130, "geometry": {"type": "Point", "coordinates": [0.524753, 42.605779]}, "properties": {"addr:housenumber": "38", "addr:street": "Avenida de Francia", "air_conditioning": "yes", "amenity": "restaurant", "name": "Cantaloope"}}, {"type": "Feature", "id": 5058311245, "geometry": {"type": "Point", "coordinates": [1.201594, 42.863311]}, "properties": {"amenity": "restaurant", "cuisine": "regional", "name": "La Gourmandine", "outdoor_seating": "yes", "website": "http://www.lagourmandine09.fr/"}}, {"type": "Feature", "id": 5069982560, "geometry": {"type": "Point", "coordinates": [0.591032, 42.792001]}, "properties": {"amenity": "restaurant", "indoor_seating": "yes", "name": "Le Faisan Dor\u00e9", "outdoor_seating": "yes"}}, {"type": "Feature", "id": 5070137521, "geometry": {"type": "Point", "coordinates": [1.14905, 42.633467]}, "properties": {"amenity": "restaurant", "name": "Casa Tonya", "name:ca": "Casa Tonya"}}, {"type": "Feature", "id": 5076802867, "geometry": {"type": "Point", "coordinates": [0.59371, 42.787225]}, "properties": {"amenity": "restaurant", "cuisine": "pizza", "name": "La Bodeguita", "outdoor_seating": "yes"}}, {"type": "Feature", "id": 5085565400, "geometry": {"type": "Point", "coordinates": [0.945661, 42.697251]}, "properties": {"amenity": "restaurant", "name": "Restaurante Cinco Jotas"}}, {"type": "Feature", "id": 5126942401, "geometry": {"type": "Point", "coordinates": [0.717368, 42.476303]}, "properties": {"amenity": "restaurant", "name": "Fonda Mas", "source": "www.fondamas.cat"}}, {"type": "Feature", "id": 5178864580, "geometry": {"type": "Point", "coordinates": [1.087768, 42.575755]}, "properties": {"addr:city": "Espot", "addr:country": "ES", "addr:street": "Pla\u00e7a del Doctor Benavent", "amenity": "restaurant", "name": "La Llupia"}}, {"type": "Feature", "id": 5337892789, "geometry": {"type": "Point", "coordinates": [0.576732, 42.768558]}, "properties": {"amenity": "restaurant", "name": "La pl\u00e8te", "outdoor_seating": "yes"}}, {"type": "Feature", "id": 5433786125, "geometry": {"type": "Point", "coordinates": [0.447012, 42.791151]}, "properties": {"amenity": "restaurant"}}, {"type": "Feature", "id": 5433786126, "geometry": {"type": "Point", "coordinates": [0.446909, 42.791356]}, "properties": {"amenity": "restaurant"}}, {"type": "Feature", "id": 5433786132, "geometry": {"type": "Point", "coordinates": [0.446561, 42.790392]}, "properties": {"amenity": "restaurant", "name": "La flamme"}}, {"type": "Feature", "id": 5538359422, "geometry": {"type": "Point", "coordinates": [0.57665, 42.768341]}, "properties": {"amenity": "restaurant", "name": "La Luge", "outdoor_seating": "yes"}}, {"type": "Feature", "id": 5645689025, "geometry": {"type": "Point", "coordinates": [0.522606, 42.607196]}, "properties": {"addr:housenumber": "49", "addr:postcode": "22440", "addr:street": "Calle Mayor", "amenity": "restaurant", "email": "mesondebenas@gmail.com", "name": "Mes\u00f3n de Benas", "phone": "+34 692 18 90 33", "website": "https://mesondebenas.com/"}}, {"type": "Feature", "id": 5810101280, "geometry": {"type": "Point", "coordinates": [1.085184, 42.360424]}, "properties": {"amenity": "restaurant", "name": "Alt Pirineu"}}, {"type": "Feature", "id": 5854399585, "geometry": {"type": "Point", "coordinates": [0.79602, 42.703215]}, "properties": {"amenity": "restaurant", "name": "Eth Restilhe"}}, {"type": "Feature", "id": 5861583785, "geometry": {"type": "Point", "coordinates": [0.903213, 42.706913]}, "properties": {"amenity": "restaurant", "name": "Braseria er Amic"}}, {"type": "Feature", "id": 5863737887, "geometry": {"type": "Point", "coordinates": [0.795268, 42.700824]}, "properties": {"amenity": "restaurant", "cuisine": "regional;grill", "name": "Eth Gorm\u00e0n"}}, {"type": "Feature", "id": 5928547267, "geometry": {"type": "Point", "coordinates": [1.24428, 42.515165]}, "properties": {"amenity": "restaurant", "name": "Nadalet"}}, {"type": "Feature", "id": 5982152647, "geometry": {"type": "Point", "coordinates": [0.649369, 42.913485]}, "properties": {"amenity": "restaurant", "cuisine": "pizza"}}, {"type": "Feature", "id": 6175271532, "geometry": {"type": "Point", "coordinates": [0.79281, 42.702175]}, "properties": {"amenity": "restaurant", "name": "el Raconet"}}, {"type": "Feature", "id": 6175297214, "geometry": {"type": "Point", "coordinates": [0.902983, 42.705392]}, "properties": {"amenity": "restaurant", "name": "Prat Aloy"}}, {"type": "Feature", "id": 6183797286, "geometry": {"type": "Point", "coordinates": [0.79611, 42.70152]}, "properties": {"amenity": "restaurant", "name": "tapas place", "outdoor_seating": "yes"}}, {"type": "Feature", "id": 6248725329, "geometry": {"type": "Point", "coordinates": [0.709744, 42.45176]}, "properties": {"amenity": "restaurant"}}, {"type": "Feature", "id": 6301391468, "geometry": {"type": "Point", "coordinates": [0.577093, 42.768673]}, "properties": {"amenity": "restaurant", "name": "Le super G", "outdoor_seating": "yes"}}, {"type": "Feature", "id": 6310404530, "geometry": {"type": "Point", "coordinates": [0.601688, 42.791554]}, "properties": {"amenity": "restaurant", "name": "Le Fairway"}}, {"type": "Feature", "id": 6313113136, "geometry": {"type": "Point", "coordinates": [0.591436, 42.790009]}, "properties": {"amenity": "restaurant", "cuisine": "regional", "name": "Le Glacier", "phone": "+33561953730"}}, {"type": "Feature", "id": 6313113151, "geometry": {"type": "Point", "coordinates": [0.592085, 42.788806]}, "properties": {"amenity": "restaurant", "name": "La Tute de L'Ours", "phone": "+33561790404"}}, {"type": "Feature", "id": 6320881555, "geometry": {"type": "Point", "coordinates": [0.591796, 42.79026]}, "properties": {"amenity": "restaurant", "name": "Le Bellevue"}}, {"type": "Feature", "id": 6320930913, "geometry": {"type": "Point", "coordinates": [0.591376, 42.790207]}, "properties": {"amenity": "restaurant", "cuisine": "pizza", "name": "Lou Pountet", "phone": "+33561943232"}}, {"type": "Feature", "id": 6440589558, "geometry": {"type": "Point", "coordinates": [0.794002, 42.700466]}, "properties": {"amenity": "restaurant", "name": "Casa Jimena"}}, {"type": "Feature", "id": 6684048948, "geometry": {"type": "Point", "coordinates": [1.306943, 42.521163]}, "properties": {"amenity": "restaurant", "name": "Refugi Gall Fer", "name:ca": "Refugi Gall Fer", "reservation": "recommended"}}, {"type": "Feature", "id": 6723690438, "geometry": {"type": "Point", "coordinates": [0.619452, 42.831616]}, "properties": {"amenity": "restaurant", "name": "Les Hauts P\u00e2turages", "phone": "+33 5 61 79 10 47"}}, {"type": "Feature", "id": 6736012398, "geometry": {"type": "Point", "coordinates": [0.793892, 42.699924]}, "properties": {"amenity": "restaurant", "name": "Cal Quim"}}, {"type": "Feature", "id": 6736187180, "geometry": {"type": "Point", "coordinates": [0.797457, 42.700628]}, "properties": {"amenity": "restaurant", "name": "Nosati"}}, {"type": "Feature", "id": 6833338768, "geometry": {"type": "Point", "coordinates": [1.128732, 42.410359]}, "properties": {"addr:housenumber": "5", "addr:postcode": "25560", "addr:street": "Avinguda dels Comtes de Pallars", "amenity": "restaurant", "cuisine": "pizza", "name": "Pizzes Lo Pallars", "phone": "+34 973 62 06 24", "website": "https://pizzeslopallars.com/"}}, {"type": "Feature", "id": 6972087731, "geometry": {"type": "Point", "coordinates": [1.397539, 42.570421]}, "properties": {"amenity": "restaurant", "name": "Casa Sisqueta", "note": "Restaurant a Tor (se serveix arr\u00f2s de muntanya, carn a la brasa) 18-20\u20ac. Telefonar per a reservar", "phone": "+34 645 048 827"}}, {"type": "Feature", "id": 7001484259, "geometry": {"type": "Point", "coordinates": [0.755315, 42.738022]}, "properties": {"addr:city": "Pont d'Arros", "addr:postcode": "25537", "amenity": "restaurant", "name": "Restaurant Pe\u00f1a", "opening_hours": "Mo-Su 12:00-14:45,20:00-21:45", "phone": "+34973640886", "website": "http://www.hotelpenha.com"}}, {"type": "Feature", "id": 7040147101, "geometry": {"type": "Point", "coordinates": [0.796209, 42.701661]}, "properties": {"amenity": "restaurant", "name": "Chapeau"}}, {"type": "Feature", "id": 7047312132, "geometry": {"type": "Point", "coordinates": [0.902256, 42.710085]}, "properties": {"addr:city": "Unha", "addr:housenumber": "3", "addr:street": "Carr\u00e8r de Santa Eul\u00e0lia", "amenity": "restaurant", "email": "madema31@gmail.com", "name": "Restaurant Maria Adem\u00e0", "phone": "+34 973 644 169", "website": "https://www.mariaadema.com"}}, {"type": "Feature", "id": 7047315350, "geometry": {"type": "Point", "coordinates": [0.905249, 42.705295]}, "properties": {"addr:city": "Salard\u00fa", "amenity": "restaurant", "name": "Vermont"}}, {"type": "Feature", "id": 7202801835, "geometry": {"type": "Point", "coordinates": [1.36591, 42.295502]}, "properties": {"amenity": "restaurant", "name": "Casa Paco", "name:ca": "Casa Paco"}}, {"type": "Feature", "id": 7479227737, "geometry": {"type": "Point", "coordinates": [0.598607, 42.792112]}, "properties": {"access": "private", "amenity": "restaurant", "name": "Self"}}, {"type": "Feature", "id": 7671080909, "geometry": {"type": "Point", "coordinates": [1.043133, 42.896298]}, "properties": {"amenity": "restaurant", "name": "Auberge de la Core"}}, {"type": "Feature", "id": 7780935608, "geometry": {"type": "Point", "coordinates": [0.794749, 42.701601]}, "properties": {"amenity": "restaurant", "name": "Woolloomooloo"}}, {"type": "Feature", "id": 7783699044, "geometry": {"type": "Point", "coordinates": [0.835583, 42.522087]}, "properties": {"air_conditioning": "yes", "amenity": "restaurant", "name": "Casa Higinio"}}, {"type": "Feature", "id": 7784744410, "geometry": {"type": "Point", "coordinates": [0.794014, 42.700906]}, "properties": {"amenity": "restaurant", "cuisine": "french", "name": "O la la crepes"}}, {"type": "Feature", "id": 7786620901, "geometry": {"type": "Point", "coordinates": [0.834237, 42.52206]}, "properties": {"amenity": "restaurant"}}, {"type": "Feature", "id": 7788006452, "geometry": {"type": "Point", "coordinates": [0.793643, 42.702755]}, "properties": {"amenity": "restaurant", "name": "Restaurant O\u00e7o"}}, {"type": "Feature", "id": 7791409351, "geometry": {"type": "Point", "coordinates": [0.915402, 42.719121]}, "properties": {"amenity": "restaurant", "cuisine": "regional", "name": "Casa Rosa", "name:ca": "Casa Rosa", "name:oc": "Casa Rosa", "outdoor_seating": "yes"}}, {"type": "Feature", "id": 7791436967, "geometry": {"type": "Point", "coordinates": [0.915732, 42.718908]}, "properties": {"amenity": "restaurant", "name": "Unh\u00f2la"}}, {"type": "Feature", "id": 7802022744, "geometry": {"type": "Point", "coordinates": [0.934703, 42.835194]}, "properties": {"amenity": "restaurant"}}, {"type": "Feature", "id": 7850722606, "geometry": {"type": "Point", "coordinates": [1.088404, 42.575528]}, "properties": {"amenity": "restaurant", "name": "Casa Palmira"}}, {"type": "Feature", "id": 7855240198, "geometry": {"type": "Point", "coordinates": [0.793973, 42.702385]}, "properties": {"addr:city": "Vielha", "addr:housenumber": "12", "addr:postcode": "25530", "addr:street": "Carr\u00e8r deth Sentin", "amenity": "restaurant", "contact:phone": "+34 973 64 12 87", "cuisine": "regional", "name": "Braseria El Rac\u00f3", "website": "https://www.braseriaelraco.com/"}}, {"type": "Feature", "id": 7859092977, "geometry": {"type": "Point", "coordinates": [0.793941, 42.701132]}, "properties": {"amenity": "restaurant", "check_date": "2022-08-02", "name": "Era Gripia"}}, {"type": "Feature", "id": 7859115255, "geometry": {"type": "Point", "coordinates": [0.795219, 42.704541]}, "properties": {"addr:housenumber": "10", "addr:street": "Avenida Alcalde Calbeto 10", "amenity": "restaurant", "cuisine": "regional", "name": "Era Lucana", "phone": "+34 973 64 17 98", "website": "https://www.eralucana.com"}}, {"type": "Feature", "id": 7859125212, "geometry": {"type": "Point", "coordinates": [0.795059, 42.702063]}, "properties": {"addr:city": "Vielha e Mijaran", "addr:housenumber": "3", "addr:postcode": "25530", "addr:street": "Pla\u00e7a de Sant Ant\u00f2ni", "amenity": "restaurant", "cuisine": "italian", "name": "La Carbonara", "phone": "+34973640141"}}, {"type": "Feature", "id": 7859132824, "geometry": {"type": "Point", "coordinates": [0.794183, 42.70069]}, "properties": {"amenity": "restaurant", "name": "Gin & Dinner"}}, {"type": "Feature", "id": 7859158033, "geometry": {"type": "Point", "coordinates": [0.716109, 42.835168]}, "properties": {"addr:housenumber": "17", "addr:street": "Carrer Major", "amenity": "restaurant", "name": "Casa Lila", "opening_hours": "Mo-Su 12:00-15:00", "phone": "+34 667413667", "website": "https://casa-lila-bar.negocio.site/"}}, {"type": "Feature", "id": 7859161525, "geometry": {"type": "Point", "coordinates": [0.871086, 42.698446]}, "properties": {"amenity": "restaurant", "name": "La Tarter\u00eda"}}, {"type": "Feature", "id": 7859172211, "geometry": {"type": "Point", "coordinates": [0.796383, 42.823862]}, "properties": {"amenity": "restaurant", "name": "Sant Joan de Tor\u00e1n"}}, {"type": "Feature", "id": 7859212106, "geometry": {"type": "Point", "coordinates": [0.742781, 42.554242]}, "properties": {"amenity": "restaurant"}}, {"type": "Feature", "id": 7859212678, "geometry": {"type": "Point", "coordinates": [0.915667, 42.718269]}, "properties": {"amenity": "restaurant", "name": "El Jard\u00ed dels pomers"}}, {"type": "Feature", "id": 7859220996, "geometry": {"type": "Point", "coordinates": [0.871674, 42.701152]}, "properties": {"amenity": "restaurant", "cuisine": "regional", "name": "La Sal Gorda"}}, {"type": "Feature", "id": 7859233670, "geometry": {"type": "Point", "coordinates": [0.901745, 42.710026]}, "properties": {"amenity": "restaurant", "name": "La Tertulia"}}, {"type": "Feature", "id": 7859234929, "geometry": {"type": "Point", "coordinates": [0.901113, 42.707506]}, "properties": {"amenity": "restaurant", "name": "Borda Benjam\u00edn"}}, {"type": "Feature", "id": 7878395285, "geometry": {"type": "Point", "coordinates": [0.965868, 42.249093]}, "properties": {"amenity": "restaurant", "cuisine": "catalan", "email": "info@restaurantlariba.es", "internet_access": "wlan", "name": "La Riba", "opening_hours": "Mo-Su 12:00-16:00", "phone": "+34 973 660 065", "website": "https://www.restaurantlariba.es/"}}, {"type": "Feature", "id": 7997987530, "geometry": {"type": "Point", "coordinates": [1.092487, 42.749375]}, "properties": {"amenity": "restaurant", "contact:email": "bordaignasia@gmail.com", "contact:facebook": "https://es-es.facebook.com/bordaignasia", "contact:phone": "+34 636 51 52 01", "cuisine": "barbecue", "name": "Borda Ignasia"}}, {"type": "Feature", "id": 8046672618, "geometry": {"type": "Point", "coordinates": [0.621093, 42.855697]}, "properties": {"amenity": "restaurant", "cuisine": "local;regional", "name": "Ferme Auberge Chez Justau", "phone": "+335 61 79 00 97", "phone:mobile": "+336 13 75 18 81", "reservation": "required", "website": "http://justau.e-monsite.com/", "wheelchair": "yes"}}, {"type": "Feature", "id": 8515984526, "geometry": {"type": "Point", "coordinates": [0.873271, 42.700429]}, "properties": {"amenity": "restaurant"}}, {"type": "Feature", "id": 8541202017, "geometry": {"type": "Point", "coordinates": [0.777053, 42.730733]}, "properties": {"addr:housenumber": "9", "addr:street": "Carret\u00e8ra de Francia", "amenity": "restaurant", "name": "Osteria Roc'n'Cris"}}, {"type": "Feature", "id": 8745631101, "geometry": {"type": "Point", "coordinates": [0.518313, 42.852451]}, "properties": {"amenity": "restaurant", "name": "El Almac\u00e8n de Cir\u00e8s"}}, {"type": "Feature", "id": 8844714744, "geometry": {"type": "Point", "coordinates": [0.591569, 42.79043]}, "properties": {"amenity": "restaurant", "name": "Les Galeries Gourmandes Luchon", "phone": "+33562001379", "website": "https://lggl.fr/"}}, {"type": "Feature", "id": 8972540816, "geometry": {"type": "Point", "coordinates": [1.198358, 42.832016]}, "properties": {"addr:city": "Seix", "addr:postcode": "09140", "addr:street": "Pont de la Taul\u00e9", "amenity": "restaurant", "internet_access": "yes", "internet_access:fee": "customers", "name": "Auberge Des Deux Rivi\u00e8res", "tourism": "hotel", "website": "https://www.aubergedesdeuxrivieres.com/"}}, {"type": "Feature", "id": 8978439216, "geometry": {"type": "Point", "coordinates": [0.834752, 42.521657]}, "properties": {"amenity": "restaurant", "contact:instagram": "https://www.instagram.com/latavernetapresskivalldeboi", "contact:phone": "+34 973 69 60 29", "name": "La Taverneta"}}, {"type": "Feature", "id": 9010686117, "geometry": {"type": "Point", "coordinates": [0.465784, 42.546859]}, "properties": {"amenity": "restaurant", "name": "Casa Riu"}}, {"type": "Feature", "id": 9038784137, "geometry": {"type": "Point", "coordinates": [0.794733, 42.701341]}, "properties": {"amenity": "restaurant", "name": "All i Oli"}}, {"type": "Feature", "id": 9040805741, "geometry": {"type": "Point", "coordinates": [0.769212, 42.912574]}, "properties": {"amenity": "restaurant", "name": "La Grange"}}, {"type": "Feature", "id": 9070364415, "geometry": {"type": "Point", "coordinates": [0.542895, 42.624881]}, "properties": {"amenity": "restaurant", "name": "Camping Aneto", "outdoor_seating": "yes", "wheelchair": "no"}}, {"type": "Feature", "id": 9236152489, "geometry": {"type": "Point", "coordinates": [0.592595, 42.787852]}, "properties": {"amenity": "restaurant", "indoor_seating": "yes", "name": "Le Chalet des Gourmands", "outdoor_seating": "yes", "phone": "+33561945945"}}, {"type": "Feature", "id": 9236152490, "geometry": {"type": "Point", "coordinates": [0.592676, 42.787706]}, "properties": {"amenity": "restaurant", "indoor_seating": "yes", "name": "Le Bistrot Des Allees", "outdoor_seating": "yes", "phone": "+33561955831", "website": "https://www.bistro-des-allees-luchon.fr/"}}, {"type": "Feature", "id": 9348962855, "geometry": {"type": "Point", "coordinates": [0.692118, 42.783829]}, "properties": {"addr:city": "Boss\u00f2st", "addr:housenumber": "24", "addr:postcode": "25550", "addr:street": "Passeg Grau\u00e8r d'Eduard Aun\u00f3s", "amenity": "restaurant", "contact:instagram": "https://www.instagram.com/er_estranger/", "name": "Er Estrang\u00e8r", "phone": "+34 660601482"}}, {"type": "Feature", "id": 9631618905, "geometry": {"type": "Point", "coordinates": [1.202142, 42.863722]}, "properties": {"amenity": "restaurant", "name": "Le Rive Guauche"}}, {"type": "Feature", "id": 9823282237, "geometry": {"type": "Point", "coordinates": [0.744205, 42.435842]}, "properties": {"amenity": "restaurant", "level": "0", "name": "Camping del Remei", "outdoor_seating": "yes", "toilets": "yes", "wheelchair": "yes"}}, {"type": "Feature", "id": 9825034543, "geometry": {"type": "Point", "coordinates": [0.493185, 42.512585]}, "properties": {"amenity": "restaurant", "name": "La Morera"}}, {"type": "Feature", "id": 9870322820, "geometry": {"type": "Point", "coordinates": [0.528128, 42.291795]}, "properties": {"amenity": "restaurant", "cuisine": "regional", "name": "Hospederia de roda de Isabena", "opening_hours": "13:00-15:30,20:30-21:30", "phone": "+34 974 54 45 45"}}, {"type": "Feature", "id": 9922947185, "geometry": {"type": "Point", "coordinates": [0.799734, 42.700024]}, "properties": {"amenity": "restaurant", "check_date": "2022-07-31", "name": "Brasa d'Aran"}}, {"type": "Feature", "id": 9927184586, "geometry": {"type": "Point", "coordinates": [0.691934, 42.785715]}, "properties": {"addr:housenumber": "9", "addr:street": "Placa dera Gleisa", "amenity": "restaurant", "check_date": "2022-08-02", "name": "Urtau", "opening_hours": "Mo-Su 09:30-23:00", "phone": "+34 973647327", "website": "https://www.urtau.com/wp-content/uploads/2020/06/urtau-carta-verano-2020.pdf"}}, {"type": "Feature", "id": 9971827130, "geometry": {"type": "Point", "coordinates": [0.872649, 42.699906]}, "properties": {"addr:city": "Arties", "addr:housenumber": "14", "addr:postcode": "25599", "addr:street": "Carr\u00e8r Major", "amenity": "restaurant", "cuisine": "regional", "name": "Restaurant Casa Tana", "phone": "+34 973 644 294"}}, {"type": "Feature", "id": 10039264970, "geometry": {"type": "Point", "coordinates": [0.41002, 42.79854]}, "properties": {"amenity": "restaurant", "cuisine": "pizza", "name": "Sky Pizza", "takeaway": "yes"}}, {"type": "Feature", "id": 10039264974, "geometry": {"type": "Point", "coordinates": [0.40966, 42.798745]}, "properties": {"amenity": "restaurant", "name": "Copains"}}, {"type": "Feature", "id": 10087232573, "geometry": {"type": "Point", "coordinates": [0.70978, 42.810739]}, "properties": {"amenity": "restaurant", "name": "Eth Rac\u00f3 de Pi"}}, {"type": "Feature", "id": 10233305249, "geometry": {"type": "Point", "coordinates": [0.709759, 42.810808]}, "properties": {"amenity": "restaurant", "name": "Eth Rac\u00f3 de Pi"}}, {"type": "Feature", "id": 10652018350, "geometry": {"type": "Point", "coordinates": [0.76592, 42.911814]}, "properties": {"amenity": "restaurant", "name": "Chez Marie", "outdoor_seating": "yes"}}, {"type": "Feature", "id": 10665018614, "geometry": {"type": "Point", "coordinates": [0.592808, 42.787377]}, "properties": {"amenity": "restaurant", "cuisine": "regional", "diet:halal": "no", "diet:kosher": "no", "name": "Le M\u00e9tropole", "tourism": "hotel"}}, {"type": "Feature", "id": 10665018615, "geometry": {"type": "Point", "coordinates": [0.592678, 42.787641]}, "properties": {"amenity": "restaurant", "cuisine": "regional", "indoor_seating": "yes", "name": "Les Caprices d'\u00c9tigny", "outdoor_seating": "yes"}}, {"type": "Feature", "id": 10665018618, "geometry": {"type": "Point", "coordinates": [0.592972, 42.788041]}, "properties": {"amenity": "restaurant", "cuisine": "burger;crepe", "name": "La p\u00e2te..."}}, {"type": "Feature", "id": 10665018619, "geometry": {"type": "Point", "coordinates": [0.593051, 42.787917]}, "properties": {"amenity": "restaurant", "cuisine": "regional", "name": "L'Arbesquens"}}, {"type": "Feature", "id": 10699958649, "geometry": {"type": "Point", "coordinates": [0.476137, 42.787957]}, "properties": {"amenity": "restaurant", "check_date": "2023-02-28", "name": "Les Mirtilles"}}, {"type": "Feature", "id": 10699958656, "geometry": {"type": "Point", "coordinates": [0.476491, 42.788223]}, "properties": {"amenity": "restaurant", "check_date": "2023-02-28", "name": "Le Schuss"}}, {"type": "Feature", "id": 10701136935, "geometry": {"type": "Point", "coordinates": [0.47647, 42.787861]}, "properties": {"amenity": "restaurant", "check_date": "2023-03-01", "name": "Le Y\u00e9ti", "payment:mastercard": "yes", "payment:visa": "yes"}}, {"type": "Feature", "id": 10701136940, "geometry": {"type": "Point", "coordinates": [0.476333, 42.78782]}, "properties": {"amenity": "restaurant", "cuisine": "pizza;sandwich", "name": "Mountain Burger"}}, {"type": "Feature", "id": 10702355634, "geometry": {"type": "Point", "coordinates": [0.476963, 42.78829]}, "properties": {"amenity": "restaurant", "check_date": "2023-03-01", "level": "0", "name": "La Planche"}}, {"type": "Feature", "id": 10776167131, "geometry": {"type": "Point", "coordinates": [0.768009, 42.912295]}, "properties": {"amenity": "restaurant", "name": "Tuc de l'\u00c9tang", "outdoor_seating": "yes"}}, {"type": "Feature", "id": 10776167144, "geometry": {"type": "Point", "coordinates": [0.767984, 42.912143]}, "properties": {"amenity": "restaurant", "name": "L'Isba", "outdoor_seating": "yes", "shop": "convenience"}}, {"type": "Feature", "id": 11059399794, "geometry": {"type": "Point", "coordinates": [0.693731, 42.785561]}, "properties": {"addr:housenumber": "6", "addr:street": "Carrer Sant Fabian", "amenity": "restaurant", "name": "Casa Nostra", "opening_hours": "Tu-Sa 12:00-15:00, 19:45-22:00; Su 12:00-15:00", "phone": "+34 973044634"}}, {"type": "Feature", "id": 11059485983, "geometry": {"type": "Point", "coordinates": [0.824316, 42.697204]}, "properties": {"addr:housenumber": "2", "addr:street": "Carr\u00e8r Sant Sebasti\u00e0", "amenity": "restaurant", "name": "Casa Turnay", "opening_hours": "Mo, Tu, Th-Su 13:15-15:45, 20:00-22:45", "phone": "+34 973640292", "website": "https://www.casaturnay.es/"}}, {"type": "Feature", "id": 11059504206, "geometry": {"type": "Point", "coordinates": [0.844774, 42.700762]}, "properties": {"addr:housenumber": "7", "addr:street": "Plaza Major", "amenity": "restaurant", "name": "Es Arra\u00eftzes", "opening_hours": "Mo, Tu, Th-Su 13:30-15:15, 20:00-22:30", "phone": "973449361   670964778", "website": "https://www.esarraitzes.com/"}}, {"type": "Feature", "id": 11059525015, "geometry": {"type": "Point", "coordinates": [0.823214, 42.69698]}, "properties": {"addr:housenumber": "9", "addr:street": "Sortaus", "amenity": "restaurant", "name": "Restaurante Casa Estampa", "phone": "+34 973640048"}}, {"type": "Feature", "id": 11059525052, "geometry": {"type": "Point", "coordinates": [0.710751, 42.810663]}, "properties": {"addr:street": "Pla\u00e7a dera querimonia", "amenity": "restaurant", "level": "0", "name": "Restaurante A la parrilla", "opening_hours": "Mo-Su 12:00-15:30, 20:00-22:00", "phone": "+34 696597544"}}, {"type": "Feature", "id": 11059703763, "geometry": {"type": "Point", "coordinates": [0.902274, 42.710387]}, "properties": {"amenity": "restaurant", "name": "Vinoteca Eth Cer\u00e8r", "opening_hours": "Mo-Su 09:00-00:00", "phone": "+34 617652418"}}, {"type": "Feature", "id": 11059706703, "geometry": {"type": "Point", "coordinates": [0.933064, 42.698537]}, "properties": {"amenity": "restaurant", "name": "La Granja", "opening_hours": "Mo-Su 13:00-16:00, 19:00-23:00", "phone": "+34 973645868", "website": "https://www.lagranjabaqueira.com/menus"}}, {"type": "Feature", "id": 11059718461, "geometry": {"type": "Point", "coordinates": [0.890627, 42.705927]}, "properties": {"addr:housenumber": "8", "addr:street": "Carrer Sant Jaume", "amenity": "restaurant", "name": "Casa Rufus", "opening_hours": "Mo, We-Su 13:00-15:00, 20:00-22:00", "phone": "+34 973645246"}}, {"type": "Feature", "id": 11059723766, "geometry": {"type": "Point", "coordinates": [0.8748, 42.700203]}, "properties": {"addr:housenumber": "14", "addr:street": "Calle De Molino", "amenity": "restaurant", "name": "Sidrer\u00eda Casa Pau", "phone": "+34 973645231", "website": "http://casapausidreria.com/carta-verano.html"}}, {"type": "Feature", "id": 11138496018, "geometry": {"type": "Point", "coordinates": [1.086257, 42.679011]}, "properties": {"amenity": "restaurant", "name": "La Tona"}}, {"type": "Feature", "id": 11173797817, "geometry": {"type": "Point", "coordinates": [0.465382, 42.576493]}, "properties": {"amenity": "restaurant"}}, {"type": "Feature", "id": 11182017220, "geometry": {"type": "Point", "coordinates": [0.591055, 42.790652]}, "properties": {"addr:city": "Bagn\u00e8res-de-Luchon", "addr:housenumber": "6", "addr:postcode": "31110", "addr:street": "Place Mengue", "amenity": "restaurant", "cuisine": "marocaine", "name": "l'Atlas", "opening_hours": "Mo-Su 12:00-14:00,19:00-22:00", "phone": "+33 5 61 95 31 10"}}, {"type": "Feature", "id": 11182017221, "geometry": {"type": "Point", "coordinates": [0.591023, 42.790748]}, "properties": {"amenity": "restaurant", "cuisine": "cr\u00eaperie", "name": "La petite li\u00e9geoise"}}, {"type": "Feature", "id": 11232441451, "geometry": {"type": "Point", "coordinates": [1.263944, 42.797918]}, "properties": {"amenity": "restaurant", "bar": "yes", "cuisine": "regional", "name": "Le Marterat", "phone": "+33 5 34 14 07 82"}}, {"type": "Feature", "id": 11250575213, "geometry": {"type": "Point", "coordinates": [1.287093, 42.417615]}, "properties": {"amenity": "restaurant", "name": "La Basseta"}}, {"type": "Feature", "id": 11329985470, "geometry": {"type": "Point", "coordinates": [1.347327, 42.888179]}, "properties": {"amenity": "restaurant", "name": "Le Maxil'", "outdoor_seating": "yes", "tourism": "hotel", "website": "https://www.le-maxil-cafe.fr/"}}, {"type": "Feature", "id": 11331589681, "geometry": {"type": "Point", "coordinates": [0.869284, 42.477804]}, "properties": {"amenity": "restaurant", "name": "L'Isard"}}, {"type": "Feature", "id": 11331597207, "geometry": {"type": "Point", "coordinates": [0.873247, 42.472038]}, "properties": {"amenity": "restaurant", "name": "La Carlina", "phone": "+34 973 297 085"}}, {"type": "Feature", "id": 11459257669, "geometry": {"type": "Point", "coordinates": [0.41067, 42.797122]}, "properties": {"amenity": "restaurant", "cuisine": "pizza", "name": "Pizza Les 4 chemins"}}, {"type": "Feature", "id": 63821274, "geometry": {"type": "LineString", "coordinates": [[0.593507, 42.790226], [0.593465, 42.790502], [0.593434, 42.790499], [0.59343, 42.790489], [0.593434, 42.790463], [0.593407, 42.790461], [0.593399, 42.790454], [0.593401, 42.790445], [0.593395, 42.790444], [0.593396, 42.790441], [0.593227, 42.790425], [0.59324, 42.790332], [0.593251, 42.790258], [0.593304, 42.790262], [0.593298, 42.790302], [0.593305, 42.790303], [0.593308, 42.790284], [0.593458, 42.790297], [0.593465, 42.790255], [0.593362, 42.790246], [0.593391, 42.790216], [0.593507, 42.790226]]}, "properties": {"addr:city": "Bagn\u00e8res-de-Luchon", "addr:country": "FR", "addr:postcode": "31110", "addr:street": "Rue Lamartine", "amenity": "restaurant", "building": "yes", "name": "La Petite Auberge", "source": "cadastre-dgi-fr source : Direction G\u00e9n\u00e9rale des Imp\u00f4ts - Cadastre. Mise \u00e0 jour : 2010", "stars": "1", "tourism": "hotel"}}, {"type": "Feature", "id": 63825318, "geometry": {"type": "LineString", "coordinates": [[0.591587, 42.790895], [0.59153, 42.790985], [0.591551, 42.790992], [0.591521, 42.791047], [0.591495, 42.791041], [0.591417, 42.791047], [0.591392, 42.790873], [0.591479, 42.79088], [0.591587, 42.790895]]}, "properties": {"amenity": "restaurant", "building": "yes", "name": "Bon Accueil", "phone": "+33788076938", "source": "cadastre-dgi-fr source : Direction G\u00e9n\u00e9rale des Imp\u00f4ts - Cadastre;mise \u00e0 jour : 2008", "stars": "2", "tourism": "hotel"}}, {"type": "Feature", "id": 127004544, "geometry": {"type": "LineString", "coordinates": [[1.380626, 42.808253], [1.380709, 42.808275], [1.380746, 42.8082], [1.380884, 42.808236], [1.380855, 42.808294], [1.380901, 42.808306], [1.380859, 42.808391], [1.380794, 42.808374], [1.380781, 42.8084], [1.380708, 42.808381], [1.380723, 42.808352], [1.380594, 42.808318], [1.380626, 42.808253]]}, "properties": {"amenity": "restaurant", "building": "yes", "cuisine": "sandwich", "name": "Bar Restaurant Glacier de l'\u00c9tang de Lers", "outdoor_seating": "yes", "phone": "+33 5 61 04 93 22"}}, {"type": "Feature", "id": 143413189, "geometry": {"type": "LineString", "coordinates": [[1.032372, 42.83088], [1.032504, 42.830879], [1.032472, 42.830772], [1.032563, 42.830756], [1.03259, 42.830836], [1.03262, 42.83083], [1.0326, 42.830796], [1.032709, 42.830767], [1.032741, 42.83082], [1.032813, 42.830801], [1.032759, 42.830775], [1.032824, 42.830718], [1.032945, 42.830781], [1.03288, 42.830838], [1.032855, 42.830826], [1.032759, 42.830851], [1.032778, 42.830885], [1.03256, 42.83095], [1.032372, 42.830953], [1.032372, 42.83088]]}, "properties": {"addr:city": "Bordes-Uchentein", "addr:housenumber": "5400", "addr:postcode": "09800", "addr:street": "Camin du Mount Valier", "amenity": "restaurant", "building": "yes", "capacity": "40", "description": "2020-09 : Prestations : - Chambre single, double, 4 personnes, dortoir 9 personnes, - Restauration, - Plusieurs formules (voir site). Remarque : le g\u00eete n\u2019est pas con\u00e7u pour de la gestion libre.", "ele": "951", "email": "maisonvalier@orange.fr", "name": "La Maison du Valier", "phone": "+33 5 61 01 01 01", "tourism": "hotel", "website": "https://www.maison-du-valier.fr/", "wheelchair": "yes"}}, {"type": "Feature", "id": 197895254, "geometry": {"type": "LineString", "coordinates": [[1.204682, 42.502919], [1.204727, 42.502754], [1.204621, 42.502738], [1.204576, 42.502904], [1.204682, 42.502919]]}, "properties": {"amenity": "restaurant", "building": "yes"}}, {"type": "Feature", "id": 216231335, "geometry": {"type": "LineString", "coordinates": [[0.554475, 42.771641], [0.554406, 42.771658], [0.554339, 42.771642], [0.554271, 42.771679], [0.554315, 42.771739], [0.554377, 42.771752], [0.55442, 42.771784], [0.554491, 42.771775], [0.55454, 42.771731], [0.554475, 42.771641]]}, "properties": {"amenity": "restaurant", "building": "yes", "name": "La Hount"}}, {"type": "Feature", "id": 218706599, "geometry": {"type": "LineString", "coordinates": [[0.527824, 42.811615], [0.527839, 42.811602], [0.527918, 42.811664], [0.527734, 42.811818], [0.527675, 42.811752], [0.527637, 42.811713], [0.527567, 42.811639], [0.527463, 42.811543], [0.527538, 42.811489], [0.527705, 42.811668], [0.527735, 42.8117], [0.527824, 42.811615]]}, "properties": {"amenity": "restaurant", "building": "yes", "cuisine": "regional", "name": "La Ferme d'Espiau", "phone": "+33561796969", "source": "cadastre-dgi-fr source : Direction G\u00e9n\u00e9rale des Finances Publiques - Cadastre. Mise \u00e0 jour : 2020"}}, {"type": "Feature", "id": 219410906, "geometry": {"type": "LineString", "coordinates": [[0.57983, 42.767909], [0.579967, 42.767795], [0.579807, 42.767691], [0.579669, 42.767804], [0.57983, 42.767909]]}, "properties": {"amenity": "restaurant", "building": "yes", "cuisine": "local", "description": "produit frais des Pyr\u00e9n\u00e9es", "name": "La Chapelle", "outdoor_seating": "yes"}}, {"type": "Feature", "id": 247899253, "geometry": {"type": "LineString", "coordinates": [[1.234958, 42.670612], [1.234943, 42.670547], [1.234908, 42.670484], [1.234968, 42.67034], [1.234998, 42.670346], [1.235087, 42.670363], [1.235025, 42.670503], [1.235046, 42.670606], [1.234958, 42.670612]]}, "properties": {"amenity": "restaurant", "building": "yes"}}, {"type": "Feature", "id": 255259741, "geometry": {"type": "LineString", "coordinates": [[0.710398, 42.810207], [0.710275, 42.81022], [0.71026, 42.810159], [0.710282, 42.810113], [0.710346, 42.810093], [0.710398, 42.810207]]}, "properties": {"amenity": "restaurant", "building": "yes", "name": "Era Tauerna", "opening_hours": "PH,Mo-Su 10:00-24:00", "source": "PNOA", "source:date": "2005"}}, {"type": "Feature", "id": 275348879, "geometry": {"type": "LineString", "coordinates": [[0.911129, 42.738575], [0.911268, 42.738592], [0.911251, 42.738666], [0.911112, 42.738649], [0.911129, 42.738575]]}, "properties": {"amenity": "restaurant", "building": "yes", "cuisine": "regional", "name": "Borda de Lana"}}, {"type": "Feature", "id": 279052692, "geometry": {"type": "LineString", "coordinates": [[0.788801, 42.773232], [0.788891, 42.773297], [0.788965, 42.773225], [0.788871, 42.773156], [0.788801, 42.773232]]}, "properties": {"amenity": "restaurant", "building": "yes", "name": "Braseria Juanon"}}, {"type": "Feature", "id": 289348297, "geometry": {"type": "LineString", "coordinates": [[1.290251, 42.847686], [1.290337, 42.847718], [1.290435, 42.847577], [1.290273, 42.847508], [1.29023, 42.847561], [1.290314, 42.847605], [1.290251, 42.847686]]}, "properties": {"addr:city": "Erc\u00e9", "addr:postcode": "09140", "amenity": "restaurant", "building": "yes", "contact:phone": "+33561046118", "cuisine": "regional", "name": "Le Picou"}}, {"type": "Feature", "id": 294338712, "geometry": {"type": "LineString", "coordinates": [[0.710976, 42.81725], [0.710861, 42.817083], [0.710742, 42.817127], [0.710858, 42.817294], [0.710976, 42.81725]]}, "properties": {"amenity": "restaurant", "building": "yes", "name": "Ostau Dera Nheu"}}, {"type": "Feature", "id": 300868968, "geometry": {"type": "LineString", "coordinates": [[1.342824, 42.891183], [1.343148, 42.891014], [1.343278, 42.891148], [1.342953, 42.891316], [1.342824, 42.891183]]}, "properties": {"amenity": "restaurant", "building": "yes", "name": "Auberge Les Trois Seigneurs"}}, {"type": "Feature", "id": 325707785, "geometry": {"type": "LineString", "coordinates": [[1.080939, 42.550491], [1.0811, 42.550677], [1.081181, 42.550642], [1.081239, 42.550574], [1.081298, 42.550578], [1.081341, 42.550559], [1.081406, 42.550531], [1.081417, 42.550495], [1.081417, 42.550456], [1.081379, 42.550408], [1.08132, 42.550396], [1.081256, 42.550389], [1.081202, 42.550401], [1.081175, 42.55044], [1.081105, 42.550424], [1.080939, 42.550491]]}, "properties": {"addr:city": "Espot Esqu\u00ed", "addr:street": "Cota 2.500", "amenity": "restaurant", "building": "yes"}}, {"type": "Feature", "id": 335911898, "geometry": {"type": "LineString", "coordinates": [[0.70968, 42.451801], [0.709869, 42.451837], [0.709962, 42.451633], [0.709891, 42.451614], [0.709901, 42.451578], [0.7097, 42.451551], [0.709667, 42.451651], [0.709714, 42.451663], [0.70968, 42.451801]]}, "properties": {"amenity": "restaurant", "building": "hotel", "name": "Ribagor\u00e7a"}}, {"type": "Feature", "id": 345233442, "geometry": {"type": "LineString", "coordinates": [[1.226467, 42.562709], [1.226504, 42.562686], [1.226551, 42.562685], [1.226585, 42.562702], [1.226603, 42.562728], [1.226585, 42.562818], [1.226581, 42.562817], [1.226561, 42.562886], [1.22689, 42.56281], [1.226932, 42.562899], [1.226617, 42.562978], [1.226382, 42.563068], [1.22637, 42.563058], [1.226467, 42.562709]]}, "properties": {"addr:city": "Ribera de Card\u00f3s", "addr:postcode": "25570", "addr:street": "Av. Hug Roger III", "amenity": "restaurant", "building": "hotel", "name": "Hotel Card\u00f3s", "phone": "+34 973 623100", "phone_1": "+34 973623158", "residential": "hotel", "tourism": "hotel"}}, {"type": "Feature", "id": 366918600, "geometry": {"type": "LineString", "coordinates": [[0.9973, 42.758762], [0.99722, 42.758736], [0.997126, 42.758708], [0.997142, 42.75868], [0.997099, 42.758667], [0.997116, 42.758637], [0.99716, 42.758652], [0.997168, 42.758637], [0.997261, 42.758665], [0.997278, 42.758639], [0.997348, 42.758667], [0.997329, 42.758695], [0.997332, 42.758708], [0.9973, 42.758762]]}, "properties": {"amenity": "restaurant", "building": "yes", "name": "Casa Vall de Montgarri", "old_name": "Refugi Juli Arnalot"}}, {"type": "Feature", "id": 396657946, "geometry": {"type": "LineString", "coordinates": [[0.825832, 42.524729], [0.826017, 42.524663], [0.826081, 42.52475], [0.825897, 42.524809], [0.825839, 42.524741], [0.825832, 42.524729]]}, "properties": {"amenity": "restaurant", "building": "yes", "cuisine": "regional", "name": "La Pla\u00e7a", "name:ca": "La Pla\u00e7a", "outdoor_seating": "yes"}}, {"type": "Feature", "id": 490973701, "geometry": {"type": "LineString", "coordinates": [[0.902086, 42.710219], [0.902149, 42.710148], [0.902138, 42.710144], [0.902166, 42.710107], [0.90201, 42.710036], [0.902048, 42.709984], [0.901961, 42.709954], [0.901918, 42.710016], [0.90193, 42.710018], [0.901863, 42.710114], [0.902086, 42.710219]]}, "properties": {"amenity": "restaurant", "building": "yes", "name": "Et Phui"}}, {"type": "Feature", "id": 490973735, "geometry": {"type": "LineString", "coordinates": [[0.902703, 42.710684], [0.902637, 42.710598], [0.902728, 42.710556], [0.902789, 42.710638], [0.902703, 42.710684]]}, "properties": {"amenity": "restaurant", "building": "yes", "name": "Era Cassanhau"}}, {"type": "Feature", "id": 504587361, "geometry": {"type": "LineString", "coordinates": [[0.465691, 42.559615], [0.465945, 42.559655], [0.466014, 42.559424], [0.465854, 42.559404], [0.465809, 42.559551], [0.465719, 42.559538], [0.465691, 42.559615]]}, "properties": {"amenity": "restaurant", "building": "yes"}}, {"type": "Feature", "id": 568233364, "geometry": {"type": "LineString", "coordinates": [[1.082158, 42.359737], [1.082573, 42.359636], [1.082511, 42.359478], [1.082091, 42.359577], [1.082158, 42.359737]]}, "properties": {"amenity": "restaurant", "building": "yes", "cuisine": "spanish", "name": "Restaurant Cal Mariano"}}, {"type": "Feature", "id": 710997404, "geometry": {"type": "LineString", "coordinates": [[0.71907, 42.737691], [0.718903, 42.737764], [0.718865, 42.737724], [0.718887, 42.737713], [0.718871, 42.7377], [0.718945, 42.737664], [0.719014, 42.737628], [0.71907, 42.737691]]}, "properties": {"amenity": "restaurant", "building": "yes", "cuisine": "regional", "name": "Era Oelha Nera"}}, {"type": "Feature", "id": 713076706, "geometry": {"type": "LineString", "coordinates": [[1.131275, 42.427488], [1.131367, 42.427493], [1.131373, 42.427431], [1.131426, 42.427434], [1.131434, 42.427353], [1.131379, 42.42735], [1.131382, 42.427321], [1.131291, 42.427317], [1.131275, 42.427488]]}, "properties": {"amenity": "restaurant", "building": "yes", "name": "l'Hostalet", "wikidata": "Q107341948"}}, {"type": "Feature", "id": 729986137, "geometry": {"type": "LineString", "coordinates": [[0.51393, 42.599599], [0.514106, 42.599585], [0.514115, 42.599616], [0.514189, 42.599607], [0.514184, 42.599585], [0.514328, 42.599561], [0.514386, 42.599646], [0.514391, 42.599728], [0.514315, 42.599716], [0.514312, 42.599728], [0.514151, 42.599708], [0.514154, 42.599686], [0.514, 42.599699], [0.513996, 42.599676], [0.513945, 42.599681], [0.51393, 42.599599]]}, "properties": {"amenity": "restaurant", "building": "yes", "cuisine": "regional", "email": "lallardana@hotmail.com", "name": "Llardana", "opening_hours": "Mo-Su 13:00-15:30,20:00-22:30", "phone": "+34 974 55 16 87", "website": "http://lallardanabenasque.com/", "wheelchair": "no"}}, {"type": "Feature", "id": 836202222, "geometry": {"type": "LineString", "coordinates": [[1.109967, 42.37284], [1.109869, 42.372651], [1.109785, 42.372674], [1.109733, 42.372573], [1.10962, 42.372605], [1.10971, 42.372781], [1.109786, 42.372759], [1.109846, 42.372874], [1.109967, 42.37284]]}, "properties": {"amenity": "restaurant", "building": "yes", "cuisine": "spanish"}}, {"type": "Feature", "id": 975620227, "geometry": {"type": "LineString", "coordinates": [[0.469842, 42.578176], [0.469936, 42.578113], [0.469819, 42.578012], [0.469845, 42.578005], [0.469832, 42.577974], [0.469797, 42.577945], [0.469772, 42.577957], [0.469701, 42.577857], [0.469591, 42.577893], [0.469652, 42.578001], [0.469608, 42.578012], [0.469635, 42.578062], [0.469689, 42.578104], [0.469724, 42.578086], [0.469842, 42.578176]]}, "properties": {"amenity": "restaurant", "building": "yes", "cuisine": "regional", "tourism": "hotel"}}, {"type": "Feature", "id": 980512512, "geometry": {"type": "LineString", "coordinates": [[0.658753, 42.497076], [0.658652, 42.496988], [0.658821, 42.496893], [0.658926, 42.496972], [0.658753, 42.497076]]}, "properties": {"amenity": "restaurant", "building": "yes", "name": "Ca de Graus", "name:ca": "Ca de Graus"}}]}