{"type": "FeatureCollection", "features": [{"type": "Feature", "id": 410941817, "geometry": {"type": "Point", "coordinates": [0.555395, 42.735733]}, "properties": {"amenity": "cafe", "name": "Chalet l'Avalanche"}}, {"type": "Feature", "id": 442384613, "geometry": {"type": "Point", "coordinates": [0.539691, 42.591439]}, "properties": {"amenity": "cafe", "name": "La Cabana"}}, {"type": "Feature", "id": 446064002, "geometry": {"type": "Point", "coordinates": [0.522034, 42.603222]}, "properties": {"amenity": "cafe"}}, {"type": "Feature", "id": 560977761, "geometry": {"type": "Point", "coordinates": [1.34697, 42.889512]}, "properties": {"amenity": "cafe", "name": "Le Globe"}}, {"type": "Feature", "id": 915011551, "geometry": {"type": "Point", "coordinates": [0.502058, 42.763346]}, "properties": {"amenity": "cafe", "cuisine": "french", "name": "Lac d'\u00d4o"}}, {"type": "Feature", "id": 1326828578, "geometry": {"type": "Point", "coordinates": [0.936683, 42.324439]}, "properties": {"amenity": "cafe", "cuisine": "regional", "internet_access": "wlan", "internet_access:fee": "no", "name": "Casa Leonardo"}}, {"type": "Feature", "id": 1326932486, "geometry": {"type": "Point", "coordinates": [1.131158, 42.412934]}, "properties": {"amenity": "cafe", "name": "Joantet"}}, {"type": "Feature", "id": 1469075612, "geometry": {"type": "Point", "coordinates": [1.130363, 42.411369]}, "properties": {"amenity": "cafe", "name": "Pey"}}, {"type": "Feature", "id": 1469110426, "geometry": {"type": "Point", "coordinates": [1.130427, 42.411408]}, "properties": {"amenity": "cafe", "name": "Rateta"}}, {"type": "Feature", "id": 1469265636, "geometry": {"type": "Point", "coordinates": [1.131061, 42.412841]}, "properties": {"amenity": "cafe"}}, {"type": "Feature", "id": 2033132216, "geometry": {"type": "Point", "coordinates": [0.465938, 42.520652]}, "properties": {"amenity": "cafe", "name": "La Serreta"}}, {"type": "Feature", "id": 2203994161, "geometry": {"type": "Point", "coordinates": [0.936254, 42.325402]}, "properties": {"amenity": "cafe", "cuisine": "spanish", "internet_access": "wlan", "internet_access:fee": "no", "name": "la F\u00e0brica", "name:ca": "la F\u00e0brica"}}, {"type": "Feature", "id": 2410200165, "geometry": {"type": "Point", "coordinates": [0.519147, 42.808615]}, "properties": {"amenity": "cafe"}}, {"type": "Feature", "id": 2603353672, "geometry": {"type": "Point", "coordinates": [0.793281, 42.703254]}, "properties": {"amenity": "cafe", "name": "Caf\u00e9 Par\u00eds", "source": "survey"}}, {"type": "Feature", "id": 2736450104, "geometry": {"type": "Point", "coordinates": [1.298332, 42.787802]}, "properties": {"amenity": "cafe", "name": "Le Chantaco"}}, {"type": "Feature", "id": 3350221788, "geometry": {"type": "Point", "coordinates": [1.047754, 42.32859]}, "properties": {"amenity": "cafe", "name": "Can Pep", "name:ca": "Can Pep"}}, {"type": "Feature", "id": 3514775459, "geometry": {"type": "Point", "coordinates": [1.347333, 42.889079]}, "properties": {"amenity": "cafe", "name": "Salon de Th\u00e9 Couleur Caf\u00e9"}}, {"type": "Feature", "id": 4396694245, "geometry": {"type": "Point", "coordinates": [0.988128, 42.454944]}, "properties": {"amenity": "cafe", "name": "Bar L'Ubla"}}, {"type": "Feature", "id": 4396694246, "geometry": {"type": "Point", "coordinates": [0.982407, 42.419864]}, "properties": {"amenity": "cafe", "name": "Bar Les Mines"}}, {"type": "Feature", "id": 4683169207, "geometry": {"type": "Point", "coordinates": [1.212314, 42.428288]}, "properties": {"amenity": "cafe"}}, {"type": "Feature", "id": 5058311243, "geometry": {"type": "Point", "coordinates": [1.20118, 42.864085]}, "properties": {"amenity": "cafe", "name": "\"El Picoline\" Bar Snack", "outdoor_seating": "yes"}}, {"type": "Feature", "id": 5076803021, "geometry": {"type": "Point", "coordinates": [0.555778, 42.736848]}, "properties": {"amenity": "cafe", "name": "\u00d4 Berges du Lys"}}, {"type": "Feature", "id": 5084427590, "geometry": {"type": "Point", "coordinates": [1.056261, 42.888196]}, "properties": {"amenity": "cafe", "organic": "yes"}}, {"type": "Feature", "id": 5085480549, "geometry": {"type": "Point", "coordinates": [0.957954, 42.693083]}, "properties": {"amenity": "cafe", "internet_access": "wlan", "name": "Cafeter\u00eda 2200", "outdoor_seating": "yes"}}, {"type": "Feature", "id": 5085488700, "geometry": {"type": "Point", "coordinates": [0.965863, 42.683552]}, "properties": {"amenity": "cafe", "name": "Cafeter\u00eda Argulls", "outdoor_seating": "yes"}}, {"type": "Feature", "id": 5085567694, "geometry": {"type": "Point", "coordinates": [0.945414, 42.697206]}, "properties": {"amenity": "cafe", "internet_access": "wlan", "name": "Bar 1800", "outdoor_seating": "yes"}}, {"type": "Feature", "id": 5085601573, "geometry": {"type": "Point", "coordinates": [0.958958, 42.70572]}, "properties": {"amenity": "cafe", "name": "Cafeter\u00eda Parr\u00e8c de Orri", "outdoor_seating": "yes"}}, {"type": "Feature", "id": 5085632536, "geometry": {"type": "Point", "coordinates": [0.94568, 42.699167]}, "properties": {"amenity": "cafe", "internet_access": "yes", "name": "Cafeter\u00eda Bosque", "outdoor_seating": "yes"}}, {"type": "Feature", "id": 5085634821, "geometry": {"type": "Point", "coordinates": [0.947144, 42.698363]}, "properties": {"amenity": "cafe", "name": "Info-Caf\u00e9"}}, {"type": "Feature", "id": 5433786131, "geometry": {"type": "Point", "coordinates": [0.446313, 42.790149]}, "properties": {"amenity": "cafe", "name": "Les sil\u00e8nes"}}, {"type": "Feature", "id": 5614876823, "geometry": {"type": "Point", "coordinates": [0.528158, 42.291311]}, "properties": {"amenity": "cafe"}}, {"type": "Feature", "id": 5755889645, "geometry": {"type": "Point", "coordinates": [0.602616, 42.782882]}, "properties": {"amenity": "cafe", "name": "Caf\u00e9 de la Place", "name:fr": "Caf\u00e9 de la place"}}, {"type": "Feature", "id": 5859370586, "geometry": {"type": "Point", "coordinates": [0.5948, 42.7953]}, "properties": {"amenity": "cafe", "name": "Secrets de Pains"}}, {"type": "Feature", "id": 6317764166, "geometry": {"type": "Point", "coordinates": [0.590963, 42.79092]}, "properties": {"amenity": "cafe", "description": "Salon de th\u00e9", "name": "Place N\u00b0 Th\u00e9", "outdoor_seating": "yes"}}, {"type": "Feature", "id": 7040113066, "geometry": {"type": "Point", "coordinates": [0.79471, 42.702342]}, "properties": {"amenity": "cafe", "name": "Eth Br\u00e8\u00e7", "shop": "bakery"}}, {"type": "Feature", "id": 7801266706, "geometry": {"type": "Point", "coordinates": [1.201824, 42.862984]}, "properties": {"amenity": "cafe", "cuisine": "teahouse", "name": "\u00d4 bon th\u00e9 d'Ivine"}}, {"type": "Feature", "id": 7859175746, "geometry": {"type": "Point", "coordinates": [0.639066, 42.914921]}, "properties": {"amenity": "cafe", "name": "Caf\u00e9 de la Pique", "outdoor_seating": "yes"}}, {"type": "Feature", "id": 7859229691, "geometry": {"type": "Point", "coordinates": [0.872925, 42.701236]}, "properties": {"amenity": "cafe", "name": "Eth Magasem"}}, {"type": "Feature", "id": 9947190476, "geometry": {"type": "Point", "coordinates": [1.187756, 42.755731]}, "properties": {"amenity": "cafe", "name": "Caf\u00e9 des Myrtilles"}}, {"type": "Feature", "id": 9948276685, "geometry": {"type": "Point", "coordinates": [0.593484, 42.786185]}, "properties": {"amenity": "cafe", "name": "Le Bocage", "phone": "+33 562001704"}}, {"type": "Feature", "id": 10049606392, "geometry": {"type": "Point", "coordinates": [0.500951, 42.874241]}, "properties": {"amenity": "cafe", "cuisine": "barbecue", "name": "Le Petit Refuge"}}, {"type": "Feature", "id": 10655463023, "geometry": {"type": "Point", "coordinates": [0.606771, 42.791759]}, "properties": {"amenity": "cafe", "indoor_seating": "yes", "name": "Le caf\u00e9 des 4 chemins", "outdoor_seating": "yes"}}, {"type": "Feature", "id": 11059273805, "geometry": {"type": "Point", "coordinates": [0.740469, 42.406827]}, "properties": {"amenity": "cafe", "name": "El Roure"}}, {"type": "Feature", "id": 11331589670, "geometry": {"type": "Point", "coordinates": [0.868981, 42.47788]}, "properties": {"amenity": "cafe", "name": "La Guineu"}}, {"type": "Feature", "id": 11331597212, "geometry": {"type": "Point", "coordinates": [0.859838, 42.472988]}, "properties": {"amenity": "cafe", "name": "Mirador del Pirineu", "phone": "+34 973 297 085"}}, {"type": "Feature", "id": 217612412, "geometry": {"type": "LineString", "coordinates": [[0.461572, 42.802261], [0.461566, 42.802334], [0.461694, 42.80234], [0.4617, 42.802267], [0.461572, 42.802261]]}, "properties": {"amenity": "cafe", "building": "yes", "cuisine": "crepe", "name": "Cr\u00eaperie du col de Peyresourde", "outdoor_seating": "yes"}}, {"type": "Feature", "id": 574819600, "geometry": {"type": "LineString", "coordinates": [[0.543349, 42.566527], [0.543724, 42.566574], [0.54378, 42.566454], [0.543705, 42.566428], [0.543716, 42.566404], [0.543888, 42.56639], [0.543901, 42.566333], [0.543976, 42.566333], [0.543963, 42.566173], [0.54345, 42.566234], [0.543349, 42.566527]]}, "properties": {"amenity": "cafe", "building": "yes", "name": "Cota 2000"}}, {"type": "Feature", "id": 1014051180, "geometry": {"type": "LineString", "coordinates": [[0.976364, 42.7313], [0.976351, 42.731144], [0.976481, 42.731138], [0.976498, 42.731333], [0.976404, 42.731337], [0.976401, 42.731298], [0.976364, 42.7313]]}, "properties": {"amenity": "cafe", "building": "yes", "cuisine": "coffee_shop", "name": "Cafeteria P\u00e0rrec Dossau"}}]}