{"type": "FeatureCollection", "features": [{"type": "Feature", "id": 3334348657, "geometry": {"type": "Point", "coordinates": [1.314154, 42.316389]}, "properties": {"amenity": "place_of_worship", "building": "chapel", "denomination": "catholic", "name": "Sant Antoni Abad", "religion": "christian"}}, {"type": "Feature", "id": 3335688292, "geometry": {"type": "Point", "coordinates": [1.250557, 42.32872]}, "properties": {"alt_name": "Santa Eug\u00e8nia", "alt_name:ca": "Santa Eug\u00e8nia", "amenity": "place_of_worship", "building": "chapel", "denomination": "catholic", "name": "Santa Eugina", "name:ca": "Santa Eugina", "religion": "christian", "wikidata": "Q18007492", "wikipedia": "ca:Santa Eug\u00e8nia de Solans"}}, {"type": "Feature", "id": 3338259740, "geometry": {"type": "Point", "coordinates": [1.335078, 42.411245]}, "properties": {"amenity": "place_of_worship", "building": "chapel", "denomination": "catholic", "name": "Sant Domingo", "name:ca": "Sant Domingo", "religion": "christian", "ruins": "yes", "wikidata": "Q107307104"}}, {"type": "Feature", "id": 3350221545, "geometry": {"type": "Point", "coordinates": [1.047867, 42.328558]}, "properties": {"alt_name": "Sant Sebasti\u00e0 i Sant Roc", "alt_name:ca": "Sant Sebasti\u00e0 i Sant Roc", "amenity": "place_of_worship", "building": "chapel", "denomination": "catholic", "name": "Sant Sebasti\u00e0", "name:ca": "Sant Sebasti\u00e0", "religion": "christian", "wikidata": "Q11947426", "wikipedia": "ca:Sant Sebasti\u00e0 i Sant Roc de Peramea"}}, {"type": "Feature", "id": 3876658167, "geometry": {"type": "Point", "coordinates": [0.916345, 42.251401]}, "properties": {"amenity": "place_of_worship", "building": "chapel", "denomination": "roman_catholic", "name": "Sant Joaquim", "name:ca": "Sant Joaquim", "religion": "christian", "wikidata": "Q18006940", "wikipedia": "ca:Sant Joaquim de la Masia de Vilanova"}}, {"type": "Feature", "id": 3993819978, "geometry": {"type": "Point", "coordinates": [0.986197, 42.40014]}, "properties": {"amenity": "place_of_worship", "building": "chapel", "denomination": "catholic", "name": "Sant Marc", "name:ca": "Sant Marc", "religion": "christian", "wikidata": "Q18007009", "wikipedia": "ca:Sant Marc (Pobell\u00e0)"}}, {"type": "Feature", "id": 3993819979, "geometry": {"type": "Point", "coordinates": [0.978507, 42.398317]}, "properties": {"amenity": "place_of_worship", "building": "chapel", "denomination": "catholic", "name": "Santa Ll\u00facia", "name:ca": "Santa Ll\u00facia", "religion": "christian", "wikidata": "Q8777189", "wikipedia": "ca:Santa Ll\u00facia de Pa\u00fcls de Flamisell"}}, {"type": "Feature", "id": 4345701988, "geometry": {"type": "Point", "coordinates": [0.47179, 42.504407]}, "properties": {"amenity": "place_of_worship", "building": "chapel", "name": "Ermita de Nuestra Se\u00f1ora de Gracia", "name:ca": "Mare de D\u00e9u de Gr\u00e0cia", "religion": "christian", "wikidata": "Q2527632", "wikipedia": "ca:Mare de D\u00e9u de Gr\u00e0cia (el Ru)"}}, {"type": "Feature", "id": 5322283207, "geometry": {"type": "Point", "coordinates": [0.924404, 42.350201]}, "properties": {"building": "chapel", "building:condition": "ruinous", "denomination": "catholic", "historic": "ruins", "name": "Santa Maria de Bellera", "name:ca": "Santa Maria de Bellera", "religion": "christian", "ruins": "yes", "wikidata": "Q8777207", "wikipedia": "ca:Santa Maria de Bellera"}}, {"type": "Feature", "id": 6564235241, "geometry": {"type": "Point", "coordinates": [0.620555, 42.35046]}, "properties": {"amenity": "place_of_worship", "building": "chapel", "denomination": "catholic", "name": "Ermita de Sis", "name:ca": "Ermita de Sis", "religion": "christian"}}, {"type": "Feature", "id": 7333612373, "geometry": {"type": "Point", "coordinates": [0.834211, 42.526123]}, "properties": {"building": "chapel", "building:condition": "ruinous", "denomination": "catholic", "historic": "ruins", "name": "Sant Pere de Bo\u00ed", "name:ca": "Sant Pere de Bo\u00ed", "religion": "christian", "ruins": "yes", "wikidata": "Q11947308", "wikipedia": "ca:Sant Pere de Bo\u00ed"}}, {"type": "Feature", "id": 7711476503, "geometry": {"type": "Point", "coordinates": [0.974175, 42.3072]}, "properties": {"building": "chapel", "building:condition": "ruinous", "denomination": "catholic", "historic": "ruins", "name": "Sant Avent\u00ed", "name:ca": "Sant Avent\u00ed", "religion": "christian", "ruins": "yes", "wikidata": "Q11946928", "wikipedia": "ca:Sant Avent\u00ed"}}, {"type": "Feature", "id": 7731588056, "geometry": {"type": "Point", "coordinates": [1.31787, 42.549121]}, "properties": {"building": "chapel", "building:condition": "ruinous", "denomination": "catholic", "historic": "ruins", "name": "Sant Ramon de Casa Ramonet", "name:ca": "Sant Ramon de Casa Ramonet", "religion": "christian", "ruins": "yes", "wikidata": "Q11947360", "wikipedia": "ca:Sant Ramon de Casa Ramonet"}}, {"type": "Feature", "id": 7731598385, "geometry": {"type": "Point", "coordinates": [1.398054, 42.571562]}, "properties": {"alt_name": "Sant Piri;Sant Pere del Roc", "alt_name:ca": "Sant Piri;Sant Pere del Roc", "building": "chapel", "building:condition": "ruinous", "denomination": "catholic", "historic": "ruins", "name": "Sant Pere de la For\u00e7a", "name:ca": "Sant Pere de la For\u00e7a", "religion": "christian", "ruins": "yes", "wikidata": "Q18007254", "wikipedia": "ca:Sant Pere de la For\u00e7a"}}, {"type": "Feature", "id": 7733846220, "geometry": {"type": "Point", "coordinates": [1.020129, 42.359808]}, "properties": {"building": "chapel", "building:condition": "ruinous", "denomination": "catholic", "historic": "ruins", "name": "Sant Andreu de Sellui", "name:ca": "Sant Andreu de Sellui", "religion": "christian", "ruins": "yes", "wikidata": "Q18006617", "wikipedia": "ca:Sant Andreu de Sellui"}}, {"type": "Feature", "id": 7734478243, "geometry": {"type": "Point", "coordinates": [1.274549, 42.503288]}, "properties": {"building": "chapel", "building:condition": "ruinous", "denomination": "catholic", "historic": "ruins", "name": "Sant Francesc de Burg", "name:ca": "Sant Francesc de Burg", "religion": "christian", "ruins": "yes", "wikidata": "Q11947041", "wikipedia": "ca:Sant Francesc de Burg"}}, {"type": "Feature", "id": 7734507675, "geometry": {"type": "Point", "coordinates": [1.27306, 42.498382]}, "properties": {"building": "chapel", "building:condition": "ruinous", "denomination": "catholic", "historic": "ruins", "name": "Santa Ll\u00facia de Farrera", "name:ca": "Santa Ll\u00facia de Farrera", "religion": "christian", "ruins": "yes", "wikidata": "Q18007526", "wikipedia": "ca:Santa Ll\u00facia de Farrera"}}, {"type": "Feature", "id": 7734514035, "geometry": {"type": "Point", "coordinates": [1.162739, 42.547609]}, "properties": {"building": "chapel", "building:condition": "ruinous", "denomination": "catholic", "historic": "ruins", "name": "Capella d'Escal\u00f3", "name:ca": "Capella d'Escal\u00f3", "religion": "christian", "ruins": "yes", "wikidata": "Q11912188", "wikipedia": "ca:Capella d'Escal\u00f3"}}, {"type": "Feature", "id": 7734549568, "geometry": {"type": "Point", "coordinates": [1.161841, 42.379888]}, "properties": {"alt_name": "Mare de D\u00e9u del Roser de Vilamur", "amenity": "place_of_worship", "building": "chapel", "denomination": "catholic", "name": "Mare de D\u00e9u del Roser de Casa Franquet", "name:ca": "Mare de D\u00e9u del Roser de Casa Franquet", "religion": "christian", "wikidata": "Q11935364", "wikipedia": "ca:Mare de D\u00e9u del Roser de Casa Franquet"}}, {"type": "Feature", "id": 8335363867, "geometry": {"type": "Point", "coordinates": [0.889865, 42.28491]}, "properties": {"building": "chapel", "denomination": "roman_catholic", "name": "Sant Aleix", "name:ca": "Sant Aleix", "religion": "christian", "ruined": "yes", "source": "survey;gps"}}, {"type": "Feature", "id": 8376905246, "geometry": {"type": "Point", "coordinates": [0.529478, 42.288944]}, "properties": {"amenity": "place_of_worship", "building": "chapel", "religion": "christian"}}, {"type": "Feature", "id": 9841452436, "geometry": {"type": "Point", "coordinates": [0.815056, 42.670989]}, "properties": {"amenity": "place_of_worship", "building": "chapel", "name": "Altar", "religion": "christian"}}, {"type": "Feature", "id": 11218444055, "geometry": {"type": "Point", "coordinates": [0.512083, 42.282251]}, "properties": {"amenity": "place_of_worship", "building": "chapel", "name": "Ermita San Mart\u00edn de Pueys", "religion": "christian"}}, {"type": "Feature", "id": 11218444056, "geometry": {"type": "Point", "coordinates": [0.429516, 42.31966]}, "properties": {"amenity": "place_of_worship", "building": "chapel", "name": "Ermita de la Virgen de los Ba\u00f1os", "religion": "christian"}}, {"type": "Feature", "id": 63823788, "geometry": {"type": "LineString", "coordinates": [[0.595007, 42.795736], [0.59497, 42.795675], [0.595034, 42.795654], [0.595033, 42.795651], [0.595037, 42.795649], [0.595039, 42.795653], [0.595091, 42.795636], [0.595089, 42.795632], [0.595095, 42.79563], [0.595097, 42.795634], [0.595124, 42.795626], [0.595123, 42.795622], [0.59513, 42.795621], [0.59513, 42.795625], [0.595163, 42.795633], [0.595167, 42.795629], [0.595172, 42.795632], [0.595168, 42.795635], [0.595182, 42.795662], [0.595188, 42.795662], [0.595187, 42.795667], [0.595181, 42.795666], [0.595163, 42.79569], [0.595178, 42.795717], [0.595092, 42.795742], [0.595075, 42.795716], [0.595007, 42.795736]]}, "properties": {"building": "chapel", "heritage": "3", "heritage:operator": "mhs", "image": "File:Bagn\u00e8res-de-Luchon chapelle Barcugnas portail.JPG", "mhs:inscription_date": "1931-10-07", "name": "Chapelle Saint-\u00c9tienne", "ref:mhs": "PA00094276", "source": "cadastre-dgi-fr source : Direction G\u00e9n\u00e9rale des Imp\u00f4ts - Cadastre. Mise \u00e0 jour : 2010", "source:heritage": "data.gouv.fr:Minist\u00e8re de la Culture - 04/2015", "wikidata": "Q22937949"}}, {"type": "Feature", "id": 168289024, "geometry": {"type": "LineString", "coordinates": [[1.344417, 42.889855], [1.344393, 42.88988], [1.344404, 42.889915], [1.344453, 42.889928], [1.344738, 42.889871], [1.344763, 42.889846], [1.344752, 42.889804], [1.344719, 42.889793], [1.344417, 42.889855]]}, "properties": {"building": "chapel", "name": "Chapelle de l'Aisle", "official_name": "Chapelle de l'Ave-Maria", "source": "cadastre-dgi-fr source : Direction G\u00e9n\u00e9rale des Imp\u00f4ts - Cadastre;mise \u00e0 jour : 2012", "wikidata": "Q60338220"}}, {"type": "Feature", "id": 169593961, "geometry": {"type": "LineString", "coordinates": [[0.411468, 42.805574], [0.411487, 42.805581], [0.411499, 42.805594], [0.411501, 42.80561], [0.411492, 42.805624], [0.41147, 42.805627], [0.411475, 42.80565], [0.411428, 42.805656], [0.411423, 42.805635], [0.411326, 42.805648], [0.411313, 42.805594], [0.411468, 42.805574]]}, "properties": {"amenity": "place_of_worship", "building": "chapel", "denomination": "catholic", "name": "\u00c9glise Saint-Martin", "religion": "christian", "source": "cadastre-dgi-fr source : Direction G\u00e9n\u00e9rale des Imp\u00f4ts - Cadastre. Mise \u00e0 jour : 2012", "wikidata": "Q60387712"}}, {"type": "Feature", "id": 169598612, "geometry": {"type": "LineString", "coordinates": [[0.413379, 42.76754], [0.413406, 42.767456], [0.413478, 42.767468], [0.413451, 42.767552], [0.413379, 42.76754]]}, "properties": {"amenity": "place_of_worship", "building": "chapel", "denomination": "catholic", "name": "Chapelle basse Notre-Dame d'Artiguelongue", "religion": "christian", "source": "cadastre-dgi-fr source : Direction G\u00e9n\u00e9rale des Imp\u00f4ts - Cadastre. Mise \u00e0 jour : 2012", "wikidata": "Q60337718"}}, {"type": "Feature", "id": 169598874, "geometry": {"type": "LineString", "coordinates": [[0.414236, 42.767671], [0.414088, 42.767676], [0.414084, 42.76761], [0.414233, 42.767605], [0.414236, 42.767671]]}, "properties": {"amenity": "place_of_worship", "building": "chapel", "denomination": "catholic", "name": "Chapelle haute Notre-Dame d'Artiguelongue", "religion": "christian", "source": "cadastre-dgi-fr source : Direction G\u00e9n\u00e9rale des Imp\u00f4ts - Cadastre. Mise \u00e0 jour : 2012", "wikidata": "Q60337065"}}, {"type": "Feature", "id": 187028027, "geometry": {"type": "LineString", "coordinates": [[1.208517, 42.496865], [1.208678, 42.49673], [1.208605, 42.496682], [1.208474, 42.496797], [1.208486, 42.496842], [1.208517, 42.496865]]}, "properties": {"amenity": "place_of_worship", "building": "chapel", "denomination": "catholic", "name": "Santa Eul\u00e0lia de Llavors\u00ed", "name:ca": "Santa Eul\u00e0lia de Llavors\u00ed", "religion": "christian", "wikidata": "Q11947526", "wikipedia": "ca:Santa Eul\u00e0lia de Llavors\u00ed"}}, {"type": "Feature", "id": 189549423, "geometry": {"type": "LineString", "coordinates": [[0.805189, 42.82055], [0.805206, 42.820512], [0.805299, 42.820534], [0.805282, 42.820572], [0.805189, 42.82055]]}, "properties": {"amenity": "place_of_worship", "building": "chapel", "denomination": "roman_catholic", "religion": "christian"}}, {"type": "Feature", "id": 218370703, "geometry": {"type": "LineString", "coordinates": [[0.510872, 42.807063], [0.510638, 42.807056], [0.510634, 42.807131], [0.510876, 42.807133], [0.510899, 42.807118], [0.510906, 42.807105], [0.510908, 42.807089], [0.510899, 42.807081], [0.510883, 42.807067], [0.510872, 42.807063]]}, "properties": {"alt_name": "Chapelle Saint-Tritous", "amenity": "place_of_worship", "building": "chapel", "denomination": "catholic", "heritage": "3", "heritage:operator": "mhs", "historic": "yes", "image": "File:Garin chapelle Saint-P\u00e9 de la Moraine.JPG", "mhs:inscription_date": "1971-04-08", "name": "Chapelle Saint-P\u00e9 de la Moraine", "ref:mhs": "PA00094341", "religion": "christian", "source:heritage": "data.gouv.fr, Minist\u00e8re de la Culture - 2016", "start_date": "C10", "wikidata": "Q2956969", "wikipedia": "fr:Chapelle Saint-P\u00e9 de la Moraine"}}, {"type": "Feature", "id": 228666639, "geometry": {"type": "LineString", "coordinates": [[0.729236, 42.873821], [0.7292, 42.873778], [0.729198, 42.873772], [0.729199, 42.873765], [0.729202, 42.873759], [0.729207, 42.873754], [0.729214, 42.87375], [0.729222, 42.873748], [0.729231, 42.873747], [0.72924, 42.873749], [0.729248, 42.873752], [0.729253, 42.873757], [0.729288, 42.873796], [0.729236, 42.873821]]}, "properties": {"addr:city": "Fos", "addr:country": "FR", "addr:housenumber": "6", "addr:postcode": "31440", "addr:street": "Avenue Jean Jaur\u00e8s", "amenity": "place_of_worship", "building": "chapel", "denomination": "catholic", "name": "Chapelle du Batan", "religion": "christian", "source": "cadastre-dgi-fr source : Direction G\u00e9n\u00e9rale des Finances Publiques - Cadastre. Mise \u00e0 jour : 2013", "wikidata": "Q109768256"}}, {"type": "Feature", "id": 228668032, "geometry": {"type": "LineString", "coordinates": [[0.735581, 42.874275], [0.735553, 42.874282], [0.735543, 42.874263], [0.735572, 42.874256], [0.735581, 42.874275]]}, "properties": {"building": "chapel", "name": "La Chapelle du Marjas", "source": "cadastre-dgi-fr source : Direction G\u00e9n\u00e9rale des Finances Publiques - Cadastre. Mise \u00e0 jour : 2013;local knowledge"}}, {"type": "Feature", "id": 238779804, "geometry": {"type": "LineString", "coordinates": [[0.602846, 42.86273], [0.602766, 42.862704], [0.602791, 42.862641], [0.602928, 42.862667], [0.602952, 42.862697], [0.602967, 42.8627], [0.602981, 42.862706], [0.602992, 42.862715], [0.602994, 42.862717], [0.602976, 42.862745], [0.60293, 42.862738], [0.60289, 42.862736], [0.60285, 42.862731], [0.602846, 42.86273]]}, "properties": {"amenity": "place_of_worship", "building": "chapel", "religion": "christian", "source": "cadastre-dgi-fr source : Direction G\u00e9n\u00e9rale des Finances Publiques - Cadastre. Mise \u00e0 jour : 2013"}}, {"type": "Feature", "id": 279096392, "geometry": {"type": "LineString", "coordinates": [[0.993873, 42.248368], [0.99385, 42.248338], [0.993942, 42.248304], [0.993965, 42.24831], [0.993966, 42.248336], [0.993873, 42.248368]]}, "properties": {"building": "chapel", "building:condition": "ruinous", "denomination": "catholic", "historic": "ruins", "name": "Ermita de Sant Aleix de Montsor", "name:ca": "Ermita de Sant Aleix de Montsor", "religion": "christian", "ruins": "yes", "wikidata": "Q5845822", "wikipedia": "ca:Sant Aleix de Montsor"}}, {"type": "Feature", "id": 279560633, "geometry": {"type": "LineString", "coordinates": [[0.768427, 42.758806], [0.768543, 42.758909], [0.768565, 42.758914], [0.768579, 42.758907], [0.768587, 42.7589], [0.768594, 42.75889], [0.768595, 42.758878], [0.768581, 42.75886], [0.768598, 42.758849], [0.768618, 42.758863], [0.768686, 42.758816], [0.768618, 42.758765], [0.768529, 42.758816], [0.768478, 42.758775], [0.768427, 42.758806]]}, "properties": {"amenity": "place_of_worship", "building": "chapel", "denomination": "roman_catholic", "name": "Sant Joan d'Arros", "religion": "christian", "wikidata": "Q28711603"}}, {"type": "Feature", "id": 279560634, "geometry": {"type": "LineString", "coordinates": [[0.738601, 42.745935], [0.738717, 42.745935], [0.738734, 42.745944], [0.738741, 42.745957], [0.738737, 42.745972], [0.738723, 42.745981], [0.738699, 42.745986], [0.738601, 42.745987], [0.738601, 42.745935]]}, "properties": {"amenity": "place_of_worship", "building": "chapel", "denomination": "roman_catholic", "name": "Sant Miqu\u00e8u", "name:ca": "Sant Miquel de Vilam\u00f2s", "religion": "christian", "wikidata": "Q18007170", "wikipedia": "ca:Sant Miquel de Vilam\u00f2s"}}, {"type": "Feature", "id": 284844377, "geometry": {"type": "LineString", "coordinates": [[1.211896, 42.5871], [1.211893, 42.586967], [1.212085, 42.586964], [1.2121, 42.587069], [1.211896, 42.5871]]}, "properties": {"amenity": "place_of_worship", "building": "chapel", "denomination": "catholic", "name": "Sant Jaume", "name:ca": "Sant Jaume", "religion": "christian", "wikidata": "Q11947076", "wikipedia": "ca:Sant Jaume d'Estaon"}}, {"type": "Feature", "id": 293912557, "geometry": {"type": "LineString", "coordinates": [[0.888248, 42.857155], [0.88856, 42.857185], [0.888543, 42.857278], [0.888231, 42.857248], [0.888247, 42.857161], [0.888248, 42.857155]]}, "properties": {"amenity": "place_of_worship", "building": "chapel", "denomination": "catholic", "name": "Chapelle Notre-Dame-de-l'Isard", "note": "173", "religion": "christian", "source": "Bing", "wikidata": "Q60354129"}}, {"type": "Feature", "id": 297555851, "geometry": {"type": "LineString", "coordinates": [[0.417109, 42.806868], [0.417088, 42.806825], [0.41717, 42.806803], [0.41719, 42.80681], [0.417195, 42.806821], [0.417196, 42.806835], [0.417186, 42.806848], [0.417109, 42.806868]]}, "properties": {"amenity": "place_of_worship", "building": "chapel", "denomination": "catholic", "name": "Chapelle Sainte-Marie-Madeleine", "religion": "christian", "source": "MapBox", "wikidata": "Q60368710"}}, {"type": "Feature", "id": 297954094, "geometry": {"type": "LineString", "coordinates": [[1.100802, 42.459386], [1.100781, 42.459362], [1.100746, 42.459379], [1.100768, 42.459403], [1.100802, 42.459386]]}, "properties": {"building": "chapel", "denomination": "catholic", "historic": "wayside_shrine", "name": "Ermita de Santa Anna", "name:ca": "Ermita de Santa Anna", "religion": "christian"}}, {"type": "Feature", "id": 300189560, "geometry": {"type": "LineString", "coordinates": [[1.302794, 42.531349], [1.302938, 42.531389], [1.302963, 42.531342], [1.302819, 42.531301], [1.302794, 42.531349]]}, "properties": {"alt_name": "Santes Creus", "amenity": "place_of_worship", "building": "chapel", "denomination": "catholic", "name": "Santa Maria de Buiro", "name:ca": "Santa Maria de Buiro", "religion": "christian", "wikidata": "Q11947581", "wikipedia": "ca:Santa Maria de Buiro"}}, {"type": "Feature", "id": 315953067, "geometry": {"type": "LineString", "coordinates": [[0.426801, 42.792792], [0.426887, 42.792809], [0.426903, 42.792766], [0.426817, 42.792748], [0.426801, 42.792792]]}, "properties": {"amenity": "place_of_worship", "building": "chapel", "denomination": "catholic", "name": "Chapelle Notre-Dame-des-Sept-Douleurs", "religion": "christian", "source": "cadastre-dgi-fr source : Direction G\u00e9n\u00e9rale des Imp\u00f4ts - Cadastre. Mise \u00e0 jour : 2014", "wikidata": "Q60361865"}}, {"type": "Feature", "id": 320364705, "geometry": {"type": "LineString", "coordinates": [[1.212049, 42.899741], [1.212093, 42.899641], [1.212204, 42.89967], [1.212189, 42.899709], [1.212218, 42.899717], [1.212236, 42.899726], [1.212243, 42.899744], [1.212231, 42.899762], [1.212214, 42.899766], [1.212197, 42.899765], [1.212169, 42.899758], [1.212165, 42.899765], [1.212151, 42.899768], [1.212049, 42.899741]]}, "properties": {"amenity": "place_of_worship", "building": "chapel", "denomination": "catholic", "heritage": "2", "heritage:operator": "mhs", "image": "File:Chapelle Saint-Sernin de Soueix-Rogalle (Ari\u00e8ge).jpg", "mhs:inscription_date": "1977-08-29", "name": "Chapelle Saint-Sernin", "ref:mhs": "PA00093923", "religion": "christian", "source:heritage": "data.gouv.fr:Minist\u00e8re de la Culture - 04/2015", "wikidata": "Q22937293", "wikipedia": "fr:Chapelle Saint-Sernin"}}, {"type": "Feature", "id": 330659603, "geometry": {"type": "LineString", "coordinates": [[1.106293, 42.404559], [1.106311, 42.404523], [1.106401, 42.404548], [1.106383, 42.404584], [1.106293, 42.404559]]}, "properties": {"amenity": "place_of_worship", "building": "chapel", "building:condition": "ruinous", "denomination": "catholic", "historic": "ruins", "name": "Sant Roc", "name:ca": "Sant Roc", "religion": "christian", "ruins": "yes", "wikidata": "Q8262597", "wikipedia": "ca:Sant Roc d'Enviny"}}, {"type": "Feature", "id": 337037549, "geometry": {"type": "LineString", "coordinates": [[0.887127, 42.2711], [0.887192, 42.271144], [0.887221, 42.271121], [0.887156, 42.271077], [0.887127, 42.2711]]}, "properties": {"amenity": "place_of_worship", "building": "chapel", "denomination": "roman_catholic", "name": "Santa Eul\u00e0lia", "name:ca": "Santa Eul\u00e0lia", "religion": "christian", "source": "survey;gps;aerial imagery", "wikidata": "Q11947530", "wikipedia": "ca:Santa Eul\u00e0lia de Serradell"}}, {"type": "Feature", "id": 337043568, "geometry": {"type": "LineString", "coordinates": [[0.907442, 42.261773], [0.907456, 42.261722], [0.90741, 42.261714], [0.907395, 42.261766], [0.907442, 42.261773]]}, "properties": {"amenity": "place_of_worship", "building": "chapel", "denomination": "catholic", "name": "Sant Salvador", "name:ca": "Sant Salvador", "religion": "christian", "wikidata": "Q18007384", "wikipedia": "ca:Sant Salvador de Toralla"}}, {"type": "Feature", "id": 337589443, "geometry": {"type": "LineString", "coordinates": [[1.014292, 42.581646], [1.014199, 42.581603], [1.014153, 42.581656], [1.014247, 42.581699], [1.014292, 42.581646]]}, "properties": {"amenity": "place_of_worship", "building": "chapel", "denomination": "catholic", "name": "Ermita de Sant Maurici", "name:ca": "Ermita de Sant Maurici", "religion": "christian", "wikidata": "Q11947235", "wikipedia": "ca:Sant Maurici d'Espot", "winter_room": "yes"}}, {"type": "Feature", "id": 337948135, "geometry": {"type": "LineString", "coordinates": [[0.924003, 42.271534], [0.924154, 42.271537], [0.924153, 42.271566], [0.924002, 42.271563], [0.924003, 42.271534]]}, "properties": {"amenity": "place_of_worship", "building": "chapel", "denomination": "catholic", "name": "Santa Maria de l'Obac", "name:ca": "Santa Maria de l'Obac", "religion": "christian", "wikidata": "Q11947618", "wikipedia": "ca:Santa Maria de l'Obac"}}, {"type": "Feature", "id": 338008091, "geometry": {"type": "LineString", "coordinates": [[0.895396, 42.250086], [0.895438, 42.250084], [0.895436, 42.250063], [0.895394, 42.250065], [0.895396, 42.250086]]}, "properties": {"amenity": "place_of_worship", "building": "chapel", "denomination": "catholic", "name": "Mare de D\u00e9u del Castell", "name:ca": "Mare de D\u00e9u del Castell", "religion": "christian", "wikidata": "Q8777261", "wikipedia": "ca:Mare de D\u00e9u del Castell de Rivert"}}, {"type": "Feature", "id": 339700871, "geometry": {"type": "LineString", "coordinates": [[1.122165, 42.436995], [1.122063, 42.436999], [1.122066, 42.437042], [1.122168, 42.437039], [1.122165, 42.436995]]}, "properties": {"amenity": "place_of_worship", "building": "chapel", "denomination": "catholic", "name": "Sant Josep d'Olp", "name:ca": "Sant Josep d'Olp", "religion": "christian", "tourism": "attraction", "wikidata": "Q18006948", "wikipedia": "ca:Sant Josep d'Olp"}}, {"type": "Feature", "id": 339878527, "geometry": {"type": "LineString", "coordinates": [[1.245087, 42.514578], [1.245133, 42.514626], [1.245221, 42.514581], [1.245174, 42.514532], [1.245087, 42.514578]]}, "properties": {"amenity": "place_of_worship", "building": "chapel", "denomination": "roman_catholic", "name": "Mare de D\u00e9u de la Pietat", "name:ca": "Mare de D\u00e9u de la Pietat", "religion": "christian", "tourism": "attraction", "wikidata": "Q11935334", "wikipedia": "ca:Mare de D\u00e9u de la Pietat de T\u00edrvia"}}, {"type": "Feature", "id": 362845612, "geometry": {"type": "LineString", "coordinates": [[1.028466, 42.902262], [1.028454, 42.902181], [1.028493, 42.902178], [1.028484, 42.902138], [1.028554, 42.902131], [1.028559, 42.902139], [1.028604, 42.902133], [1.028612, 42.902133], [1.028619, 42.902172], [1.028654, 42.902175], [1.028668, 42.902181], [1.028675, 42.90219], [1.028676, 42.902201], [1.028674, 42.902213], [1.028669, 42.902218], [1.028662, 42.902222], [1.028635, 42.902228], [1.028644, 42.902269], [1.028573, 42.902279], [1.028568, 42.902251], [1.028466, 42.902262]]}, "properties": {"amenity": "place_of_worship", "building": "chapel", "denomination": "catholic", "heritage": "2", "heritage:operator": "mhs", "image": "File:\u00c9glise Notre-Dame d'Ourjout \u00e0 Les Bordes-sur-Lez (Ari\u00e8ge).jpg", "mhs:inscription_date": "1910-11-19", "name": "\u00c9glise Saint-Pierre", "ref:mhs": "PA00093779", "religion": "christian", "source": "cadastre-dgi-fr source : Direction G\u00e9n\u00e9rale des Finances Publiques - Cadastre. Mise \u00e0 jour : 2015", "source:heritage": "data.gouv.fr:Minist\u00e8re de la Culture - 04/2015", "wikidata": "Q22936854"}}, {"type": "Feature", "id": 362845881, "geometry": {"type": "LineString", "coordinates": [[1.022748, 42.907058], [1.022912, 42.907041], [1.022938, 42.907052], [1.022944, 42.90706], [1.022945, 42.907067], [1.022942, 42.907075], [1.022914, 42.907094], [1.022759, 42.907115], [1.022748, 42.907058]]}, "properties": {"building": "chapel", "heritage": "3", "heritage:operator": "mhs", "image": "File:Chapelle d'Aulignac,hameau de Bordes sur Lez (Ari\u00e8ge).jpg", "mhs:inscription_date": "1995-07-10", "name": "Chapelle d'Aulignac", "ref:mhs": "PA00135429", "source": "cadastre-dgi-fr source : Direction G\u00e9n\u00e9rale des Finances Publiques - Cadastre. Mise \u00e0 jour : 2015", "source:heritage": "data.gouv.fr:Minist\u00e8re de la Culture - 04/2015", "wikidata": "Q22976070"}}, {"type": "Feature", "id": 363192559, "geometry": {"type": "LineString", "coordinates": [[1.033452, 42.920088], [1.033508, 42.92002], [1.033549, 42.920033], [1.033654, 42.920068], [1.033728, 42.920088], [1.033745, 42.920113], [1.033738, 42.920144], [1.033708, 42.920156], [1.033703, 42.920189], [1.033608, 42.920173], [1.033616, 42.920144], [1.033521, 42.920118], [1.033515, 42.920134], [1.033494, 42.920129], [1.033501, 42.920111], [1.033452, 42.920088]]}, "properties": {"alt_name": "\u00c9glise Saint-Jean", "amenity": "place_of_worship", "building": "chapel", "denomination": "catholic", "heritage": "2", "heritage:operator": "mhs", "mhs:inscription_date": "1906-10-20", "name": "Chapelle du Calvaire", "ref:mhs": "PA00093782", "religion": "christian", "source": "data.gouv.fr:Minist\u00e8re de la Culture - 08/2011", "source:heritage": "data.gouv.fr:Minist\u00e8re de la Culture - 04/2015", "wikidata": "Q22936861", "wikipedia": "fr:Chapelle du Calvaire ou \u00e9glise Saint-Pierre"}}, {"type": "Feature", "id": 363618675, "geometry": {"type": "LineString", "coordinates": [[0.718509, 42.397962], [0.718519, 42.397907], [0.718697, 42.397924], [0.718714, 42.397945], [0.71871, 42.397964], [0.718687, 42.397979], [0.718509, 42.397962]]}, "properties": {"amenity": "place_of_worship", "building": "chapel", "denomination": "catholic", "name": "Mare de D\u00e9u de la Mola", "name:ca": "Mare de D\u00e9u de la Mola", "religion": "christian"}}, {"type": "Feature", "id": 366961194, "geometry": {"type": "LineString", "coordinates": [[0.717899, 42.484124], [0.717834, 42.484153], [0.717865, 42.484191], [0.71793, 42.484162], [0.717938, 42.484154], [0.71794, 42.484144], [0.717936, 42.484134], [0.717926, 42.484126], [0.717913, 42.484123], [0.717899, 42.484124]]}, "properties": {"amenity": "place_of_worship", "building": "chapel", "denomination": "catholic", "name": "Sant Mam\u00e9s", "name:ca": "Sant Mam\u00e9s", "religion": "christian", "wikidata": "Q61702302", "wikipedia": "ca:Sant Mam\u00e9s de Vilaller"}}, {"type": "Feature", "id": 370881859, "geometry": {"type": "LineString", "coordinates": [[0.966247, 42.884581], [0.966248, 42.884519], [0.966275, 42.884521], [0.966274, 42.884523], [0.966357, 42.884533], [0.96637, 42.884537], [0.96638, 42.884545], [0.966387, 42.884554], [0.966389, 42.88456], [0.966388, 42.884569], [0.966386, 42.884576], [0.966379, 42.884583], [0.966371, 42.884588], [0.966364, 42.88459], [0.966247, 42.884581]]}, "properties": {"amenity": "place_of_worship", "building": "chapel", "denomination": "catholic", "name": "Chapelle Saint-Michel", "religion": "christian", "source": "cadastre-dgi-fr source : Direction G\u00e9n\u00e9rale des Finances Publiques - Cadastre. Mise \u00e0 jour : 2015", "wikidata": "Q60389243"}}, {"type": "Feature", "id": 397204329, "geometry": {"type": "LineString", "coordinates": [[1.245362, 42.515583], [1.245295, 42.515547], [1.24526, 42.515585], [1.245327, 42.515619], [1.245342, 42.515618], [1.245353, 42.515615], [1.245361, 42.515609], [1.245363, 42.515602], [1.245364, 42.515595], [1.245363, 42.515591], [1.245362, 42.515583]]}, "properties": {"amenity": "place_of_worship", "building": "chapel", "denomination": "roman_catholic", "name": "Sant Joan Nou", "name:ca": "Sant Joan Nou", "religion": "christian", "tourism": "attraction", "wikidata": "Q11947110", "wikipedia": "ca:Sant Joan Nou de T\u00edrvia"}}, {"type": "Feature", "id": 406021879, "geometry": {"type": "LineString", "coordinates": [[0.853477, 42.228608], [0.853398, 42.228606], [0.853397, 42.228649], [0.853476, 42.22865], [0.853489, 42.228647], [0.853497, 42.22864], [0.853499, 42.228626], [0.853495, 42.228615], [0.853477, 42.228608]]}, "properties": {"amenity": "place_of_worship", "building": "chapel", "building:levels": "1", "denomination": "roman_catholic", "name": "Sant Mart\u00ed", "name:ca": "Sant Mart\u00ed", "religion": "christian", "tourism": "attraction", "wikidata": "Q18007026", "wikipedia": "ca:Sant Mart\u00ed de Gurp"}}, {"type": "Feature", "id": 413333572, "geometry": {"type": "LineString", "coordinates": [[0.815825, 42.52962], [0.815829, 42.529586], [0.815724, 42.529579], [0.81572, 42.529614], [0.815825, 42.52962]]}, "properties": {"building": "chapel", "building:condition": "ruinous", "denomination": "catholic", "historic": "ruins", "name": "Sant Crist\u00f2fol d'Erill la Vall", "name:ca": "Sant Crist\u00f2fol d'Erill la Vall", "religion": "christian", "ruins": "yes", "wikidata": "Q18006703", "wikipedia": "ca:Sant Crist\u00f2fol d'Erill la Vall"}}, {"type": "Feature", "id": 420045175, "geometry": {"type": "LineString", "coordinates": [[1.110809, 42.634344], [1.110805, 42.634339], [1.110779, 42.634348], [1.110762, 42.63432], [1.11072, 42.634334], [1.110726, 42.634343], [1.110668, 42.634362], [1.110654, 42.634338], [1.110579, 42.63436], [1.110649, 42.634474], [1.110653, 42.63448], [1.11078, 42.634438], [1.110791, 42.634456], [1.110847, 42.634437], [1.110827, 42.634404], [1.110842, 42.634399], [1.110838, 42.634393], [1.110845, 42.634389], [1.110851, 42.634384], [1.110856, 42.634378], [1.110858, 42.634371], [1.110857, 42.634365], [1.110855, 42.634358], [1.11085, 42.634352], [1.110843, 42.634348], [1.110835, 42.634345], [1.110827, 42.634343], [1.110818, 42.634343], [1.110809, 42.634344]]}, "properties": {"amenity": "place_of_worship", "building": "chapel", "denomination": "catholic", "name": "Sant Andreu", "name:ca": "Sant Andreu", "religion": "christian", "wikidata": "Q9007339", "wikipedia": "ca:Sant Andreu de Val\u00e8ncia d'\u00c0neu"}}, {"type": "Feature", "id": 425391691, "geometry": {"type": "LineString", "coordinates": [[0.796277, 42.710589], [0.796248, 42.710491], [0.796014, 42.710502], [0.796001, 42.710623], [0.796087, 42.710609], [0.796103, 42.710648], [0.796245, 42.710619], [0.796277, 42.710589]]}, "properties": {"amenity": "place_of_worship", "building": "chapel", "denomination": "roman_catholic", "name": "Santa Maria de Mijaran", "name:ca": "Santa Maria de Mijaran", "name:oc": "Santa Maria de Mijaran", "religion": "christian", "wikidata": "Q26960620"}}, {"type": "Feature", "id": 425915344, "geometry": {"type": "LineString", "coordinates": [[0.992044, 42.442613], [0.992009, 42.442564], [0.99209, 42.442529], [0.992145, 42.442604], [0.99215, 42.442622], [0.992093, 42.442641], [0.992078, 42.442642], [0.992044, 42.442613]]}, "properties": {"building": "chapel"}}, {"type": "Feature", "id": 430218049, "geometry": {"type": "LineString", "coordinates": [[0.646814, 42.435979], [0.646971, 42.436003], [0.646976, 42.435942], [0.646823, 42.435916], [0.646814, 42.435979]]}, "properties": {"building": "chapel", "denomination": "catholic", "name": "Santa Ll\u00facia", "name:ca": "Santa Ll\u00facia", "religion": "christian"}}, {"type": "Feature", "id": 430218964, "geometry": {"type": "LineString", "coordinates": [[0.669351, 42.431285], [0.669351, 42.431213], [0.669429, 42.431214], [0.669482, 42.431242], [0.669449, 42.431282], [0.669351, 42.431285]]}, "properties": {"building": "chapel", "denomination": "catholic", "name": "Sant Roque", "name:ca": "Sant Roc", "name:es": "San Roque", "religion": "christian", "wikidata": "Q1638981", "wikipedia": "ca:Sant Roc de Bonansa"}}, {"type": "Feature", "id": 430218965, "geometry": {"type": "LineString", "coordinates": [[0.654395, 42.437548], [0.654462, 42.437578], [0.654487, 42.437547], [0.654424, 42.437515], [0.654422, 42.437517], [0.654395, 42.437548]]}, "properties": {"building": "chapel", "denomination": "catholic", "ele": "1511", "name": "Sant Salvador", "name:ca": "Sant Salvador", "religion": "christian"}}, {"type": "Feature", "id": 430286548, "geometry": {"type": "LineString", "coordinates": [[0.680225, 42.4652], [0.680247, 42.465169], [0.680308, 42.465193], [0.680286, 42.465224], [0.680225, 42.4652]]}, "properties": {"building": "chapel", "denomination": "catholic", "name": "Sant Avent\u00ed", "name:ca": "Sant Avent\u00ed", "religion": "christian"}}, {"type": "Feature", "id": 434537120, "geometry": {"type": "LineString", "coordinates": [[1.199881, 42.863296], [1.199905, 42.863327], [1.19996, 42.863306], [1.199963, 42.863285], [1.199982, 42.863287], [1.19998, 42.863307], [1.200027, 42.863367], [1.200059, 42.863373], [1.200057, 42.863386], [1.20003, 42.863384], [1.200006, 42.863388], [1.20003, 42.863419], [1.199942, 42.863454], [1.199924, 42.863428], [1.199802, 42.863479], [1.19974, 42.863399], [1.199858, 42.863348], [1.199834, 42.863318], [1.199881, 42.863296]]}, "properties": {"building": "chapel", "building:use": "cultural", "heritage": "3", "heritage:operator": "mhs", "image": "File:Chapelle Notre-Dame-de-Piti\u00e9 de Seix (Ari\u00e8ge).JPG", "mhs:inscription_date": "2014-03-24", "name": "Chapelle Notre-Dame-de-Piti\u00e9", "ref:mhs": "PA09000027", "source": "cadastre-dgi-fr source : Direction G\u00e9n\u00e9rale des Finances Publiques - Cadastre. Mise \u00e0 jour : 2016", "source:heritage": "data.gouv.fr:Minist\u00e8re de la Culture - 04/2015", "wikidata": "Q22976248"}}, {"type": "Feature", "id": 434575287, "geometry": {"type": "LineString", "coordinates": [[1.214401, 42.873156], [1.214432, 42.873123], [1.214473, 42.873145], [1.214524, 42.873146], [1.214625, 42.873191], [1.214625, 42.873201], [1.21459, 42.873239], [1.214574, 42.873241], [1.21447, 42.8732], [1.214448, 42.873177], [1.214401, 42.873156]]}, "properties": {"building": "chapel", "name": "Chapelle du Puech", "source": "cadastre-dgi-fr source : Direction G\u00e9n\u00e9rale des Finances Publiques - Cadastre. Mise \u00e0 jour : 2016", "wikidata": "Q60348341"}}, {"type": "Feature", "id": 436786197, "geometry": {"type": "LineString", "coordinates": [[1.048183, 42.330095], [1.048153, 42.329993], [1.048158, 42.329992], [1.048157, 42.329987], [1.048169, 42.329971], [1.04819, 42.329968], [1.04821, 42.329979], [1.048251, 42.329974], [1.048247, 42.329958], [1.048303, 42.329944], [1.048296, 42.329918], [1.048362, 42.329901], [1.048382, 42.329958], [1.048392, 42.329957], [1.048405, 42.329956], [1.048414, 42.329984], [1.048457, 42.329974], [1.048477, 42.330015], [1.04847, 42.330019], [1.048396, 42.330038], [1.048404, 42.330053], [1.04834, 42.330064], [1.048339, 42.330058], [1.048284, 42.330067], [1.048286, 42.330079], [1.048183, 42.330095]]}, "properties": {"amenity": "place_of_worship", "building": "chapel", "denomination": "catholic", "name": "Sant Crist\u00f2fol", "name:ca": "Sant Crist\u00f2fol", "name:es": "San Crist\u00f3bal", "religion": "christian", "wikidata": "Q11946975", "wikipedia": "ca:Sant Crist\u00f2fol de Peramea"}}, {"type": "Feature", "id": 445690135, "geometry": {"type": "LineString", "coordinates": [[1.292314, 42.844302], [1.292334, 42.844303], [1.292341, 42.844307], [1.292348, 42.844317], [1.292341, 42.844339], [1.292408, 42.844448], [1.292265, 42.844499], [1.292245, 42.844464], [1.292277, 42.844453], [1.292207, 42.84434], [1.292314, 42.844302]]}, "properties": {"amenity": "place_of_worship", "building": "chapel", "denomination": "catholic", "name": "Chapelle du Calvaire", "religion": "christian", "source": "cadastre-dgi-fr source : Direction G\u00e9n\u00e9rale des Finances Publiques - Cadastre. Mise \u00e0 jour : 2016", "wikidata": "Q60357465"}}, {"type": "Feature", "id": 445691260, "geometry": {"type": "LineString", "coordinates": [[1.280888, 42.853166], [1.28106, 42.853135], [1.281079, 42.853191], [1.280907, 42.853224], [1.280888, 42.853166]]}, "properties": {"amenity": "place_of_worship", "building": "chapel", "denomination": "catholic", "heritage": "3", "heritage:operator": "mhs", "mhs:inscription_date": "1979-03-19", "name": "Chapelle Saint-Pierre", "ref:mhs": "PA00093788", "religion": "christian", "source": "cadastre-dgi-fr source : Direction G\u00e9n\u00e9rale des Finances Publiques - Cadastre. Mise \u00e0 jour : 2016", "source:heritage": "data.gouv.fr:Minist\u00e8re de la Culture - 04/2015", "wikidata": "Q22936896", "wikipedia": "fr:Ancienne chapelle Saint-Pierre"}}, {"type": "Feature", "id": 446548342, "geometry": {"type": "LineString", "coordinates": [[1.006915, 42.268913], [1.00697, 42.268909], [1.006975, 42.268947], [1.00692, 42.268952], [1.006915, 42.268913]]}, "properties": {"amenity": "place_of_worship", "building": "chapel", "denomination": "catholic", "name": "Sant Miquel", "name:ca": "Sant Miquel", "religion": "christian"}}, {"type": "Feature", "id": 466927042, "geometry": {"type": "LineString", "coordinates": [[0.998532, 42.887319], [0.998499, 42.887301], [0.998517, 42.887283], [0.998551, 42.887302], [0.998532, 42.887319]]}, "properties": {"amenity": "place_of_worship", "building": "chapel", "denomination": "catholic", "religion": "christian"}}, {"type": "Feature", "id": 482278338, "geometry": {"type": "LineString", "coordinates": [[0.721365, 42.3612], [0.721491, 42.361188], [0.721478, 42.361116], [0.721352, 42.361128], [0.721365, 42.3612]]}, "properties": {"amenity": "place_of_worship", "building": "chapel", "denomination": "roman_catholic", "name": "San Pere d' Islcles", "religion": "christian"}}, {"type": "Feature", "id": 496338921, "geometry": {"type": "LineString", "coordinates": [[0.93465, 42.396769], [0.934745, 42.396771], [0.934747, 42.396729], [0.934651, 42.396727], [0.93465, 42.396769]]}, "properties": {"building": "chapel", "denomination": "catholic", "historic": "wayside_shrine", "name": "Mare de D\u00e9u del Coll", "name:ca": "Mare de D\u00e9u del Coll", "religion": "christian", "wikidata": "Q11935349", "wikipedia": "ca:Mare de D\u00e9u del Coll (Guir\u00f3)"}}, {"type": "Feature", "id": 496469256, "geometry": {"type": "LineString", "coordinates": [[0.955368, 42.395049], [0.955293, 42.395032], [0.95528, 42.395064], [0.955355, 42.395081], [0.955368, 42.39508], [0.955379, 42.395074], [0.955383, 42.395064], [0.955379, 42.395055], [0.955368, 42.395049]]}, "properties": {"alt_name": "Sant Crist\u00f2fol d'Obeix", "alt_name:ca": "Sant Crist\u00f2fol d'Obeix", "amenity": "place_of_worship", "building": "chapel", "denomination": "catholic", "name": "Sant Cristau", "name:ca": "Sant Cristau", "religion": "christian", "tourism": "attraction", "wikidata": "Q8777072", "wikipedia": "ca:Sant Crist\u00f2fol d'Obeix"}}, {"type": "Feature", "id": 497911227, "geometry": {"type": "LineString", "coordinates": [[0.823465, 42.442694], [0.823478, 42.442692], [0.823488, 42.442687], [0.823494, 42.442679], [0.823494, 42.442669], [0.823488, 42.442661], [0.823479, 42.442655], [0.823401, 42.442641], [0.823388, 42.44268], [0.823465, 42.442694]]}, "properties": {"amenity": "place_of_worship", "building": "chapel", "denomination": "catholic", "name": "Santa Margarida", "name:ca": "Santa Margarida", "name:es": "Santa Margarita", "religion": "christian", "tourism": "attraction", "wikidata": "Q8777197", "wikipedia": "ca:Santa Margarida de Peranera"}}, {"type": "Feature", "id": 502421306, "geometry": {"type": "LineString", "coordinates": [[0.566135, 42.2982], [0.566217, 42.298189], [0.566205, 42.298138], [0.566123, 42.298149], [0.566135, 42.2982]]}, "properties": {"amenity": "place_of_worship", "building": "chapel", "name": "Ermita Santa Mar\u00eda Pedruy", "religion": "christian"}}, {"type": "Feature", "id": 539788052, "geometry": {"type": "LineString", "coordinates": [[1.145395, 42.912735], [1.145425, 42.912812], [1.145238, 42.91287], [1.145221, 42.912868], [1.145193, 42.91286], [1.145197, 42.912858], [1.145155, 42.912785], [1.145204, 42.912767], [1.145222, 42.912793], [1.145395, 42.912735]]}, "properties": {"amenity": "place_of_worship", "building": "chapel", "denomination": "catholic", "name": "Chapelle Saint-Roch", "religion": "christian", "source": "cadastre-dgi-fr source : Direction G\u00e9n\u00e9rale des Finances Publiques - Cadastre. Mise \u00e0 jour : 2017", "wikidata": "Q51158991"}}, {"type": "Feature", "id": 542029388, "geometry": {"type": "LineString", "coordinates": [[1.35857, 42.879887], [1.358626, 42.879896], [1.358621, 42.879959], [1.358583, 42.879961], [1.358572, 42.879944], [1.35857, 42.879887]]}, "properties": {"amenity": "place_of_worship", "building": "chapel", "name": "Chapelle Saint-Martin de Massat", "religion": "christian", "source": "cadastre-dgi-fr source : Direction G\u00e9n\u00e9rale des Finances Publiques - Cadastre. Mise \u00e0 jour : 2017", "wikidata": "Q60382901"}}, {"type": "Feature", "id": 549713841, "geometry": {"type": "LineString", "coordinates": [[1.124595, 42.392009], [1.12465, 42.391981], [1.12473, 42.392064], [1.124675, 42.392093], [1.124595, 42.392009]]}, "properties": {"amenity": "place_of_worship", "building": "chapel", "denomination": "roman_catholic", "name": "Mare de D\u00e9u del Soler", "name:ca": "Mare de D\u00e9u del Soler", "religion": "christian", "wikidata": "Q574191", "wikipedia": "ca:Mare de D\u00e9u del Soler"}}, {"type": "Feature", "id": 584211971, "geometry": {"type": "LineString", "coordinates": [[0.983772, 42.446328], [0.983828, 42.446342], [0.983871, 42.446255], [0.983812, 42.446244], [0.983772, 42.446328]]}, "properties": {"amenity": "place_of_worship", "building": "chapel", "denomination": "roman_catholic", "name": "Mare de D\u00e9u de Far", "name:ca": "Mare de D\u00e9u de Far", "religion": "christian", "wikidata": "Q11935315", "wikipedia": "ca:Mare de D\u00e9u de Far"}}, {"type": "Feature", "id": 586483995, "geometry": {"type": "LineString", "coordinates": [[0.486262, 42.388951], [0.486245, 42.388864], [0.486454, 42.388842], [0.486471, 42.388929], [0.486262, 42.388951]]}, "properties": {"amenity": "place_of_worship", "building": "chapel", "denomination": "catholic", "name": "Ermita de San Pedro", "religion": "christian"}}, {"type": "Feature", "id": 589413766, "geometry": {"type": "LineString", "coordinates": [[1.373833, 42.8656], [1.37383, 42.865608], [1.373811, 42.865606], [1.373782, 42.865688], [1.373794, 42.865697], [1.373782, 42.8657], [1.373777, 42.865694], [1.373762, 42.865698], [1.373762, 42.865705], [1.37375, 42.865705], [1.373751, 42.865697], [1.373736, 42.865695], [1.373733, 42.865705], [1.373724, 42.865703], [1.373726, 42.865694], [1.373722, 42.865692], [1.373713, 42.865701], [1.373706, 42.865696], [1.373714, 42.865687], [1.373709, 42.865683], [1.373699, 42.865691], [1.373692, 42.865684], [1.373704, 42.865674], [1.373732, 42.865591], [1.373717, 42.865588], [1.37372, 42.865579], [1.373833, 42.8656]]}, "properties": {"amenity": "place_of_worship", "building": "chapel", "denomination": "catholic", "name": "Chapelle du Touron", "religion": "christian", "source": "cadastre-dgi-fr source : Direction G\u00e9n\u00e9rale des Finances Publiques - Cadastre. Mise \u00e0 jour : 2018", "wikidata": "Q60340934"}}, {"type": "Feature", "id": 591353399, "geometry": {"type": "LineString", "coordinates": [[0.499505, 42.582173], [0.499473, 42.582107], [0.499623, 42.582074], [0.499651, 42.58214], [0.499505, 42.582173]]}, "properties": {"building": "chapel", "name": "Iglesia de San Esteban de Conques"}}, {"type": "Feature", "id": 614171884, "geometry": {"type": "LineString", "coordinates": [[1.004747, 42.328946], [1.00475, 42.328966], [1.004763, 42.328966], [1.004781, 42.329017], [1.004703, 42.329032], [1.004612, 42.329043], [1.004603, 42.329041], [1.004592, 42.328983], [1.004653, 42.328977], [1.004651, 42.328955], [1.004747, 42.328946]]}, "properties": {"amenity": "place_of_worship", "building": "chapel", "denomination": "catholic", "name": "Sant Mart\u00ed", "name:ca": "Sant Mart\u00ed", "religion": "christian", "wikidata": "Q18007077", "wikipedia": "ca:Sant Mart\u00ed de Montcort\u00e8s"}}, {"type": "Feature", "id": 616660373, "geometry": {"type": "LineString", "coordinates": [[1.083573, 42.37694], [1.083617, 42.376927], [1.083591, 42.376878], [1.083546, 42.376892], [1.083573, 42.37694]]}, "properties": {"amenity": "place_of_worship", "building": "chapel", "building:condition": "ruinous", "denomination": "catholic", "historic": "ruins", "name": "Sant Sebasti\u00e0 d'Estac", "name:ca": "Sant Sebasti\u00e0 d'Estac", "religion": "christian", "ruins": "yes", "wikidata": "Q18007397", "wikipedia": "ca:Sant Sebasti\u00e0 d'Estac"}}, {"type": "Feature", "id": 622047758, "geometry": {"type": "LineString", "coordinates": [[1.301842, 42.305533], [1.301861, 42.305499], [1.301768, 42.30547], [1.301748, 42.305503], [1.301842, 42.305533]]}, "properties": {"amenity": "place_of_worship", "building": "chapel", "denomination": "catholic", "name": "Sant Quir\u00ed i Santa Julita", "name:ca": "Sant Quir\u00ed i Santa Julita", "religion": "christian", "tourism": "attraction", "wikidata": "Q18007315", "wikipedia": "ca:Sant Quir\u00ed i Santa Julita de Ber\u00e9n"}}, {"type": "Feature", "id": 626897235, "geometry": {"type": "LineString", "coordinates": [[1.174336, 42.309392], [1.174455, 42.309347], [1.174435, 42.309319], [1.174317, 42.309363], [1.174336, 42.309392]]}, "properties": {"building": "chapel", "denomination": "catholic", "historic": "wayside_shrine", "name": "Mare de D\u00e9u de la Guia", "name:ca": "Mare de D\u00e9u de la Guia", "religion": "christian", "tourism": "attraction", "wikidata": "Q11935326", "wikipedia": "ca:Mare de D\u00e9u de la Guia (les Valls d'Aguilar)"}}, {"type": "Feature", "id": 630877831, "geometry": {"type": "LineString", "coordinates": [[0.938555, 42.326142], [0.938486, 42.326143], [0.938486, 42.326094], [0.938555, 42.326094], [0.938555, 42.326142]]}, "properties": {"building": "chapel", "name": "Sant Victor", "wikidata": "Q47171353", "wikipedia": "ca:Sant V\u00edctor de Senterada"}}, {"type": "Feature", "id": 661137561, "geometry": {"type": "LineString", "coordinates": [[0.831346, 42.699433], [0.831353, 42.699384], [0.831449, 42.699392], [0.831442, 42.699441], [0.831346, 42.699433]]}, "properties": {"amenity": "place_of_worship", "building": "chapel", "denomination": "roman_catholic", "religion": "christian"}}, {"type": "Feature", "id": 700131963, "geometry": {"type": "LineString", "coordinates": [[0.538501, 42.426981], [0.538592, 42.42698], [0.53859, 42.426866], [0.5385, 42.426866], [0.538501, 42.426981]]}, "properties": {"amenity": "place_of_worship", "building": "chapel", "denomination": "catholic", "name": "Ermita de las Aras", "religion": "christian"}}, {"type": "Feature", "id": 700173475, "geometry": {"type": "LineString", "coordinates": [[0.683285, 42.354716], [0.683291, 42.354654], [0.683393, 42.354655], [0.683407, 42.354667], [0.683417, 42.35468], [0.683417, 42.354701], [0.683408, 42.354712], [0.683394, 42.354722], [0.683285, 42.354716]]}, "properties": {"amenity": "place_of_worship", "building": "chapel", "denomination": "catholic", "name": "Ermita de Santa Eulalia", "religion": "christian"}}, {"type": "Feature", "id": 700173490, "geometry": {"type": "LineString", "coordinates": [[0.690711, 42.359621], [0.690715, 42.359568], [0.690814, 42.359572], [0.69081, 42.359625], [0.690711, 42.359621]]}, "properties": {"amenity": "place_of_worship", "building": "chapel", "denomination": "catholic", "name": "Ermita de el Rigatell", "religion": "christian"}}, {"type": "Feature", "id": 708520352, "geometry": {"type": "LineString", "coordinates": [[1.372683, 42.49906], [1.372744, 42.499062], [1.372746, 42.499011], [1.372685, 42.49901], [1.372683, 42.49906]]}, "properties": {"amenity": "place_of_worship", "building": "chapel", "denomination": "roman_catholic", "name": "Mare de D\u00e9u de la Salut", "name:ca": "Mare de D\u00e9u de la Salut", "religion": "christian", "wikidata": "Q96351223"}}, {"type": "Feature", "id": 711067717, "geometry": {"type": "LineString", "coordinates": [[1.314261, 42.348996], [1.314518, 42.349032], [1.314561, 42.348883], [1.314315, 42.348843], [1.314312, 42.348897], [1.314264, 42.348907], [1.314242, 42.348877], [1.314205, 42.348903], [1.314264, 42.34894], [1.314261, 42.348996]]}, "properties": {"amenity": "place_of_worship", "building": "chapel", "denomination": "roman_catholic", "name": "Santa Cec\u00edlia d'Elins", "name:ca": "Santa Cec\u00edlia d'Elins", "religion": "christian", "wikidata": "Q11693404", "wikipedia": "ca:Santa Cec\u00edlia d'Elins"}}, {"type": "Feature", "id": 713099427, "geometry": {"type": "LineString", "coordinates": [[1.104883, 42.484233], [1.104888, 42.484229], [1.104847, 42.484206], [1.104842, 42.484211], [1.104716, 42.484142], [1.104653, 42.484206], [1.104779, 42.484274], [1.104767, 42.484285], [1.104809, 42.484308], [1.104883, 42.484233]]}, "properties": {"amenity": "place_of_worship", "building": "chapel", "denomination": "catholic", "name": "Mare de D\u00e9u de la Muntanya", "name:ca": "Mare de D\u00e9u de la Muntanya", "religion": "christian", "wikidata": "Q11935333", "wikipedia": "ca:Mare de D\u00e9u de la Muntanya"}}, {"type": "Feature", "id": 749209725, "geometry": {"type": "LineString", "coordinates": [[0.962669, 42.23105], [0.962743, 42.231048], [0.962741, 42.231002], [0.962666, 42.231004], [0.962669, 42.23105]]}, "properties": {"amenity": "place_of_worship", "building": "chapel", "building:levels": "1", "disused:building": "barn", "religion": "christian"}}, {"type": "Feature", "id": 783477194, "geometry": {"type": "LineString", "coordinates": [[1.395965, 42.358246], [1.395812, 42.358151], [1.395901, 42.358087], [1.396038, 42.35818], [1.395965, 42.358246]]}, "properties": {"building": "chapel", "building:condition": "ruinous", "denomination": "catholic", "historic": "ruins", "name": "Santa Ll\u00facia d'Aravell", "name:ca": "Santa Ll\u00facia d'Aravell", "religion": "christian", "ruins": "yes", "wikidata": "Q11947541", "wikipedia": "ca:Santa Ll\u00facia d'Aravell"}}, {"type": "Feature", "id": 813633055, "geometry": {"type": "LineString", "coordinates": [[1.25864, 42.807347], [1.25857, 42.807446], [1.258577, 42.807448], [1.258579, 42.807445], [1.258587, 42.807447], [1.258603, 42.807447], [1.258613, 42.80744], [1.258617, 42.807431], [1.258628, 42.807434], [1.258645, 42.807434], [1.258657, 42.80743], [1.25867, 42.807421], [1.258677, 42.807409], [1.258679, 42.807396], [1.258674, 42.807387], [1.258663, 42.80738], [1.258667, 42.807374], [1.258643, 42.807363], [1.258649, 42.807351], [1.25864, 42.807347]]}, "properties": {"building": "chapel", "wikidata": "Q60336605"}}, {"type": "Feature", "id": 825114086, "geometry": {"type": "LineString", "coordinates": [[0.843798, 42.406413], [0.843802, 42.40645], [0.843904, 42.406444], [0.843917, 42.406437], [0.843921, 42.406425], [0.843915, 42.406413], [0.8439, 42.406408], [0.843798, 42.406413]]}, "properties": {"amenity": "place_of_worship", "building": "chapel", "denomination": "catholic", "name": "Sant Quiri", "name:ca": "Sant Quiri", "religion": "christian", "wikidata": "Q11947353", "wikipedia": "ca:Sant Quiri de Sas"}}, {"type": "Feature", "id": 825759490, "geometry": {"type": "LineString", "coordinates": [[0.947253, 42.233046], [0.947325, 42.233052], [0.947344, 42.23304], [0.947354, 42.233023], [0.947344, 42.233014], [0.947328, 42.233012], [0.947262, 42.233004], [0.947253, 42.233046]]}, "properties": {"amenity": "place_of_worship", "building": "chapel", "denomination": "catholic", "name": "Santa Cec\u00edlia de Torallola", "name:ca": "Santa Cec\u00edlia de Torallola", "religion": "christian", "wikidata": "Q11947496", "wikipedia": "ca:Santa Cec\u00edlia de Torallola"}}, {"type": "Feature", "id": 829113676, "geometry": {"type": "LineString", "coordinates": [[0.915389, 42.700754], [0.915466, 42.700772], [0.915492, 42.700714], [0.915414, 42.700696], [0.915389, 42.700754]]}, "properties": {"amenity": "place_of_worship", "building": "chapel", "denomination": "catholic", "name": "Capella de la Verge del Roser de Tred\u00f2s", "name:ca": "Capella de la Verge del Roser de Tred\u00f2s", "religion": "christian", "wikidata": "Q26845234", "wikipedia": "ca:Capella de la Verge del Roser de Tred\u00f2s"}}, {"type": "Feature", "id": 845098829, "geometry": {"type": "LineString", "coordinates": [[0.690584, 42.787477], [0.690632, 42.787485], [0.690656, 42.787437], [0.690601, 42.787427], [0.690584, 42.787477]]}, "properties": {"amenity": "place_of_worship", "building": "chapel", "name": "Sant Joan Cris\u00f2stom", "name:ca": "Sant Joan Cris\u00f2stom", "name:oc": "Sant Joan Cris\u00f2stom", "religion": "christian", "wikidata": "Q65205229", "wikipedia": "ca:Sant Joan Cris\u00f2stom de Boss\u00f2st"}}, {"type": "Feature", "id": 845100198, "geometry": {"type": "LineString", "coordinates": [[0.693558, 42.78522], [0.693648, 42.785209], [0.693636, 42.785155], [0.693556, 42.785164], [0.693558, 42.78522]]}, "properties": {"amenity": "place_of_worship", "building": "chapel", "denomination": "roman_catholic", "name": "Sant Fabian e Sant Sebastian", "name:ca": "Sant Fabian e Sant Sebastian", "name:oc": "Sant Fabian e Sant Sebastian", "religion": "christian", "wikidata": "Q65205238", "wikipedia": "ca:Sant Sebasti\u00e0 i Sant Fabi\u00e0 de Boss\u00f2st"}}, {"type": "Feature", "id": 845100665, "geometry": {"type": "LineString", "coordinates": [[0.678736, 42.772362], [0.678805, 42.772359], [0.678804, 42.772322], [0.678733, 42.772325], [0.678736, 42.772362]]}, "properties": {"amenity": "place_of_worship", "building": "chapel", "denomination": "catholic", "name": "Ermita de Sant Antoni", "religion": "christian", "wikidata": "Q73234914"}}, {"type": "Feature", "id": 845100772, "geometry": {"type": "LineString", "coordinates": [[0.696092, 42.789257], [0.696129, 42.789235], [0.696094, 42.789203], [0.696058, 42.789227], [0.696092, 42.789257]]}, "properties": {"amenity": "place_of_worship", "building": "chapel", "denomination": "roman_catholic", "name": "Sant R\u00f2c", "name:ca": "Sant R\u00f2c", "name:oc": "Sant R\u00f2c", "religion": "christian", "wikidata": "Q96473077"}}, {"type": "Feature", "id": 961407741, "geometry": {"type": "LineString", "coordinates": [[0.872638, 42.700649], [0.87272, 42.700661], [0.87273, 42.700607], [0.872652, 42.700598], [0.872638, 42.700649]]}, "properties": {"amenity": "place_of_worship", "building": "chapel", "name": "Sant Antoni de Padua", "religion": "christian"}}, {"type": "Feature", "id": 1000370738, "geometry": {"type": "LineString", "coordinates": [[0.417021, 42.256578], [0.41712, 42.256578], [0.417121, 42.25652], [0.417022, 42.25652], [0.417021, 42.256578]]}, "properties": {"amenity": "place_of_worship", "building": "chapel", "denomination": "catholic", "name": "Ermita de San Clemente", "religion": "christian"}}, {"type": "Feature", "id": 1056055191, "geometry": {"type": "LineString", "coordinates": [[1.146609, 42.591963], [1.146606, 42.591935], [1.146567, 42.591938], [1.146565, 42.591929], [1.146532, 42.591931], [1.146533, 42.59194], [1.146515, 42.591941], [1.146518, 42.591968], [1.146609, 42.591963]]}, "properties": {"amenity": "place_of_worship", "building": "chapel", "denomination": "catholic", "name": "Sant Esteve", "name:ca": "Sant Esteve", "religion": "christian"}}, {"type": "Feature", "id": 1236252892, "geometry": {"type": "LineString", "coordinates": [[0.640943, 42.901988], [0.641101, 42.902043], [0.64113, 42.901998], [0.640972, 42.901943], [0.640943, 42.901988]]}, "properties": {"building": "chapel", "name": "Chapelle de Soueste"}}, {"type": "Feature", "id": 1257642465, "geometry": {"type": "LineString", "coordinates": [[0.812913, 42.287691], [0.81284, 42.28769], [0.81284, 42.287701], [0.812821, 42.2877], [0.812821, 42.287719], [0.81282, 42.287729], [0.812864, 42.28773], [0.812906, 42.28773], [0.812911, 42.28773], [0.812916, 42.287728], [0.81292, 42.287725], [0.812923, 42.287722], [0.812925, 42.287717], [0.812925, 42.287713], [0.812925, 42.287707], [0.812923, 42.287702], [0.812921, 42.287697], [0.812918, 42.287694], [0.812913, 42.287691]]}, "properties": {"addr:city": "Tremp", "addr:housenumber": "2", "addr:place": "Torog\u00f3", "addr:postcode": "22584", "amenity": "place_of_worship", "building": "chapel", "building:levels": "1", "denomination": "catholic", "name": "Sant Climent", "name:ca": "Sant Climent", "religion": "christian", "tourism": "attraction", "wikidata": "Q18006688", "wikipedia": "ca:Sant Climent de Torog\u00f3"}}, {"type": "Feature", "id": 1261412720, "geometry": {"type": "LineString", "coordinates": [[0.957056, 42.256407], [0.957091, 42.256369], [0.957032, 42.256338], [0.956996, 42.256377], [0.957056, 42.256407]]}, "properties": {"alt_name": "Sant Fruit\u00f3s", "alt_name:ca": "Sant Fruit\u00f3s", "amenity": "place_of_worship", "building": "chapel", "building:levels": "1", "denomination": "catholic", "name": "Sant Fructu\u00f3s", "name:ca": "Sant Fructu\u00f3s", "religion": "christian", "wikidata": "Q11947046", "wikipedia": "ca:Sant Fructu\u00f3s (la Pobla de Segur)"}}]}