{"type": "FeatureCollection", "features": [{"type": "Feature", "id": 276236131, "geometry": {"type": "Point", "coordinates": [1.13311, 42.408129]}, "properties": {"addr:city": "Sort", "addr:street": "Carretera de la Seu d'Urgell", "air_conditioning": "no", "dog": "yes", "email": "info@hostalcanjosep.com", "heating": "yes", "internet_access": "wlan", "internet_access:fee": "customers", "name": "Can Josep", "name:ca": "Can Josep", "phone": "+34 973 620 176", "start_date": "1978", "tourism": "hostel", "website": "https://www.hostalcanjosep.com"}}, {"type": "Feature", "id": 1326828578, "geometry": {"type": "Point", "coordinates": [0.936683, 42.324439]}, "properties": {"amenity": "cafe", "cuisine": "regional", "internet_access": "wlan", "internet_access:fee": "no", "name": "Casa Leonardo"}}, {"type": "Feature", "id": 1430983189, "geometry": {"type": "Point", "coordinates": [0.465909, 42.520653]}, "properties": {"amenity": "food_court", "internet_access": "wlan", "name": "Bar de Ch\u00eda"}}, {"type": "Feature", "id": 1469110376, "geometry": {"type": "Point", "coordinates": [1.129651, 42.41]}, "properties": {"addr:city": "Sort", "addr:housenumber": "3", "addr:postcode": "25560", "addr:street": "Avinguda de la Diputaci\u00f3", "email": "info@hotelpessets.com", "internet_access": "wlan", "internet_access:fee": "customers", "name": "Hotel Pessets", "phone": "+34 973620000", "stars": "4", "tourism": "hotel", "website": "https://www.hotelpessets.com", "wheelchair": "yes"}}, {"type": "Feature", "id": 1469265631, "geometry": {"type": "Point", "coordinates": [1.132273, 42.414897]}, "properties": {"addr:city": "Sort", "addr:housenumber": "27", "addr:postcode": "25560", "addr:street": "Avinguda de la Generalitat", "air_conditioning": "yes", "email": "info@hotellesbrases.com", "internet_access": "wlan", "internet_access:fee": "customers", "name": "Les Brases", "phone": "+34 973 621 071", "stars": "3", "tourism": "hotel", "website": "https://www.hotellesbrases.com"}}, {"type": "Feature", "id": 1472937802, "geometry": {"type": "Point", "coordinates": [1.123157, 42.628919]}, "properties": {"amenity": "bar", "internet_access": "wlan", "name": "Bar La Creu", "time": "2011-10-18T11:10:10Z"}}, {"type": "Feature", "id": 2203994161, "geometry": {"type": "Point", "coordinates": [0.936254, 42.325402]}, "properties": {"amenity": "cafe", "cuisine": "spanish", "internet_access": "wlan", "internet_access:fee": "no", "name": "la F\u00e0brica", "name:ca": "la F\u00e0brica"}}, {"type": "Feature", "id": 2321662486, "geometry": {"type": "Point", "coordinates": [1.216449, 42.495924]}, "properties": {"addr:city": "Llavors\u00ed", "addr:country": "ES", "addr:postcode": "25595", "addr:province": "Lleida", "addr:street": "Cam\u00ed de Riberies", "email": "booking@riberies.com", "internet_access": "wlan", "name": "Riberies", "nohousenumber": "yes", "phone": "+34 973 622 051", "stars": "4", "tourism": "hotel", "website": "https://riberies.cat/"}}, {"type": "Feature", "id": 2742199236, "geometry": {"type": "Point", "coordinates": [0.826266, 42.525298]}, "properties": {"internet_access": "wlan", "internet_access:fee": "no", "name": "Casa Ferro", "tourism": "hotel", "wikidata": "Q65210875", "wikipedia": "ca:Casa Ferro"}}, {"type": "Feature", "id": 3020649349, "geometry": {"type": "Point", "coordinates": [1.10452, 42.449433]}, "properties": {"email": "hostalvalldassua@hostalvalldassua.com", "internet_access": "wlan", "internet_access:fee": "no", "name": "Hostal Vall d'Assua", "phone": "+34 973 62 17 38", "stars": "2", "tourism": "hotel", "website": "http://www.hostalvalldassua.com"}}, {"type": "Feature", "id": 3028693257, "geometry": {"type": "Point", "coordinates": [0.96784, 42.246905]}, "properties": {"addr:city": "la Pobla de Segur", "addr:housenumber": "4", "addr:postcode": "25500", "addr:street": "Carrer Major", "email": "info@canfasersia.com", "internet_access": "wlan", "internet_access:fee": "customers", "name": "Fonda Can Fasersia", "phone": "+34 695169181", "tourism": "hotel", "website": "https://www.canfasersia.com/"}}, {"type": "Feature", "id": 3514838979, "geometry": {"type": "Point", "coordinates": [1.347364, 42.889086]}, "properties": {"amenity": "internet_access", "internet_access": "wlan"}}, {"type": "Feature", "id": 3514841714, "geometry": {"type": "Point", "coordinates": [1.347801, 42.889733]}, "properties": {"amenity": "internet_access", "internet_access": "wlan"}}, {"type": "Feature", "id": 3755629590, "geometry": {"type": "Point", "coordinates": [0.522, 42.60342]}, "properties": {"addr:city": "Benasque", "addr:housenumber": "14", "addr:postcode": "22440", "addr:street": "Avenida Los Tilos", "internet_access": "wlan", "name": "Hotel Avenida", "phone": "+34 974 55 11 26", "rooms": "16", "smoking": "no", "stars": "1", "tourism": "hotel", "website": "http://www.hotelavenidabenasque.es/", "wheelchair": "no"}}, {"type": "Feature", "id": 4310533057, "geometry": {"type": "Point", "coordinates": [0.981106, 42.419425]}, "properties": {"addr:city": "La Torre de Cabdella", "addr:postcode": "25515", "addr:street": "L-503 Carretera de la Vall Fosca", "email": "alberg@latorrevallfosca.com", "internet_access": "wlan", "internet_access:fee": "no", "name": "Alberg La Torre Vall Fosca", "payment:cash": "yes", "payment:debit_cards": "yes", "payment:mastercard": "yes", "payment:visa": "yes", "phone": "+34 684133970", "smoking": "outside", "tourism": "hostel", "website": "https://www.latorrevallfosca.com/"}}, {"type": "Feature", "id": 4319426495, "geometry": {"type": "Point", "coordinates": [0.90135, 42.706933]}, "properties": {"amenity": "restaurant", "check_date": "2022-08-04", "cuisine": "spanish;local", "internet_access": "wlan", "name": "Vinoteca Eth Gris"}}, {"type": "Feature", "id": 4384521995, "geometry": {"type": "Point", "coordinates": [1.18793, 42.75569]}, "properties": {"internet_access": "wlan", "internet_access:fee": "no", "name": "Auberge des Myrtilles", "tourism": "hotel"}}, {"type": "Feature", "id": 5030245012, "geometry": {"type": "Point", "coordinates": [1.21168, 42.495306]}, "properties": {"addr:city": "Llavors\u00ed", "addr:country": "ES", "addr:housenumber": "4", "addr:postcode": "25595", "addr:province": "Lleida", "addr:street": "Avinguda de Pallaresa", "email": "infolamoga@gmail.com", "internet_access": "wlan", "internet_access:fee": "no", "name": "Hotel Lamoga", "phone": "+34 973622006", "stars": "2", "tourism": "hotel", "website": "https://hotel-lamoga.webnode.es/"}}, {"type": "Feature", "id": 5085480549, "geometry": {"type": "Point", "coordinates": [0.957954, 42.693083]}, "properties": {"amenity": "cafe", "internet_access": "wlan", "name": "Cafeter\u00eda 2200", "outdoor_seating": "yes"}}, {"type": "Feature", "id": 5085567694, "geometry": {"type": "Point", "coordinates": [0.945414, 42.697206]}, "properties": {"amenity": "cafe", "internet_access": "wlan", "name": "Bar 1800", "outdoor_seating": "yes"}}, {"type": "Feature", "id": 5310113029, "geometry": {"type": "Point", "coordinates": [1.115308, 42.38419]}, "properties": {"addr:city": "Montardit de Baix", "guest_house": "hostel", "internet_access": "wlan", "internet_access:fee": "no", "name": "Albergue l'Orri del Pallars", "tourism": "hostel"}}, {"type": "Feature", "id": 7878395285, "geometry": {"type": "Point", "coordinates": [0.965868, 42.249093]}, "properties": {"amenity": "restaurant", "cuisine": "catalan", "email": "info@restaurantlariba.es", "internet_access": "wlan", "name": "La Riba", "opening_hours": "Mo-Su 12:00-16:00", "phone": "+34 973 660 065", "website": "https://www.restaurantlariba.es/"}}, {"type": "Feature", "id": 8912090917, "geometry": {"type": "Point", "coordinates": [1.122126, 42.628133]}, "properties": {"addr:postcode": "25580", "addr:street": "Pla\u00e7a de la Closa", "amenity": "fast_food", "cuisine": "burger;chicken;diner;local;tapas", "email": "labusxeta@gmail.com", "internet_access": "wlan", "name": "La Busxeta Pirenaic Food Truck", "opening_hours": "Mo-Su 12:00-03:00"}}, {"type": "Feature", "id": 11038655305, "geometry": {"type": "Point", "coordinates": [0.609924, 42.750485]}, "properties": {"internet_access": "wlan", "name": "Le Domaine de Venasque", "tourism": "guest_house"}}, {"type": "Feature", "id": 11053760167, "geometry": {"type": "Point", "coordinates": [1.097658, 42.699816]}, "properties": {"access": "yes", "beds": "20", "cuisine": "catalan", "description": "food / drink / sleep", "email": "aventurajuntes@gmail.com", "internet_access": "wlan", "mobile": "+34617246258", "name": "Refugi d'Al\u00f3s", "operator": "Asociaci\u00f3 Al\u00f3s Cultural", "phone": "+34625223987", "reservation": "yes", "shower": "yes", "tourism": "alpine_hut"}}, {"type": "Feature", "id": 63821621, "geometry": {"type": "LineString", "coordinates": [[0.597791, 42.785319], [0.597644, 42.785297], [0.597667, 42.785215], [0.597715, 42.785223], [0.59772, 42.785205], [0.597771, 42.785212], [0.597766, 42.78523], [0.597814, 42.785237], [0.597813, 42.78524], [0.597825, 42.785242], [0.597817, 42.785272], [0.597805, 42.785271], [0.597791, 42.785319]]}, "properties": {"addr:city": "Bagn\u00e8res-de-Luchon", "addr:housenumber": "14", "addr:postcode": "31110", "addr:street": "Avenue du Docteur Lambron", "building": "commercial", "email": "hi@thefreerangechalet.com", "internet_access": "wlan", "internet_access:fee": "no", "name": "The Free Range Chalet", "phone": "+33561793694", "rooms": "5", "source": "cadastre-dgi-fr source : Direction G\u00e9n\u00e9rale des Imp\u00f4ts - Cadastre. Mise \u00e0 jour : 2010;local knowledge", "tourism": "hotel", "website": "https://thefreerangechalet.com"}}, {"type": "Feature", "id": 142267534, "geometry": {"type": "LineString", "coordinates": [[0.51418, 42.593818], [0.514502, 42.593799], [0.514479, 42.593587], [0.51432, 42.593597], [0.514331, 42.593704], [0.514169, 42.593713], [0.51418, 42.593818]]}, "properties": {"building": "yes", "internet_access": "wlan", "internet_access:fee": "no", "name": "Hotel Selba D'Ansils", "phone": "+34 974 552054", "rooms": "13", "tourism": "hotel", "website": "https://www.hotelselbadansils.com"}}, {"type": "Feature", "id": 180322079, "geometry": {"type": "LineString", "coordinates": [[0.582692, 42.667918], [0.582779, 42.667955], [0.582785, 42.668005], [0.582867, 42.668065], [0.582946, 42.668082], [0.58298, 42.668098], [0.582999, 42.668168], [0.582966, 42.668237], [0.582906, 42.668321], [0.582691, 42.668614], [0.58257, 42.668611], [0.582502, 42.668679], [0.582426, 42.668689], [0.582314, 42.66861], [0.582212, 42.668577], [0.582047, 42.668559], [0.581913, 42.668513], [0.58168, 42.668433], [0.581616, 42.66834], [0.58154, 42.668237], [0.581541, 42.668147], [0.581464, 42.668028], [0.581533, 42.667945], [0.581526, 42.66776], [0.58161, 42.6678], [0.581728, 42.667859], [0.581819, 42.667898], [0.582165, 42.667928], [0.582308, 42.667926], [0.582375, 42.667889], [0.582692, 42.667918]]}, "properties": {"capacity": "50", "caravans": "yes", "email": "camping@turpi.net", "fax": "+34 974344010", "internet_access": "wlan", "internet_access:fee": "no", "name": "Camping de los Ba\u00f1os", "phone": "+34 974344002", "power_supply": "yes", "shower": "yes", "stars": "2", "tents": "yes", "tourism": "camp_site", "website": "http://www.turpi.net/"}}, {"type": "Feature", "id": 180322080, "geometry": {"type": "LineString", "coordinates": [[0.582281, 42.667844], [0.582592, 42.667773], [0.582575, 42.667733], [0.582642, 42.667718], [0.582623, 42.667674], [0.582541, 42.667693], [0.582514, 42.667631], [0.582499, 42.667597], [0.582416, 42.667616], [0.582391, 42.667559], [0.582247, 42.667592], [0.58227, 42.667648], [0.582278, 42.667666], [0.582211, 42.667681], [0.582242, 42.667753], [0.582281, 42.667844]]}, "properties": {"building": "hotel", "email": "hotel@turpi.net", "fax": "+34 974 344010", "internet_access": "wlan", "internet_access:fee": "no", "name": "Hotel Turpi", "phone": "+34 974 344002", "stars": "2", "tourism": "hotel", "website": "http://www.turpi.net/"}}, {"type": "Feature", "id": 181355727, "geometry": {"type": "LineString", "coordinates": [[1.001252, 42.519556], [1.001391, 42.519512], [1.001327, 42.519403], [1.001188, 42.519447], [1.001252, 42.519556]]}, "properties": {"access": "yes", "amenity": "shelter", "building": "yes", "capacity": "49", "description:fr": "2016-03 : P\u00e9riode de gardiennage : - De la mi-juin \u00e0 la fin Septembre - R\u00e9servation possible hors p\u00e9riode estivale. Hors p\u00e9riode de gardiennage : - 9 places ouvertes dans la salle hors sac (matelas, couvertures).", "ele": "2425", "email": "colomina.refugi@feec.cat", "fee": "yes", "internet_access": "wlan", "name": "Refugi Colomina", "name:ca": "Refugi de Colomina", "name:fr": "Refuge de Colomina", "operator": "Federaci\u00f3 d'Entitats Excursionistes de Catalunya", "phone": "+34 973252000", "ref:refuges.info": "5464", "shower": "yes", "toilets": "yes", "tourism": "alpine_hut", "website": "http://www.refugicolomina.com", "wikidata": "Q11945081", "wikipedia": "ca:Refugi de Colomina", "winter_room": "yes"}}, {"type": "Feature", "id": 198437551, "geometry": {"type": "LineString", "coordinates": [[0.744548, 42.436325], [0.744693, 42.43622], [0.744376, 42.435926], [0.744075, 42.435595], [0.74382, 42.435266], [0.743724, 42.435091], [0.743603, 42.434836], [0.743532, 42.434504], [0.743536, 42.434222], [0.743571, 42.433797], [0.743532, 42.433543], [0.743464, 42.433505], [0.743357, 42.433521], [0.743253, 42.433581], [0.743162, 42.433686], [0.743203, 42.434075], [0.74322, 42.434338], [0.743191, 42.434532], [0.743208, 42.434656], [0.743292, 42.434942], [0.743353, 42.435111], [0.743516, 42.43532], [0.743822, 42.435677], [0.744223, 42.436072], [0.744548, 42.436325]]}, "properties": {"addr:city": "El Pont de Suert", "addr:postcode": "25520", "addr:street": "Crta.Vall de Boi (L-500), km. 1\u20195", "caravans": "yes", "cash_withdrawal": "mastercard;visa", "email": "campingdelremei@gmail.com", "internet_access": "wlan", "internet_access:fee": "no", "name": "C\u00e0mping del Remei", "name:ca": "C\u00e0mping del Remei", "phone": "+34 676 45 84 12", "sanitary_dump_station": "customers", "stars": "2", "tents": "yes", "tourism": "camp_site", "website": "https://www.campingdelremei.com/"}}, {"type": "Feature", "id": 209879719, "geometry": {"type": "LineString", "coordinates": [[0.720234, 42.431941], [0.720232, 42.431914], [0.720185, 42.431916], [0.720179, 42.431846], [0.720217, 42.431844], [0.720212, 42.431783], [0.720521, 42.431769], [0.72053, 42.431879], [0.720502, 42.43188], [0.720507, 42.431928], [0.720234, 42.431941]]}, "properties": {"building": "yes", "internet_access": "wlan", "name": "Hostal Casa Prades", "stars": "2", "tourism": "hotel", "website": "http://www.casaprades.com/"}}, {"type": "Feature", "id": 227464202, "geometry": {"type": "LineString", "coordinates": [[1.132963, 42.418522], [1.132909, 42.418107], [1.132871, 42.417598], [1.13284, 42.417185], [1.13306, 42.417103], [1.133103, 42.41712], [1.133218, 42.417249], [1.133845, 42.418122], [1.134478, 42.41896], [1.134585, 42.419137], [1.134699, 42.419387], [1.134765, 42.419556], [1.134785, 42.419799], [1.134774, 42.419994], [1.134682, 42.420298], [1.134447, 42.420907], [1.134329, 42.420891], [1.134304, 42.420764], [1.134215, 42.420461], [1.134146, 42.420269], [1.133943, 42.41988], [1.133522, 42.419317], [1.133261, 42.418979], [1.133232, 42.418937], [1.133199, 42.418949], [1.133033, 42.418706], [1.13302, 42.4187], [1.132977, 42.4186], [1.132963, 42.418522]]}, "properties": {"access": "yes", "bbq": "yes", "caravans": "yes", "dog": "yes", "fee": "yes", "internet_access": "wlan", "internet_access:fee": "no", "name": "C\u00e0mping Noguera Pallaresa", "name:ca": "C\u00e0mping Noguera Pallaresa", "power_supply": "yes", "restaurant": "yes", "shower": "hot", "swimming_pool": "yes", "tents": "yes", "toilets": "yes", "tourism": "camp_site", "website": "www.noguera-pallaresa.com"}}, {"type": "Feature", "id": 232856609, "geometry": {"type": "LineString", "coordinates": [[0.806262, 42.932224], [0.806236, 42.932288], [0.806199, 42.932278], [0.806186, 42.932307], [0.806109, 42.932286], [0.806123, 42.932254], [0.806116, 42.932253], [0.80615, 42.932185], [0.806073, 42.932158], [0.806091, 42.93213], [0.806091, 42.932122], [0.806183, 42.932039], [0.806189, 42.932042], [0.80621, 42.93202], [0.80627, 42.932053], [0.806245, 42.932077], [0.806299, 42.932106], [0.806241, 42.932168], [0.806235, 42.932206], [0.806246, 42.932214], [0.806262, 42.932224]]}, "properties": {"addr:city": "Boutx", "addr:postcode": "31160", "addr:street": "Lacus", "building": "yes", "internet_access": "wlan", "name": "La maison du Beurre", "phone": "+335 61 86 61 39", "rooms": "2", "source": "cadastre-dgi-fr source : Direction G\u00e9n\u00e9rale des Finances Publiques - Cadastre. Mise \u00e0 jour : 2013", "tourism": "guest_house", "website": "https://www.facebook.com/MaisonduBeurre/"}}, {"type": "Feature", "id": 254721909, "geometry": {"type": "LineString", "coordinates": [[0.800359, 42.700528], [0.800437, 42.700496], [0.800234, 42.700229], [0.800093, 42.700286], [0.800211, 42.700441], [0.800123, 42.700477], [0.800167, 42.700535], [0.800274, 42.700675], [0.800424, 42.700614], [0.800359, 42.700528]]}, "properties": {"addr:city": "Vielha ' Vall d'Aran", "addr:place": "Aneto de Vielha", "brand": "Affiliated by Meli\u00e1", "building": "hotel", "contact:email": "hotel.Vielha@Melia.com", "contact:phone": "+34 973 63 80 00", "contact:website": "https://www.melia.com/es/hoteles/espana/vielha-valle-de-aran/hotel-vielha-baqueira-by-melia", "internet_access": "wlan", "name": "Hotel Vielha Baqueira Affiliated By Meli\u00e1", "old_name": "Hotel Tryp Vielha", "opening_hours:reception": "24/7", "operator": "Meli\u00e1 Hotels International", "source": "survey", "source:date": "2005", "stars": "4", "tourism": "hotel"}}, {"type": "Feature", "id": 254847542, "geometry": {"type": "LineString", "coordinates": [[0.795344, 42.701205], [0.79522, 42.701259], [0.795103, 42.701122], [0.795225, 42.701067], [0.795344, 42.701205]]}, "properties": {"building": "yes", "building:levels": "5", "internet_access": "wlan", "internet_access:fee": "no", "name": "Hotel Ribaeta", "source": "PNOA", "source:date": "2005", "stars": "2", "tourism": "hotel"}}, {"type": "Feature", "id": 299051751, "geometry": {"type": "LineString", "coordinates": [[0.598962, 42.786804], [0.599994, 42.786656], [0.600346, 42.786606], [0.600266, 42.786216], [0.600598, 42.786175], [0.600744, 42.786152], [0.601095, 42.786091], [0.601534, 42.786033], [0.601586, 42.78603], [0.601642, 42.78603], [0.601688, 42.786033], [0.601735, 42.786043], [0.60178, 42.786056], [0.601835, 42.78608], [0.601893, 42.786116], [0.601924, 42.786142], [0.601978, 42.786197], [0.602003, 42.786227], [0.602015, 42.786268], [0.60202, 42.786306], [0.602015, 42.786344], [0.601856, 42.786813], [0.601908, 42.786804], [0.60206, 42.786367], [0.602188, 42.786383], [0.602296, 42.786393], [0.602309, 42.786339], [0.60232, 42.786327], [0.602341, 42.786311], [0.602367, 42.786296], [0.602395, 42.786279], [0.602426, 42.786253], [0.602447, 42.786223], [0.602458, 42.786196], [0.602463, 42.786172], [0.602462, 42.786136], [0.602453, 42.786099], [0.602438, 42.786035], [0.602439, 42.786026], [0.602445, 42.786017], [0.602451, 42.786013], [0.602467, 42.786005], [0.602562, 42.785976], [0.602602, 42.786053], [0.602896, 42.786644], [0.602824, 42.786659], [0.60284, 42.786769], [0.602865, 42.786967], [0.602886, 42.787131], [0.603073, 42.787102], [0.603174, 42.787087], [0.603333, 42.787065], [0.603389, 42.787298], [0.603414, 42.787363], [0.603377, 42.787368], [0.603418, 42.787478], [0.603104, 42.78752], [0.602978, 42.787536], [0.60306, 42.787746], [0.603011, 42.787755], [0.603035, 42.787858], [0.602614, 42.787914], [0.602131, 42.787746], [0.601266, 42.787449], [0.601295, 42.787402], [0.601317, 42.787377], [0.601356, 42.787336], [0.601379, 42.787316], [0.601413, 42.787293], [0.601456, 42.787267], [0.601561, 42.787217], [0.601769, 42.787126], [0.601787, 42.787115], [0.601807, 42.787097], [0.601818, 42.787071], [0.601877, 42.786893], [0.601826, 42.786902], [0.601765, 42.787081], [0.601427, 42.787234], [0.601391, 42.787255], [0.601342, 42.787287], [0.601309, 42.787314], [0.601279, 42.787346], [0.601251, 42.787377], [0.601218, 42.787434], [0.601159, 42.787551], [0.601133, 42.78762], [0.601116, 42.787673], [0.601107, 42.78772], [0.601096, 42.78781], [0.601086, 42.787855], [0.601075, 42.787896], [0.601032, 42.787996], [0.600792, 42.78853], [0.599907, 42.788585], [0.599725, 42.788386], [0.599563, 42.788248], [0.599435, 42.788102], [0.599391, 42.788048], [0.599368, 42.788004], [0.599358, 42.787978], [0.599345, 42.787933], [0.599325, 42.787804], [0.599305, 42.787687], [0.599276, 42.787581], [0.599222, 42.78748], [0.599162, 42.787378], [0.599132, 42.787252], [0.598962, 42.786804]]}, "properties": {"addr:city": "Saint-Mamet", "addr:housenumber": "10", "addr:postcode": "31110", "addr:street": "all\u00e9es des loisirs", "area": "yes", "barrier": "fence", "email": "luchon@btpvacances.com", "internet_access": "wlan", "internet_access:fee": "no", "name": "Village Club Les Balcons des Pyr\u00e9n\u00e9es", "operator": "BTP Vacances", "phone": "+33561945600", "tourism": "apartment", "website": "https://vacances.probtp.com/luchon"}}, {"type": "Feature", "id": 308207505, "geometry": {"type": "LineString", "coordinates": [[0.606278, 42.796109], [0.607864, 42.794711], [0.608146, 42.794733], [0.608755, 42.795593], [0.60721, 42.796661], [0.606496, 42.796464], [0.606238, 42.796235], [0.606278, 42.796109]]}, "properties": {"addr:city": "Montauban-de-Luchon", "addr:postcode": "31110", "addr:street": "Route de Subrecarr\u00e8re", "capacity": "194", "email": "domaineolanette@orange.fr", "internet_access": "wlan", "name": "Domaine O Lanette", "phone": "+33 561 898 490", "tourism": "camp_site", "website": "https://domaineolanette-luchon.com"}}, {"type": "Feature", "id": 315451003, "geometry": {"type": "LineString", "coordinates": [[0.409238, 42.836838], [0.408987, 42.836556], [0.408596, 42.83652], [0.408467, 42.836507], [0.407211, 42.836379], [0.407153, 42.83663], [0.407123, 42.836719], [0.407033, 42.836793], [0.406987, 42.836842], [0.406898, 42.837094], [0.406836, 42.837099], [0.406782, 42.837227], [0.40662, 42.837514], [0.406685, 42.837552], [0.406504, 42.837699], [0.406435, 42.837764], [0.406404, 42.837873], [0.406399, 42.837981], [0.406417, 42.838166], [0.406483, 42.838191], [0.406537, 42.838461], [0.407077, 42.838419], [0.407171, 42.838773], [0.407733, 42.839025], [0.407799, 42.838944], [0.407828, 42.838902], [0.407799, 42.838881], [0.407782, 42.838792], [0.407622, 42.837889], [0.407667, 42.837726], [0.407703, 42.837684], [0.407758, 42.837656], [0.40786, 42.837628], [0.408062, 42.83762], [0.408387, 42.837675], [0.408546, 42.83769], [0.408867, 42.837652], [0.408793, 42.837518], [0.408804, 42.837501], [0.408851, 42.837432], [0.408979, 42.837389], [0.409148, 42.83738], [0.40913, 42.837342], [0.409104, 42.837269], [0.409021, 42.837193], [0.40899, 42.837161], [0.40898, 42.837085], [0.409, 42.837034], [0.409041, 42.837003], [0.40912, 42.836966], [0.409175, 42.836889], [0.409238, 42.836838]]}, "properties": {"internet_access": "wlan", "internet_access:fee": "no", "name": "Camping Municipal Le Hourgade", "tourism": "camp_site", "website": "https://www.campinglehourgade.fr/public/"}}, {"type": "Feature", "id": 320563817, "geometry": {"type": "LineString", "coordinates": [[0.457296, 42.627348], [0.457264, 42.627399], [0.457237, 42.62739], [0.457197, 42.627454], [0.457457, 42.62754], [0.457495, 42.627478], [0.457543, 42.627493], [0.457575, 42.627441], [0.457296, 42.627348]]}, "properties": {"alt_name": "El Forcau", "alt_name:ca": "El Forcau", "alt_name:en": "El Forcau", "alt_name:es": "El Forcau", "amenity": "shelter", "building": "yes", "ele": "2150", "email": "info@refugioangelorus.com", "internet_access": "wlan", "internet_access:fee": "no", "name": "Refugio \u00c1ngel Or\u00fas", "name:ca": "Refugi \u00c0ngel Or\u00fas", "name:en": "Refuge Angel Orus", "name:es": "Refugio \u00c1ngel Or\u00fas", "name:fr": "Refuge Angel Orus", "note": "146", "operator": "FAM", "phone": "+34 974 344 044", "ref:refuges.info": "5846", "shelter_type": "building", "source": "Association \"Refuges et cabanes des Pyr\u00e9n\u00e9es", "tourism": "alpine_hut", "website": "http://www.refugioangelorus.com/", "wikidata": "Q27190844", "wikipedia": "es:Refugio \u00c1ngel Or\u00fas"}}, {"type": "Feature", "id": 332060409, "geometry": {"type": "LineString", "coordinates": [[0.544794, 42.30905], [0.544819, 42.309267], [0.544854, 42.309337], [0.544917, 42.309374], [0.545582, 42.30961], [0.545729, 42.309634], [0.545875, 42.309639], [0.54596, 42.309607], [0.54607, 42.309545], [0.546169, 42.309467], [0.546245, 42.309384], [0.546255, 42.309284], [0.546249, 42.309194], [0.546221, 42.309017], [0.546176, 42.308808], [0.546082, 42.308562], [0.546192, 42.308271], [0.546324, 42.307871], [0.546422, 42.307655], [0.546418, 42.307586], [0.545489, 42.307271], [0.545368, 42.307218], [0.545373, 42.307446], [0.544956, 42.307489], [0.544286, 42.307559], [0.544794, 42.30905]]}, "properties": {"addr:city": "La Puebla de Roda", "addr:postcode": "22482", "addr:street": "Carretera de graus a Viella Km. 27", "email": "info@isabena.eu", "internet_access": "wlan", "internet_access:fee": "no", "motorcycle:rental": "yes", "motorcycle:tools": "yes", "motorcycle:tours": "info", "motorcycle_friendly": "yes", "name": "Camping Isabena + BungalowPark", "opening_hours": "Apr 01-Nov 15", "phone": "+34 974 54 45 30", "sport": "soccer;table_tennis;table_soccer;billiards", "swimming_pool": "yes", "tents": "yes", "tourism": "camp_site", "website": "https://www.isabena.eu"}}, {"type": "Feature", "id": 337541661, "geometry": {"type": "LineString", "coordinates": [[1.044173, 42.545682], [1.044015, 42.545609], [1.043946, 42.545692], [1.044129, 42.545776], [1.044179, 42.545716], [1.044153, 42.545704], [1.044173, 42.545682]]}, "properties": {"access": "yes", "building": "yes", "capacity": "60", "ele": "2320", "fee": "yes", "internet_access": "wlan", "internet_access:fee": "no", "name": "Refugi Josep Maria Blanc", "name:ca": "Refugi Josep Maria Blanc", "operator": "Centre Excursionista de Catalunya", "phone": "+34 973 250 108", "reservation": "recommended", "shower": "yes", "toilets": "yes", "tourism": "alpine_hut", "website": "https://www.jmblanc.com/", "wikidata": "Q17607056", "wikipedia": "ca:Refugi Josep Maria Blanc", "winter_room": "4"}}, {"type": "Feature", "id": 390374444, "geometry": {"type": "LineString", "coordinates": [[0.683041, 42.596341], [0.683066, 42.59626], [0.683231, 42.596288], [0.683251, 42.596273], [0.683286, 42.596248], [0.683202, 42.596193], [0.683287, 42.596122], [0.683368, 42.596176], [0.683405, 42.596181], [0.683404, 42.5962], [0.683442, 42.596225], [0.683357, 42.596295], [0.683323, 42.596272], [0.683291, 42.596299], [0.683266, 42.59638], [0.683041, 42.596341]]}, "properties": {"building": "yes", "capacity": "86", "description": "Es el refugio de monta\u00f1a guardado todo el a\u00f1o m\u00e1s elevado del Pirineo (2425 m), quedando rodeado en su zona septentrional y occidental por varias cimas de 3000m, incluido el Aneto. Est\u00e1 protegido de avalanchas, y soleado la mayor parte del d\u00eda.", "description:fr": "2018-06 : * Eau potable * Douches chaudes * Radio / T\u00e9l\u00e9 ... tout confort * Gard\u00e9 365 jours par an", "ele": "2425", "email": "refugiocapdellauset@gmail.com", "fee": "yes", "internet_access": "wlan", "internet_access:fee": "customers", "name": "Refugio Cap de Llauset", "name:ca": "Refugi Cap de Llauset", "name:es": "Refugio Cap de Llauset", "phone": "+34 974 12 04 00", "ref:refuges.info": "5877", "tourism": "alpine_hut", "website": "https://refugiodellauset.es/", "wikidata": "Q27705296", "wikipedia": "es:Refugio Cap de Llauset"}}, {"type": "Feature", "id": 401595513, "geometry": {"type": "LineString", "coordinates": [[0.984741, 42.596622], [0.984719, 42.596612], [0.984758, 42.596567], [0.984698, 42.596539], [0.984659, 42.596584], [0.984643, 42.596577], [0.984616, 42.596608], [0.984592, 42.596597], [0.984469, 42.59674], [0.984497, 42.596753], [0.984487, 42.596766], [0.984556, 42.596798], [0.98457, 42.596781], [0.984595, 42.596792], [0.984741, 42.596622]]}, "properties": {"access": "yes", "amenity": "shelter", "building": "yes", "capacity": "74", "description:fr": "2016-02 : Services : - Restauration/boissons - Douche chaude (payante 1\u20ac) - Poste radio de secours - Service de taxi du \"Parc National\" Lorsque le refuge est non gard\u00e9 : - Refuge d'hiver ouvert avec 12 places (matelas, couverture) - Po\u00eale \u00e0 gaz", "ele": "2370", "email": "info@amitges.com", "fee": "yes", "internet_access": "wlan", "internet_access:fee": "no", "name": "Refugi d'Amitges", "name:ca": "Refugi d'Amitges", "name:fr": "Refuge d'Amitges", "operator": "Centre Excrusionista de Catalunya", "phone": "+34 973 250 109", "ref:refuges.info": "5417", "shower": "yes", "toilets": "yes", "tourism": "alpine_hut", "website": "https://www.amitges.com/", "wikidata": "Q11945070", "wikipedia": "ca:Refugi d'Amitges", "winter_room": "12"}}, {"type": "Feature", "id": 401596955, "geometry": {"type": "LineString", "coordinates": [[0.963305, 42.621061], [0.963325, 42.621123], [0.963381, 42.621113], [0.963376, 42.621097], [0.963449, 42.621084], [0.963427, 42.621019], [0.963384, 42.621027], [0.963391, 42.621046], [0.963305, 42.621061]]}, "properties": {"access": "yes", "building": "yes", "capacity": "28", "drinking_water": "yes", "ele": "2298", "fee": "yes", "internet_access": "wlan", "name": "Refugi de Saboredo", "name:ca": "Refugi de Saboredo", "phone": "+34 661357716", "ref:refuges.info": "5463", "shower": "yes", "toilets": "yes", "tourism": "alpine_hut", "website": "https://www.refusaboredo.com", "wikidata": "Q11945089", "wikipedia": "ca:Refugi de Saboredo", "winter_room": "yes"}}, {"type": "Feature", "id": 406757601, "geometry": {"type": "LineString", "coordinates": [[1.162954, 42.448867], [1.162886, 42.448787], [1.162973, 42.448746], [1.163067, 42.448676], [1.163158, 42.448769], [1.163054, 42.448824], [1.162954, 42.448867]]}, "properties": {"beds": "15", "building": "yes", "building:levels": "4", "internet_access": "wlan", "internet_access:fee": "no", "max_level": "4", "min_level": "0", "name": "Casa Jan", "rooms": "6", "tourism": "chalet"}}, {"type": "Feature", "id": 410356841, "geometry": {"type": "LineString", "coordinates": [[0.982926, 42.259127], [0.982986, 42.258629], [0.984087, 42.258793], [0.985001, 42.258998], [0.986857, 42.259578], [0.986514, 42.259899], [0.984641, 42.259287], [0.984163, 42.259196], [0.983646, 42.259161], [0.983165, 42.259143], [0.982926, 42.259127]]}, "properties": {"access": "customers", "addr:city": "la Pobla de Segur", "addr:housenumber": "306", "addr:postcode": "25500", "addr:street": "Eix Pirinenc", "addr:unit": "km", "capacity:persons": "150", "internet_access": "wlan", "internet_access:fee": "customers", "name": "Camping Collegats", "operator": "Camping Collegats", "tourism": "camp_site", "website": "https://www.collegats.cat/"}}, {"type": "Feature", "id": 440907469, "geometry": {"type": "LineString", "coordinates": [[1.087368, 42.576029], [1.087477, 42.575849], [1.087425, 42.575825], [1.08743, 42.575817], [1.087392, 42.575805], [1.087352, 42.575772], [1.0873, 42.575808], [1.087231, 42.57574], [1.087182, 42.575701], [1.08716, 42.575721], [1.087144, 42.575708], [1.087076, 42.575765], [1.087145, 42.575823], [1.08713, 42.575838], [1.087218, 42.575894], [1.087317, 42.575922], [1.087301, 42.575985], [1.08731, 42.576009], [1.087368, 42.576029]]}, "properties": {"addr:city": "Espot", "addr:country": "ES", "addr:street": "Carrer de la Moixera", "building": "hotel", "internet_access": "wlan", "internet_access:fee": "no", "name": "Hotel Roya", "stars": "2", "tourism": "hotel"}}, {"type": "Feature", "id": 491056966, "geometry": {"type": "LineString", "coordinates": [[1.153474, 42.575553], [1.153383, 42.575487], [1.153289, 42.57558], [1.153361, 42.575629], [1.153474, 42.575553]]}, "properties": {"addr:district": "Guingueta d'\u00c0neu", "addr:postcode": "25597", "addr:street": "Carrer Major", "addr:subdistrict": "Berr\u00f3s Juss\u00e0", "addr:suburb": "Guingueta d'\u00c0neu", "beds": "8", "building": "allotment_house", "building:levels": "3", "contact:foursquare": "Rural Berr\u00f3s", "contact:instagram": "https://www.instagram.com/ruralberros/", "contact:mobile": "+34 636 59 44 68", "contact:tripadvisor": "Apartaments Rural Berr\u00f3s", "contact:whatsapp": "+34 636 59 44 68", "email": "info@ruralberros.com", "guest_house": "bed_and_breakfast", "internet_access": "wlan", "internet_access:fee": "no", "name": "Apartaments Rural Berr\u00f3s", "roof:orientation": "across", "roof:shape": "gabled", "rooms": "6", "smoking": "outside", "tourism": "guest_house", "website": "https://ruralberros.com/", "wheelchair": "no"}}, {"type": "Feature", "id": 547850384, "geometry": {"type": "LineString", "coordinates": [[0.790361, 42.704348], [0.790297, 42.704383], [0.790262, 42.704348], [0.790199, 42.704382], [0.790153, 42.704336], [0.79019, 42.704316], [0.790221, 42.7043], [0.790204, 42.704283], [0.790264, 42.704251], [0.790308, 42.704295], [0.790361, 42.704348]]}, "properties": {"addr:city": "Vielha e Mijaran", "addr:housenumber": "18", "addr:postcode": "25530", "addr:street": "Montcorbison", "building": "house", "building:levels": "2", "description": "Alojamiento tur\u00edstico en la Val d'Aran (Pirineos). A 13 km de Baqueira Berete (estaci\u00f3n de esqu\u00ed). Casa independiente con jard\u00edn, barbacoa. La casa dispone de cocina, sala de estar, habitaciones, sauna, ba\u00f1era de hidromasaje.", "ele": "1000", "guest_house": "guest_house", "internet_access": "wlan", "internet_access:fee": "no", "name": "Casa Lola Pirene", "operator": "Lola Pirene 430, S.L.U.", "rooms": "4", "tourism": "guest_house"}}, {"type": "Feature", "id": 584309370, "geometry": {"type": "LineString", "coordinates": [[0.528088, 42.291213], [0.528111, 42.291222], [0.528205, 42.291261], [0.528163, 42.291321], [0.528128, 42.291331], [0.528038, 42.291404], [0.527951, 42.291361], [0.527945, 42.291358], [0.527982, 42.291315], [0.528006, 42.291327], [0.528023, 42.291312], [0.528045, 42.291271], [0.528088, 42.291213]]}, "properties": {"building": "yes", "building:levels": "4", "internet_access": "wlan", "name": "Hospeder\u00eda de Roda de Is\u00e1bena", "rooms": "10", "stars": "3", "tourism": "hotel"}}, {"type": "Feature", "id": 592693100, "geometry": {"type": "LineString", "coordinates": [[0.475637, 42.50388], [0.475626, 42.503778], [0.475805, 42.503769], [0.47581, 42.50387], [0.475637, 42.50388]]}, "properties": {"addr:postcode": "22466", "addr:street": "Calle La Fuente", "building": "yes", "email": "info@alberguepirineos.es", "guest_house": "bed_and_breakfast", "internet_access": "wlan", "internet_access:fee": "customers", "name": "Albergue de El Run", "phone": "+34 974 55 38 72", "phone:mobile": "+34 659 23 40 83", "rooms": "7", "tourism": "hostel", "website": "http://www.alberguepirineos.es/"}}, {"type": "Feature", "id": 626214308, "geometry": {"type": "LineString", "coordinates": [[1.193014, 42.290431], [1.193083, 42.290308], [1.192999, 42.290288], [1.192975, 42.290331], [1.192916, 42.290312], [1.192927, 42.290281], [1.192794, 42.290256], [1.192774, 42.290352], [1.193014, 42.290431]]}, "properties": {"building": "yes", "internet_access": "wlan", "name": "Cal Rossa", "name:ca": "Cal Rossa", "tourism": "hostel", "website": "https://calrossa.com/"}}, {"type": "Feature", "id": 730967060, "geometry": {"type": "LineString", "coordinates": [[0.607144, 42.770989], [0.607118, 42.77101], [0.607142, 42.771035], [0.60726, 42.771006], [0.607495, 42.770908], [0.607875, 42.770814], [0.608198, 42.770722], [0.608304, 42.770657], [0.608372, 42.770587], [0.608449, 42.770553], [0.608523, 42.770542], [0.608685, 42.77047], [0.608721, 42.770496], [0.608759, 42.77048], [0.60901, 42.770466], [0.609122, 42.770437], [0.609386, 42.770293], [0.60945, 42.770193], [0.609433, 42.770075], [0.60934, 42.769862], [0.609139, 42.769772], [0.608935, 42.769747], [0.608679, 42.769649], [0.608583, 42.769635], [0.608522, 42.769587], [0.608428, 42.769518], [0.608362, 42.769507], [0.608307, 42.769595], [0.608271, 42.769659], [0.608263, 42.769812], [0.608396, 42.770035], [0.608424, 42.770082], [0.608374, 42.770132], [0.608198, 42.770246], [0.608164, 42.770257], [0.608138, 42.770259], [0.608093, 42.770239], [0.60805, 42.77024], [0.608007, 42.770258], [0.60788, 42.770323], [0.607731, 42.770401], [0.607607, 42.770334], [0.607146, 42.770897], [0.6071, 42.770958], [0.607144, 42.770989]]}, "properties": {"addr:city": "Saint-Mamet", "addr:postcode": "31110", "addr:street": "D618a", "capacity": "58", "caravans": "yes", "internet_access": "wlan", "name": "Camping GCU de Luchon-Saint-Mamet", "operator": "Groupement des Campeurs Universitaires", "phone": "+33 5 61 79 32 38", "sanitary_dump_station": "customers", "stars": "2", "tents": "yes", "tourism": "camp_site", "website": "https://www.gcu.asso.fr/", "wheelchair": "limited"}}, {"type": "Feature", "id": 836063325, "geometry": {"type": "LineString", "coordinates": [[0.597202, 42.81055], [0.59809, 42.81092], [0.598096, 42.810866], [0.598165, 42.810229], [0.599031, 42.81031], [0.599235, 42.809499], [0.598167, 42.809314], [0.598307, 42.808773], [0.597314, 42.808639], [0.59718, 42.809129], [0.596462, 42.809058], [0.59629, 42.809005], [0.596188, 42.810373], [0.59618, 42.810652], [0.596258, 42.810871], [0.596979, 42.810707], [0.597041, 42.81064], [0.597202, 42.81055]]}, "properties": {"email": "contact@camping-pradelongue.com", "internet_access": "wlan", "internet_access:fee": "yes", "name": "Pradelongue", "phone": "+33 561 798 644", "stars": "4", "tourism": "camp_site", "website": "https://www.camping-pradelongue.com/"}}, {"type": "Feature", "id": 1082355722, "geometry": {"type": "LineString", "coordinates": [[0.547052, 42.627778], [0.547201, 42.627605], [0.54809, 42.627175], [0.547868, 42.626973], [0.547455, 42.626773], [0.546686, 42.627045], [0.546447, 42.626845], [0.546195, 42.62673], [0.545797, 42.626595], [0.545832, 42.627051], [0.545885, 42.62734], [0.546132, 42.627464], [0.546195, 42.627624], [0.546361, 42.62775], [0.546903, 42.627796], [0.547052, 42.627778]]}, "properties": {"addr:postcode": "22440", "addr:street": "Carretera A-139, km. 63,400", "email": "ixeia@campingixeia.es", "internet_access": "wlan", "name": "Camping Ixeia", "opening_hours": "Mo-Su 08:00-22:00", "phone": "+34 974552129", "tourism": "camp_site", "website": "https://www.campingixeia.es/"}}, {"type": "Feature", "id": 1213925662, "geometry": {"type": "LineString", "coordinates": [[1.131447, 42.407484], [1.131776, 42.407403], [1.131568, 42.406927], [1.131182, 42.407088], [1.131447, 42.407484]]}, "properties": {"addr:city": "Sort", "air_conditioning": "yes", "heating": "yes", "internet_access": "wlan", "internet_access:fee": "customers", "name": "Florido Hotel", "pet": "yes", "phone": "+34 973 620 237", "stars": "2", "tourism": "hotel", "website": "https://www.hotelflorido.com"}}]}