{"type": "FeatureCollection", "features": [{"type": "Feature", "id": 26694473, "geometry": {"type": "Point", "coordinates": [0.591228, 42.791062]}, "properties": {"alt_name": "Luchon", "alt_name:fr": "Luchon", "alt_name:oc": "Luishon", "name": "Bagn\u00e8res-de-Luchon", "name:fr": "Bagn\u00e8res-de-Luchon", "name:oc": "Banh\u00e8ras-de-Luishon", "place": "town", "population": "2384", "postal_code": "31110", "source:name:oc": "ieo-bdtopoc", "source:population": "INSEE 2020", "wikidata": "Q238393", "wikipedia": "fr:Bagn\u00e8res-de-Luchon"}}, {"type": "Feature", "id": 151060133, "geometry": {"type": "Point", "coordinates": [1.129836, 42.411451]}, "properties": {"capital": "7", "ele": "700", "name": "Sort", "name:ca": "Sort", "place": "town", "population": "1636", "population:date": "2022", "population:source": "Ajuntament", "ref:ine": "25209001501", "source": "Institut Cartogr\u00e0fic de Catalunya", "website": "https://sort.cat/", "wikidata": "Q12690", "wikipedia": "ca:Sort"}}, {"type": "Feature", "id": 151063417, "geometry": {"type": "Point", "coordinates": [0.740255, 42.407609]}, "properties": {"addr:postcode": "25520", "capital": "7", "ele": "838", "name": "el Pont de Suert", "name:ca": "el Pont de Suert", "name:el": "\u03a0\u03bf\u03bd\u03c4 \u03bd\u03c4\u03b5 \u03a3\u03bf\u03c5\u03ad\u03c1\u03c4", "place": "town", "population": "2055", "population:date": "2022", "ref:ine": "25173001600", "source": "Instituto Geogr\u00e1fico Nacional", "source:date": "2011-06", "source:ele": "MDT5", "source:name": "Nomencl\u00e1tor Geogr\u00e1fico de Municipios y Entidades de Poblaci\u00f3n", "website": "https://www.elpontdesuert.cat/", "wikidata": "Q12708", "wikipedia": "ca:El Pont de Suert"}}, {"type": "Feature", "id": 1098278678, "geometry": {"type": "Point", "coordinates": [0.795474, 42.701757]}, "properties": {"capital": "7", "ele": "974", "name": "Vielha", "name:ca": "Viella", "name:es": "Viella", "name:oc": "Vielha", "place": "town", "population": "3492", "population:date": "2022", "ref:ine": "25243001103", "source": "Instituto Geogr\u00e1fico Nacional", "source:date": "2011-06", "source:ele": "MDT5", "source:name": "Nomencl\u00e1tor Geogr\u00e1fico de Municipios y Entidades de Poblaci\u00f3n", "source:name:oc": "ieo-bdtopoc", "wikidata": "Q12647", "wikipedia": "oc:Vielha e Mijaran"}}]}