{"type": "FeatureCollection", "features": [{"type": "Feature", "id": 968202938, "geometry": {"type": "Point", "coordinates": [0.442257, 42.720984]}, "properties": {"amenity": "shelter", "capacity": "4", "name": "Refuge de Caillauas", "shelter_type": "basic_hut"}}, {"type": "Feature", "id": 968202948, "geometry": {"type": "Point", "coordinates": [1.006678, 42.825326]}, "properties": {"amenity": "shelter", "name": "Cabane Col de Part", "note": "557", "shelter_type": "basic_hut", "source": "Association \"Refuges et cabanes des Pyr\u00e9n\u00e9es\""}}, {"type": "Feature", "id": 968203113, "geometry": {"type": "Point", "coordinates": [0.974046, 42.858517]}, "properties": {"amenity": "shelter", "name": "Cabane Artigou - castillonais", "note": "535", "shelter_type": "basic_hut", "source": "Association \"Refuges et cabanes des Pyr\u00e9n\u00e9es\""}}, {"type": "Feature", "id": 968203164, "geometry": {"type": "Point", "coordinates": [0.931736, 42.804158]}, "properties": {"amenity": "shelter", "capacity": "8", "description": "2016-01 : - Toujours ouvert - Excellente isolation (mais bruyant par grand vent ...) - Pas de vaisselle - 1 table, 2 bancs - 4 matelas (3 au niveau sup\u00e9rieur)", "ele": "1947", "fireplace": "no", "name": "Cabane d'Urets", "note": "320", "ref:refuges.info": "4917", "shelter_type": "basic_hut", "source": "Association \"Refuges et cabanes des Pyr\u00e9n\u00e9es\"", "stove": "no"}}, {"type": "Feature", "id": 968203182, "geometry": {"type": "Point", "coordinates": [0.857831, 42.861746]}, "properties": {"amenity": "shelter", "ele": "1750", "name": "Cabane des Puges - castillonais", "note": "558", "ref:refuges.info": "7033", "shelter_type": "basic_hut", "source": "Association \"Refuges et cabanes des Pyr\u00e9n\u00e9es\""}}, {"type": "Feature", "id": 968203496, "geometry": {"type": "Point", "coordinates": [0.916092, 42.822425]}, "properties": {"amenity": "shelter", "name": "Cabane de La Plagne - castillonais", "note": "705", "shelter_type": "basic_hut", "source": "Association \"Refuges et cabanes des Pyr\u00e9n\u00e9es\""}}, {"type": "Feature", "id": 968204052, "geometry": {"type": "Point", "coordinates": [0.960087, 42.852762]}, "properties": {"amenity": "shelter", "name": "Cabane Roque - castillonais", "note": "559", "shelter_type": "basic_hut", "source": "Association \"Refuges et cabanes des Pyr\u00e9n\u00e9es\""}}, {"type": "Feature", "id": 968204201, "geometry": {"type": "Point", "coordinates": [0.908611, 42.819214]}, "properties": {"amenity": "shelter", "name": "Refuge de Sans - Biros", "note": "944", "shelter_type": "basic_hut", "source": "Association \"Refuges et cabanes des Pyr\u00e9n\u00e9es\""}}, {"type": "Feature", "id": 968204230, "geometry": {"type": "Point", "coordinates": [0.529576, 42.736861]}, "properties": {"amenity": "shelter", "description": "Cabane ferm\u00e9e en \u00e9t\u00e9, occup\u00e9e par le berger.  Abri sommaire \u00e0 c\u00f4t\u00e9 pour 2 personnes. Source faible d\u00e9bit sous le sentier \u00e0 l'ouest de la cabane.", "ele": "2147", "name": "Cabane de Coume N\u00e8re", "note": "336", "shelter_type": "basic_hut", "source": "Association \"Refuges et cabanes des Pyr\u00e9n\u00e9es\";https://www.pyrenees-refuges.com/fr/affiche.php?numenr=336"}}, {"type": "Feature", "id": 968204642, "geometry": {"type": "Point", "coordinates": [0.639166, 42.63]}, "properties": {"amenity": "shelter", "name": "Abris des Lacs Coronas", "note": "763", "shelter_type": "basic_hut", "source": "Association \"Refuges et cabanes des Pyr\u00e9n\u00e9es\""}}, {"type": "Feature", "id": 968204680, "geometry": {"type": "Point", "coordinates": [0.630833, 42.619444]}, "properties": {"amenity": "shelter", "name": "Abri del Ibonet de Coronas", "note": "1101", "shelter_type": "basic_hut", "source": "Association \"Refuges et cabanes des Pyr\u00e9n\u00e9es\""}}, {"type": "Feature", "id": 968205241, "geometry": {"type": "Point", "coordinates": [0.759859, 42.547782]}, "properties": {"amenity": "shelter", "ele": "1716", "name": "Caseta forestal d'Artigalonga", "name:ca": "Caseta forestal d'Artigalonga", "note": "860", "shelter_type": "basic_hut", "source": "Association \"Refuges et cabanes des Pyr\u00e9n\u00e9es\""}}, {"type": "Feature", "id": 968205273, "geometry": {"type": "Point", "coordinates": [1.135334, 42.757103]}, "properties": {"amenity": "shelter", "name": "Cabane de Berbegue - Ustou", "note": "920", "shelter_type": "basic_hut", "source": "Association \"Refuges et cabanes des Pyr\u00e9n\u00e9es\""}}, {"type": "Feature", "id": 3941264376, "geometry": {"type": "Point", "coordinates": [0.577679, 42.657232]}, "properties": {"amenity": "shelter", "name": "Refugio de Pescadores", "shelter_type": "basic_hut"}}, {"type": "Feature", "id": 4624219668, "geometry": {"type": "Point", "coordinates": [0.809198, 42.604612]}, "properties": {"amenity": "shelter", "capacity": "18", "ele": "2221", "name": "Refugi Nou de Besiberri", "name:ca": "Refugi Nou de Besiberri", "name:es": "Refugio Besiberri", "operator": "FEEC", "phone": "+34 93 412 07 77", "shelter_type": "basic_hut", "tourism": "wilderness_hut", "website": "https://www.feec.cat/refugi/refugi-besiberri/"}}, {"type": "Feature", "id": 5039296310, "geometry": {"type": "Point", "coordinates": [1.404578, 42.767722]}, "properties": {"access": "permissive", "amenity": "shelter", "bin": "no", "name": "Orri", "shelter_type": "basic_hut"}}, {"type": "Feature", "id": 6058650787, "geometry": {"type": "Point", "coordinates": [0.572515, 42.875297]}, "properties": {"amenity": "shelter", "description": "Cabane", "note": "access ?", "shelter_type": "basic_hut"}}, {"type": "Feature", "id": 6869002910, "geometry": {"type": "Point", "coordinates": [0.502918, 42.673924]}, "properties": {"amenity": "shelter", "name": "Cabana de Molseret", "shelter_type": "basic_hut"}}, {"type": "Feature", "id": 6869065169, "geometry": {"type": "Point", "coordinates": [0.470738, 42.67521]}, "properties": {"amenity": "shelter", "name": "Caba\u00f1a de Posets", "shelter_type": "basic_hut"}}, {"type": "Feature", "id": 6869066228, "geometry": {"type": "Point", "coordinates": [0.454278, 42.680428]}, "properties": {"amenity": "shelter", "name": "Caba\u00f1a de la Pa\u00fal", "shelter_type": "basic_hut"}}, {"type": "Feature", "id": 7025613990, "geometry": {"type": "Point", "coordinates": [0.762178, 42.644621]}, "properties": {"amenity": "shelter", "bench": "no", "bin": "no", "shelter_type": "basic_hut"}}, {"type": "Feature", "id": 7025613991, "geometry": {"type": "Point", "coordinates": [0.762016, 42.645259]}, "properties": {"amenity": "shelter", "bench": "no", "bin": "no", "shelter_type": "basic_hut"}}, {"type": "Feature", "id": 7538627678, "geometry": {"type": "Point", "coordinates": [0.692712, 42.697394]}, "properties": {"amenity": "shelter", "name": "Cabana dera Montanha d'Aub\u00e8rt", "name:ca": "Cabana dera Montanha d'Aub\u00e8rt", "name:oc": "Cabana dera Montanha d'Aub\u00e8rt", "shelter_type": "basic_hut", "wikidata": "Q73238341"}}, {"type": "Feature", "id": 11809193319, "geometry": {"type": "Point", "coordinates": [0.719311, 42.628058]}, "properties": {"amenity": "shelter", "capacity": "18", "description:fr": "2018-06 : Equipement : - Couchettes, - Matelas, - Couvertures, - Table, - Etag\u00e8res, - Extincteur, - Eclairage photovolta\u00efque, - Radio de secours.", "ele": "2390", "email": "feec@feec.cat", "emergency": "phone", "fireplace": "no", "name": "Refugi de Moli\u00e8res", "name:ca": "Refugi de Moli\u00e8res", "name:es": "Refugio de Moli\u00e8res", "name:fr": "Refuge de Mulleres", "phone": "+34 934 120 777", "ref:refuges.info": "5393", "shelter_type": "basic_hut", "source": "FEEC", "stove": "no", "tourism": "wilderness_hut", "website": "https://www.feec.cat/refugi/refugi-molieres/", "wikidata": "Q27764008"}}, {"type": "Feature", "id": 188495783, "geometry": {"type": "LineString", "coordinates": [[0.780699, 42.664516], [0.780699, 42.664453], [0.780756, 42.664453], [0.780756, 42.664516], [0.780699, 42.664516]]}, "properties": {"access": "yes", "amenity": "shelter", "ele": "1597", "name": "Cabana deth Pontet", "name:ca": "Cabana deth Pontet", "name:oc": "Cabana deth Pontet", "shelter_type": "basic_hut", "tourism": "wilderness_hut", "wikidata": "Q73244913"}}, {"type": "Feature", "id": 198857022, "geometry": {"type": "LineString", "coordinates": [[0.99085, 42.617703], [0.990834, 42.617685], [0.990893, 42.617656], [0.990909, 42.617673], [0.99085, 42.617703]]}, "properties": {"amenity": "shelter", "building": "yes", "capacity": "16", "description:fr": "2016-01 : - Abri m\u00e9tallique, int\u00e9rieur bois - Isolation excellente (sas d'entr\u00e9e) - 1 Table - Banc, Tabourets - Couvertures peu nombreuses et anciennes ... donc tr\u00e8s us\u00e9es ... - Poste de secours", "ele": "2474", "emergency": "phone", "fee": "no", "fireplace": "no", "name": "Refugi Gerber Matar\u00f3", "name:ca": "Refugi Gerber Matar\u00f3", "operator": "Uni\u00f3 Excursionista de Catalunya", "ref:refuges.info": "4929", "reservation": "no", "shelter": "yes", "shelter_type": "basic_hut", "shower": "no", "stove": "no", "toilets": "no", "tourism": "wilderness_hut", "website": "http://www.uec.cat/refugis/"}}, {"type": "Feature", "id": 208344604, "geometry": {"type": "LineString", "coordinates": [[1.362199, 42.64671], [1.362181, 42.646687], [1.362246, 42.646659], [1.362252, 42.646665], [1.362259, 42.646662], [1.362266, 42.646671], [1.362256, 42.646675], [1.362262, 42.646683], [1.362199, 42.64671]]}, "properties": {"access": "yes", "alt_name": "Refugi de Baborte", "amenity": "shelter", "building": "yes", "capacity": "10", "description:fr": "2018-10 : - Abri m\u00e9tallique, int\u00e9rieur bois - Isolation excellente (sas d'entr\u00e9e) - Refuge dans un \u00e9tat remarquable, qu'il en soit ainsi pour longtemps ... - 1 Table - Bancs + tabourets - Poste de secours (+pharmacie)", "ele": "2340", "fireplace": "no", "mattress": "yes", "name": "Refugi Cinquantenari o de Baborte", "name:ca": "Refugi del Cinquantenari", "name:fr": "Refuge de Baborte", "operator": "Uni\u00f3 Excursionista de Catalunya", "ref:refuges.info": "5345", "reservation": "no", "shelter": "yes", "shelter_type": "basic_hut", "shower": "no", "stove": "no", "toilets": "no", "tourism": "wilderness_hut", "wikidata": "Q11945102", "wikipedia": "ca:Refugi del Cinquantenari"}}, {"type": "Feature", "id": 234446537, "geometry": {"type": "LineString", "coordinates": [[0.707233, 42.678244], [0.707317, 42.678272], [0.707356, 42.678207], [0.707273, 42.678179], [0.707233, 42.678244]]}, "properties": {"amenity": "shelter", "building": "yes", "ele": "1480", "name": "Cabana dera Artiga de Lin", "note": "Refugi lliure", "operator": "Consorci tur\u00edstic Val d'Aran", "ref:refuges.info": "8648", "shelter_type": "basic_hut"}}, {"type": "Feature", "id": 294487852, "geometry": {"type": "LineString", "coordinates": [[0.450702, 42.87071], [0.450765, 42.870672], [0.450701, 42.870616], [0.450638, 42.870654], [0.450702, 42.87071]]}, "properties": {"amenity": "shelter", "name": "Cabane du Docteur Pic", "note": "109", "shelter_type": "basic_hut", "source": "Association \"Refuges et cabanes des Pyr\u00e9n\u00e9es\""}}, {"type": "Feature", "id": 294487893, "geometry": {"type": "LineString", "coordinates": [[0.441769, 42.872411], [0.441826, 42.872403], [0.441811, 42.872347], [0.441754, 42.872355], [0.441769, 42.872411]]}, "properties": {"amenity": "shelter", "name": "Cabane d'Arrieu-Tort", "note": "28", "shelter_type": "basic_hut", "source": "Association \"Refuges et cabanes des Pyr\u00e9n\u00e9es\""}}, {"type": "Feature", "id": 365544321, "geometry": {"type": "LineString", "coordinates": [[1.362046, 42.634558], [1.362081, 42.634544], [1.362054, 42.634507], [1.362018, 42.634521], [1.362046, 42.634558]]}, "properties": {"amenity": "shelter", "building": "yes", "capacity": "5", "description": "2021-08 : Structure toujours solide mais int\u00e9rieur tr\u00e8s rudimentaire, sans \u00e9quipement. Quelques planches pour mettre 1-2 matelas sur le bas-flanc et 1-2 de plus sur la terre \u00e0 c\u00f4t\u00e9.", "description:fr": "2018-07 : Aucun \u00e9quipement. Juste un bas-flanc en bois recouvert d'une couverture. - 4/5 places sur le bas-flanc - Un peu de place devant le bas-flanc.", "ele": "1960", "fireplace": "no", "name": "Cabana de Basello", "name:ca": "Cabana de Basello", "name:fr": "Cabane de Bassello", "ref:refuges.info": "5350", "shelter": "yes", "shelter_type": "basic_hut", "stove": "no", "wikidata": "Q11910400", "wikipedia": "ca:Cabana de Basello"}}, {"type": "Feature", "id": 371493216, "geometry": {"type": "LineString", "coordinates": [[1.371262, 42.682398], [1.371188, 42.682399], [1.37119, 42.682434], [1.371263, 42.682432], [1.371262, 42.682398]]}, "properties": {"amenity": "shelter", "building": "yes", "capacity": "18", "description:fr": "2016-02 : - Isolation excellente - Refuge dans un \u00e9tat remarquable, qu'il en soit ainsi pour longtemps ... - Table - Bancs + tabourets - Poste de secours - Balai, pelle", "ele": "2221.8", "fee": "no", "fireplace": "no", "name": "Refugi de Broate", "name:ca": "Refugi de Broate", "name:fr": "Refuge de Broate", "operator": "Federaci\u00f3 d'Entitats Excursionistes de Catalunya", "ref:refuges.info": "4931", "reservation": "no", "shelter_type": "basic_hut", "shower": "no", "stove": "no", "toilets": "no", "tourism": "wilderness_hut", "website": "https://www.feec.cat/refugi/refugi-broate/", "wikidata": "Q18006173", "wikipedia": "ca:Refugi de Broate"}}, {"type": "Feature", "id": 373566382, "geometry": {"type": "LineString", "coordinates": [[0.430854, 42.608453], [0.430838, 42.608427], [0.430877, 42.608414], [0.430893, 42.60844], [0.430854, 42.608453]]}, "properties": {"amenity": "shelter", "bench": "no", "bin": "no", "building": "yes", "shelter_type": "basic_hut"}}, {"type": "Feature", "id": 390797268, "geometry": {"type": "LineString", "coordinates": [[0.455038, 42.637005], [0.455058, 42.63698], [0.455094, 42.636995], [0.455074, 42.63702], [0.455038, 42.637005]]}, "properties": {"amenity": "shelter", "building": "yes", "description": "Le falta una cuarta parte del tejado. Pero sirve de refugio.", "name": "Caba\u00f1a de Llardana", "shelter_type": "basic_hut", "source": "survey", "source:date": "2021-08"}}, {"type": "Feature", "id": 431267984, "geometry": {"type": "LineString", "coordinates": [[0.945981, 42.809848], [0.945953, 42.809812], [0.945991, 42.809796], [0.946019, 42.809832], [0.945981, 42.809848]]}, "properties": {"amenity": "shelter", "building": "yes", "name": "Cabane d'Artignan", "note": "875", "shelter_type": "basic_hut", "source": "Association \"Refuges et cabanes des Pyr\u00e9n\u00e9es\""}}, {"type": "Feature", "id": 433924735, "geometry": {"type": "LineString", "coordinates": [[0.524769, 42.660274], [0.524816, 42.660303], [0.524877, 42.66025], [0.524829, 42.660221], [0.524769, 42.660274]]}, "properties": {"amenity": "shelter", "building": "hut", "name": "Caba\u00f1a de la Coma", "shelter_type": "basic_hut"}}, {"type": "Feature", "id": 435901416, "geometry": {"type": "LineString", "coordinates": [[0.948336, 42.895196], [0.948313, 42.895168], [0.94836, 42.895147], [0.948383, 42.895175], [0.948336, 42.895196]]}, "properties": {"amenity": "shelter", "building": "cabin", "capacity": "4", "description": "2021-07 : \u00c9quipement int\u00e9rieur : - 1 table - 1 banc + 1 autre pouvant servir de bat-flanc - 1 \"mini\" po\u00eale mais sans conduit d'\u00e9vacuation des fum\u00e9es A l'\u00e9tage : - Plancher en bon \u00e9tat.", "ele": "1452", "fireplace": "no", "name": "Cabane des Mor\u00e8res", "note": "230", "ref:refuges.info": "7759", "shelter_type": "basic_hut", "source": "Association \"Refuges et cabanes des Pyr\u00e9n\u00e9es\"", "stove": "no"}}, {"type": "Feature", "id": 478224756, "geometry": {"type": "LineString", "coordinates": [[1.189053, 42.705933], [1.189051, 42.705904], [1.188978, 42.705907], [1.18898, 42.705936], [1.189053, 42.705933]]}, "properties": {"amenity": "shelter", "building": "yes", "capacity": "18", "description:fr": "2016-03 : Refuge toujours ouvert. Equipement : - Table - Bancs + tabourets - Pharmacie - Balai", "ele": "2287", "fireplace": "no", "name": "Refugi Mont-roig \u201cEnric Pujol\u201d", "name:ca": "Refugi Mont-roig \u201cEnric Pujol\u201d", "name:fr": "Refuge Mont-Roig \"Enric Pujol\"", "phone": "+3493 412 07 77", "ref:refuges.info": "5398", "shelter_type": "basic_hut", "stove": "no", "website": "https://www.feec.cat/refugi/refugi-mont-roig-enric-pujol/", "wikidata": "Q11945060", "wikipedia": "ca:Refugi Enric Pujol"}}, {"type": "Feature", "id": 617771014, "geometry": {"type": "LineString", "coordinates": [[1.394943, 42.818878], [1.394995, 42.818874], [1.394988, 42.818836], [1.394937, 42.818841], [1.394943, 42.818878]]}, "properties": {"amenity": "shelter", "building": "yes", "capacity": "8", "description": "2013-06 : Cette cabane restaur\u00e9e r\u00e9cemment, bien s\u00e8che mais ne comporte pas de moyen de chauffage. Un vaste \u00e9tage avec plancher et 1 tapis Une petite source am\u00e9nag\u00e9e 20m \u00e0 l'ouest", "ele": "1290", "fireplace": "no", "note": "1098", "ref:refuges.info": "3457", "shelter_type": "basic_hut", "source": "Association \"Refuges et cabanes des Pyr\u00e9n\u00e9es\"", "stove": "no"}}, {"type": "Feature", "id": 685462416, "geometry": {"type": "LineString", "coordinates": [[0.790027, 42.661273], [0.790121, 42.661299], [0.790143, 42.661256], [0.790049, 42.66123], [0.790027, 42.661273]]}, "properties": {"amenity": "shelter", "building": "hut", "check_date": "2023-09-24", "description": "refugi molt b\u00e0sic, neteja a millorar, porta tanca correctament", "drinking_water": "no", "ele": "1647", "name": "Sarrah\u00e8ra de Baish", "name:ca": "Sarrah\u00e8ra de Baish", "name:oc": "Sarrah\u00e8ra de Baish", "shelter_type": "basic_hut", "wikidata": "Q73244902"}}, {"type": "Feature", "id": 784027253, "geometry": {"type": "LineString", "coordinates": [[1.3843, 42.78309], [1.384336, 42.783102], [1.384356, 42.78307], [1.38432, 42.783058], [1.3843, 42.78309]]}, "properties": {"amenity": "shelter", "building": "yes", "capacity": "4", "description": "2019-01 : Vieille cabane en pierre \u00e0 toit de t\u00f4les, ouverte \u00e0 tous. Am\u00e9nag\u00e9e avec un bat-flanc en bois et une chemin\u00e9e.", "ele": "1400", "name": "Cabane de Coumebi\u00e8re", "note": "983", "ref:refuges.info": "6295", "shelter_type": "basic_hut", "source": "Association \"Refuges et cabanes des Pyr\u00e9n\u00e9es\""}}, {"type": "Feature", "id": 806163451, "geometry": {"type": "LineString", "coordinates": [[0.682214, 42.700235], [0.682199, 42.700211], [0.682232, 42.700199], [0.682247, 42.700223], [0.682214, 42.700235]]}, "properties": {"amenity": "shelter", "building": "yes", "name": "Cabana dera Monj\u00f2ia", "shelter_type": "basic_hut", "source": "Instituto Geogr\u00e1fico Nacional"}}, {"type": "Feature", "id": 825885867, "geometry": {"type": "LineString", "coordinates": [[1.242426, 42.736081], [1.242462, 42.736049], [1.242415, 42.736021], [1.242379, 42.736053], [1.242426, 42.736081]]}, "properties": {"amenity": "shelter", "building": "yes", "capacity": "3", "description": "2018-07 : Equipement int\u00e9rieur : - 1 bat-flanc en bois - Quelques morceaux de mousse pouvant servir de matelas par d\u00e9faut", "ele": "1880", "fireplace": "no", "name": "Cabane de Cruzous", "note": "856", "ref:refuges.info": "5630", "shelter_type": "basic_hut", "source": "Association \"Refuges et cabanes des Pyr\u00e9n\u00e9es\"", "stove": "no"}}, {"type": "Feature", "id": 844180438, "geometry": {"type": "LineString", "coordinates": [[1.356859, 42.745015], [1.356898, 42.744986], [1.356939, 42.745015], [1.3569, 42.745045], [1.356859, 42.745015]]}, "properties": {"amenity": "shelter", "building": "yes", "capacity": "6", "description": "2016-08 : Cabane ouverte. Utilis\u00e9e par les p\u00eacheurs. Equipement : - 2 grand bat-flancs en bois avec matelas. - 1 table - 2 bancs", "ele": "1695", "fireplace": "no", "name": "Cabane de la Hille de l'\u00c9tang Ars - Ustou", "note": "568", "ref:refuges.info": "5433", "shelter_type": "basic_hut", "source": "Association \"Refuges et cabanes des Pyr\u00e9n\u00e9es\"", "stove": "no"}}, {"type": "Feature", "id": 848814528, "geometry": {"type": "LineString", "coordinates": [[0.590211, 42.622367], [0.590162, 42.622357], [0.590142, 42.622412], [0.590191, 42.622422], [0.590211, 42.622367]]}, "properties": {"amenity": "shelter", "bench": "no", "bin": "no", "building": "yes", "capacity": "2", "description": "Peque\u00f1o refugio con literas de madera y con posibilidad de hacer fuego en una esquina del mismo.", "description:fr": "2017-07 : Cabane en ogive avec une pi\u00e8ce ferm\u00e9e (chambre) et une pi\u00e8ce abrit\u00e9e par le d\u00e9passement du toit (cuisine). La chambre contient un matelas, et deux bas flancs d'une place chacun. Il y a de l'eau, en aval", "ele": "1826", "name": "Cabana de Quill\u00f3n", "name:es": "Caba\u00f1a de Quill\u00f3n", "ref:refuges.info": "5875", "shelter_type": "basic_hut"}}, {"type": "Feature", "id": 849687931, "geometry": {"type": "LineString", "coordinates": [[0.43581, 42.75945], [0.435873, 42.759434], [0.435854, 42.759394], [0.435791, 42.759409], [0.43581, 42.75945]]}, "properties": {"amenity": "shelter", "building": "yes", "name": "Cabane de Loudenvielle", "shelter_type": "basic_hut"}}, {"type": "Feature", "id": 850345720, "geometry": {"type": "LineString", "coordinates": [[0.986081, 42.792904], [0.986146, 42.7929], [0.986143, 42.792881], [0.986079, 42.792886], [0.986081, 42.792904]]}, "properties": {"alt_name": "Cabane du Port d'Orle", "amenity": "shelter", "building": "yes", "capacity": "8", "description": "2020-06 : \u00c9quipement int\u00e9rieur des 2 parties jumelles : - 1 petite table - 4 lits en fer avec matelas (tr\u00e8s bon \u00e9tat) - 1 couverture (ne pas oublier son sac de couchage ...)", "ele": "2130", "email": "regine.pons@orange.fr", "fireplace": "no", "name": "Refuge Georges Pons", "note": "555", "ref:refuges.info": "7032", "shelter_type": "basic_hut", "source": "Association \"Refuges et cabanes des Pyr\u00e9n\u00e9es\"", "stove": "no"}}, {"type": "Feature", "id": 870016373, "geometry": {"type": "LineString", "coordinates": [[0.890556, 42.878547], [0.890629, 42.878542], [0.890623, 42.878495], [0.89055, 42.8785], [0.890551, 42.878509], [0.890532, 42.878512], [0.890536, 42.87854], [0.890556, 42.878539], [0.890556, 42.878547]]}, "properties": {"access": "private", "amenity": "shelter", "building": "yes", "description": "2020-09 : Cabane ferm\u00e9e, r\u00e9srv\u00e9e aux bergers", "ele": "1550", "name": "Cabane pastorale d'Urduas \"Le Louch\"", "ref:refuges.info": "7228", "shelter_type": "basic_hut", "source": "http://www.pyrenees-refuges.com"}}, {"type": "Feature", "id": 1240771443, "geometry": {"type": "LineString", "coordinates": [[0.641671, 42.609384], [0.641706, 42.609363], [0.641733, 42.609388], [0.641699, 42.609409], [0.641671, 42.609384]]}, "properties": {"amenity": "shelter", "building": "yes", "name": "Caba\u00f1a Llos\u00e1s", "shelter_type": "basic_hut"}}, {"type": "Feature", "id": 12151536, "geometry": {"type": "MultiPolygon", "coordinates": [[[[0.986869, 42.658018], [0.986868, 42.657985], [0.986835, 42.657986], [0.986837, 42.65802], [0.986869, 42.658018]]], [[[0.986757, 42.657987], [0.986814, 42.657971], [0.986794, 42.657931], [0.986737, 42.657947], [0.986757, 42.657987]]]]}, "properties": {"alt_name": "Cabanas del Pleitu d'Aranaldo;Cabana del Pletiu d'Amaldo", "amenity": "shelter", "bench": "yes", "building": "yes", "capacity": "6", "description": "Durante los pastos de verano, el refugio puede estar cerrado por el pastor. Reunirse con \u00e9l.", "description:en": "During summer pastures, the refuge can be locked by the shepherd. Meet him.", "description:fr": "En p\u00e9riode d'estives, le refuge peut \u00eatre ferm\u00e9 \u00e0 clef par le berger. Rencontrez-le.", "drinking_water": "no", "ele": "2080", "fee": "no", "fireplace": "yes", "mattress": "yes", "name": "Refugi de la Pleta del Duc", "reservation": "no", "shelter_type": "basic_hut", "shower": "no", "toilets": "no", "tourism": "wilderness_hut", "type": "multipolygon"}}]}