{"type": "FeatureCollection", "features": [{"type": "Feature", "id": 963811890, "geometry": {"type": "Point", "coordinates": [1.213058, 42.739822]}, "properties": {"capacity": "6", "description": "2016-09 : - 1 table - 2 bat-flancs en bois (ils sont larges, on peut tenir \u00e0 3) - Des matelas roul\u00e9s sont disponibles en plus des 2 en place - 1 balai", "ele": "1530", "fireplace": "yes", "name": "Cabane de Saub\u00e9", "note": "576", "ref:refuges.info": "5626", "source": "Association \"Refuges et cabanes des Pyr\u00e9n\u00e9es\"", "stove": "no", "tourism": "wilderness_hut"}}, {"type": "Feature", "id": 968203151, "geometry": {"type": "Point", "coordinates": [1.075598, 42.820656]}, "properties": {"capacity": "10", "description": "2020-06 : \u00c9quip\u00e9 d'un poste de secours.", "ele": "2113", "fireplace": "yes", "name": "Cabane des Espugues", "note": "547", "ref:refuges.info": "5693", "source": "Association \"Refuges et cabanes des Pyr\u00e9n\u00e9es\"", "stove": "no", "tourism": "wilderness_hut"}}, {"type": "Feature", "id": 968203323, "geometry": {"type": "Point", "coordinates": [0.481141, 42.873462]}, "properties": {"capacity": "8", "description": "2016-11 : Une partie est ouverte en permanence, sur deux niveaux. Au rez de chauss\u00e9e : chemin\u00e9e, table, 2 chaises, 1 banc, un balai. \u00c0 l'\u00e9tage : un grand plancher pouvant accueillir jusqu'\u00e0 8 personnes et quelques couvertures", "ele": "1840", "fireplace": "yes", "name": "Refuge du Mont N\u00e9", "note": "229", "ref:refuges.info": "4930", "source": "Association \"Refuges et cabanes des Pyr\u00e9n\u00e9es\"", "stove": "no", "tourism": "wilderness_hut"}}, {"type": "Feature", "id": 968203480, "geometry": {"type": "Point", "coordinates": [0.774502, 42.849567]}, "properties": {"ele": "1170", "fee": "no", "fireplace": "yes", "name": "Cabane du Courrau d Artigue", "operator": "Mairie de Fos", "source": "Association \"Refuges et cabanes des Pyr\u00e9n\u00e9es\";local knowledge", "tourism": "wilderness_hut"}}, {"type": "Feature", "id": 968203493, "geometry": {"type": "Point", "coordinates": [0.79188, 42.842144]}, "properties": {"fee": "no", "name": "Cabane du Courraou Gran", "note": "Occup\u00e9 par le berger l'\u00e9t\u00e9", "operator": "Mairie de Fos", "source": "Association \"Refuges et cabanes des Pyr\u00e9n\u00e9es\"", "tourism": "wilderness_hut"}}, {"type": "Feature", "id": 968203999, "geometry": {"type": "Point", "coordinates": [0.866297, 42.884792]}, "properties": {"capacity": "4", "description": "2019-01 : Cabane d'estive en partie ouverte aux randonneurs. Equip\u00e9e d'1 table de pique-nique et de ses bancs, 1 chemin\u00e9e et 1 mezzanine sur laquelle on monte gr\u00e2ce \u00e0 un tronc d'arbre", "ele": "1600", "fireplace": "yes", "name": "Cabane de l'Herbe-Soulette", "note": "550", "ref:refuges.info": "6222", "source": "Association \"Refuges et cabanes des Pyr\u00e9n\u00e9es\"", "stove": "no", "tourism": "wilderness_hut"}}, {"type": "Feature", "id": 968204288, "geometry": {"type": "Point", "coordinates": [0.682142, 42.865408]}, "properties": {"amenity": "shelter", "capacity": "6", "fireplace": "yes", "name": "Cabane Courraus", "ref:FR:pyrenees_refuges": "502", "source": "Association \"Refuges et cabanes des Pyr\u00e9n\u00e9es\"", "tourism": "wilderness_hut"}}, {"type": "Feature", "id": 968204430, "geometry": {"type": "Point", "coordinates": [1.107686, 42.82588]}, "properties": {"capacity": "10", "description": "2020-10 : Cabane pastorale r\u00e9nov\u00e9e, en 2 parties, dont 1 est ouverte aux randonneurs. \u00c9quipement int\u00e9rieur : - 1 grande chemin\u00e9e - 1 grande table - 6 bancs - 2*3 lits superpos\u00e9s - 1 mezzanine avec matelas - 1 matelas suppl\u00e9mentaire \u00e0 poser sur le sol", "ele": "1499", "fireplace": "yes", "name": "Cabane de Subera", "ref": "577", "ref:refuges.info": "6263", "source": "Association \"Refuges et cabanes des Pyr\u00e9n\u00e9es\"", "stove": "no", "tourism": "wilderness_hut"}}, {"type": "Feature", "id": 968204598, "geometry": {"type": "Point", "coordinates": [0.783253, 42.843849]}, "properties": {"fee": "no", "name": "Cabane de Salontere Neuve", "note": "767", "operator": "Mairie de Fos", "source": "Association \"Refuges et cabanes des Pyr\u00e9n\u00e9es\"", "tourism": "wilderness_hut"}}, {"type": "Feature", "id": 968204742, "geometry": {"type": "Point", "coordinates": [0.968464, 42.826825]}, "properties": {"beds": "4", "capacity": "4", "description": "2021-07 : Cabane pastorale ouverte, situ\u00e9e \u00e0 cot\u00e9 d'une autre cabane r\u00e9serv\u00e9e au berger; \u00c9quipement int\u00e9rieur : - 1 chemin\u00e9e - 2 tables + bancs - 1 chaise - \u00c9clairage - Prise \u00e9lectrique. A l'\u00e9tage : - 4 matelas plus plus ou moins usag\u00e9s", "ele": "1638", "fireplace": "yes", "name": "Cabane de l'Arech", "note": "533", "ref:refuges.info": "7757", "source": "Association \"Refuges et cabanes des Pyr\u00e9n\u00e9es\"", "stove": "no", "tourism": "wilderness_hut", "website": "https://www.pyrenees-refuges.com/fr/affiche.php?numenr=533"}}, {"type": "Feature", "id": 968204842, "geometry": {"type": "Point", "coordinates": [0.881251, 42.857457]}, "properties": {"capacity": "2", "description": "2020-06 : Refuge ouvert, \u00e0 droite du refuge Forestier ONF. \u00c9quipement int\u00e9rieur : - 2 tables - 1 banc - Chemin\u00e9e - 2 lits superpos\u00e9s avec matelas et couvertures. \u00c9quipement ext\u00e9rieur : - Table + bancs", "ele": "1410", "fireplace": "yes", "name": "Refuge Forestier ONF de la Fontaine de l'Isard", "note": "174", "ref:refuges.info": "6999", "source": "Association \"Refuges et cabanes des Pyr\u00e9n\u00e9es\"", "stove": "no", "tourism": "wilderness_hut"}}, {"type": "Feature", "id": 968205121, "geometry": {"type": "Point", "coordinates": [1.210122, 42.755822]}, "properties": {"name": "Cabane Douillous - Ustou", "note": "570", "source": "Association \"Refuges et cabanes des Pyr\u00e9n\u00e9es\"", "tourism": "wilderness_hut", "website": "https://www.pyrenees-refuges.com/fr/affiche.php?numenr=570"}}, {"type": "Feature", "id": 968205238, "geometry": {"type": "Point", "coordinates": [0.692342, 42.862901]}, "properties": {"amenity": "shelter", "fireplace": "yes", "name": "Cabane Artigue", "ref:FR:pyrenees_refuges": "426", "source": "Association \"Refuges et cabanes des Pyr\u00e9n\u00e9es\"", "tourism": "wilderness_hut"}}, {"type": "Feature", "id": 968205264, "geometry": {"type": "Point", "coordinates": [1.151017, 42.73508]}, "properties": {"name": "Cabane de Lauzeron - Ustou", "note": "869", "source": "Association \"Refuges et cabanes des Pyr\u00e9n\u00e9es\"", "tourism": "wilderness_hut", "website": "https://www.pyrenees-refuges.com/fr/affiche.php?numenr=869"}}, {"type": "Feature", "id": 3449490973, "geometry": {"type": "Point", "coordinates": [0.970978, 42.765693]}, "properties": {"ele": "1807", "name": "Cabana deth Horcalh", "name:ca": "Cabana deth Horcalh", "name:oc": "Cabana deth Horcalh", "tourism": "wilderness_hut"}}, {"type": "Feature", "id": 4039958314, "geometry": {"type": "Point", "coordinates": [0.887208, 42.550257]}, "properties": {"ele": "1628", "name": "Cabana del Magre", "name:ca": "Cabana del Magre", "tourism": "wilderness_hut"}}, {"type": "Feature", "id": 4291270660, "geometry": {"type": "Point", "coordinates": [0.614337, 42.554757]}, "properties": {"tourism": "wilderness_hut"}}, {"type": "Feature", "id": 4396694244, "geometry": {"type": "Point", "coordinates": [1.117944, 42.504822]}, "properties": {"ele": "1870", "name": "Rifugi dels Rasos", "tourism": "wilderness_hut"}}, {"type": "Feature", "id": 4624219668, "geometry": {"type": "Point", "coordinates": [0.809198, 42.604612]}, "properties": {"amenity": "shelter", "capacity": "18", "ele": "2221", "name": "Refugi Nou de Besiberri", "name:ca": "Refugi Nou de Besiberri", "name:es": "Refugio Besiberri", "operator": "FEEC", "phone": "+34 93 412 07 77", "shelter_type": "basic_hut", "tourism": "wilderness_hut", "website": "https://www.feec.cat/refugi/refugi-besiberri/"}}, {"type": "Feature", "id": 5109666824, "geometry": {"type": "Point", "coordinates": [1.166962, 42.718655]}, "properties": {"addr:city": "Couflens", "ele": "2023", "name": "Cabane de L\u00e9ziou", "shelter_type": "weather_shelter", "source": "Association \"Refuges et cabanes des Pyr\u00e9n\u00e9es\"", "tourism": "wilderness_hut", "website": "https://www.pyrenees-refuges.com/fr/affiche.php?numenr=572"}}, {"type": "Feature", "id": 5142901344, "geometry": {"type": "Point", "coordinates": [0.838307, 42.854034]}, "properties": {"amenity": "shelter", "capacity": "9", "description": "Juin 2021:\nCabane avec une table et un banc.\n9 lits superpos\u00e9s (3x3) mais uniquement 2 matelas.", "fireplace": "yes", "name": "Cabane d Uls", "source": "Association \"Refuges et cabanes des Pyr\u00e9n\u00e9es\"", "tourism": "wilderness_hut"}}, {"type": "Feature", "id": 5827510369, "geometry": {"type": "Point", "coordinates": [0.888275, 42.857209]}, "properties": {"capacity": "6", "description": "2020-09 : Refuge ouvert \u00e0 tous situ\u00e9 \u00e0 l'arri\u00e8re de la Chapelle de l'Isard. \u00c9quipement int\u00e9rieur : - Table - Bancs - \u00c9lectricit\u00e9 (minuterie de 10mn) - Grande chemin\u00e9e - 6 lits superpos\u00e9s (2x3) - 6 matelas mousse - 3 couvertures", "ele": "1325", "fireplace": "yes", "name": "Refuge de La Chapelle de l'Isard", "ref:refuges.info": "6997", "stove": "no", "tourism": "wilderness_hut", "website": "https://www.pyrenees-refuges.com/fr/affiche.php?numenr=173"}}, {"type": "Feature", "id": 6816120213, "geometry": {"type": "Point", "coordinates": [0.996761, 42.509606]}, "properties": {"ele": "2167", "fee": "no", "name": "Refugi lliure d'Estany Gento", "tourism": "wilderness_hut"}}, {"type": "Feature", "id": 7832874949, "geometry": {"type": "Point", "coordinates": [0.75935, 42.54336]}, "properties": {"name": "Refugi Forestal", "name:ca": "Refugi Forestal", "tourism": "wilderness_hut"}}, {"type": "Feature", "id": 7869248385, "geometry": {"type": "Point", "coordinates": [1.34273, 42.764594]}, "properties": {"amenity": "shelter", "capacity": "4", "description": "2023-08 : Cabane en pierre avec un toit metalique, ouverte toute l'ann\u00e9e. \u00c9quip\u00e9e d'une \u00e9tag\u00e8re, une table, un po\u00eale et de b\u00e2t-flancs en bois. - 4 couchages en b\u00e2t-flanc.", "name": "Cabane de Guzettou", "tourism": "wilderness_hut"}}, {"type": "Feature", "id": 7918937226, "geometry": {"type": "Point", "coordinates": [0.498026, 42.895518]}, "properties": {"capacity": "15", "description": "2014-04 : Il y a des toilettes s\u00e8ches dehors, un grand hauvant et une grande cabane avec une mezannine pouvant abriter un 15aine de personnes.", "ele": "1263", "fireplace": "yes", "name": "Cabane de Saoubette", "ref:refuges.info": "4349", "source": "Association \"Refuges et cabanes des Pyr\u00e9n\u00e9es\"", "stove": "yes", "tourism": "wilderness_hut"}}, {"type": "Feature", "id": 7931066686, "geometry": {"type": "Point", "coordinates": [0.946495, 42.710179]}, "properties": {"capacity": "2", "description:fr": "2018-07 : Ouverte toute l'ann\u00e9e. Sol en b\u00e9ton, deux places sur sommier qui grince fort, dont un matelas en mousse, une table, des bancs, une chemin\u00e9e", "ele": "1870", "fireplace": "yes", "name": "Refugi deth Ueth deth Garona", "name:fr": "Refuge de la Source de la Garonne", "ref:refuges.info": "6311", "stove": "no", "tourism": "wilderness_hut"}}, {"type": "Feature", "id": 8599938988, "geometry": {"type": "Point", "coordinates": [1.358816, 42.928054]}, "properties": {"tourism": "wilderness_hut"}}, {"type": "Feature", "id": 8849230551, "geometry": {"type": "Point", "coordinates": [0.784064, 42.842759]}, "properties": {"fee": "no", "name": "Cabane de Salontere Vielle", "operator": "Mairie de Fos", "tourism": "wilderness_hut"}}, {"type": "Feature", "id": 8921964585, "geometry": {"type": "Point", "coordinates": [1.258017, 42.699179]}, "properties": {"beds": "6", "fireplace": "1", "name": "Cabana de Guerossos", "note": "Malgrat la imatgeria a\u00e8ria mostri unes ru\u00efnes, la cabana ha estat reconstru\u00efda, molt recentment, nova de trinca", "ref:refuges.info": "8542", "tourism": "wilderness_hut"}}, {"type": "Feature", "id": 9137490030, "geometry": {"type": "Point", "coordinates": [1.246948, 42.432274]}, "properties": {"alt_name": "Refugi de la Pega", "alt_name:ca": "Refugi de la Pega", "capacity": "8", "drinking_water": "yes", "ele": "1695", "fee": "no", "name": "Refugi forestal del Prat Gran", "name:ca": "Refugi forestal del Prat Gran", "reservation": "no", "shower": "no", "toilets": "no", "tourism": "wilderness_hut"}}, {"type": "Feature", "id": 9137537260, "geometry": {"type": "Point", "coordinates": [1.126743, 42.228905]}, "properties": {"access": "yes", "ele": "1885", "name": "Refugi de Boumort", "tourism": "wilderness_hut"}}, {"type": "Feature", "id": 9141385486, "geometry": {"type": "Point", "coordinates": [1.079354, 42.285329]}, "properties": {"ele": "1527.8", "fireplace": "yes", "name": "Refugi d'Espl\u00e0", "name:ca": "Refugi d'Espl\u00e0", "tourism": "wilderness_hut", "wikidata": "Q18006170", "wikipedia": "ca:Refugi d'Espl\u00e0"}}, {"type": "Feature", "id": 11809193319, "geometry": {"type": "Point", "coordinates": [0.719311, 42.628058]}, "properties": {"amenity": "shelter", "capacity": "18", "description:fr": "2018-06 : Equipement : - Couchettes, - Matelas, - Couvertures, - Table, - Etag\u00e8res, - Extincteur, - Eclairage photovolta\u00efque, - Radio de secours.", "ele": "2390", "email": "feec@feec.cat", "emergency": "phone", "fireplace": "no", "name": "Refugi de Moli\u00e8res", "name:ca": "Refugi de Moli\u00e8res", "name:es": "Refugio de Moli\u00e8res", "name:fr": "Refuge de Mulleres", "phone": "+34 934 120 777", "ref:refuges.info": "5393", "shelter_type": "basic_hut", "source": "FEEC", "stove": "no", "tourism": "wilderness_hut", "website": "https://www.feec.cat/refugi/refugi-molieres/", "wikidata": "Q27764008"}}, {"type": "Feature", "id": 63819358, "geometry": {"type": "LineString", "coordinates": [[0.662502, 42.716173], [0.662404, 42.716212], [0.662358, 42.71615], [0.662457, 42.716111], [0.662502, 42.716173]]}, "properties": {"building": "yes", "capacity": "12", "description": "2019-04 : la porte de droite est celle ouverte aux randonneurs. Une seule pi\u00e8ce, avec 4 bas flancs, une table, et un grand coin cuisine.", "ele": "1500", "fireplace": "yes", "name": "Cabane du Pesson", "note": "516", "ref:refuges.info": "6604", "source": "Association \"Refuges et cabanes des Pyr\u00e9n\u00e9es\"", "stove": "no", "tourism": "wilderness_hut"}}, {"type": "Feature", "id": 115025749, "geometry": {"type": "LineString", "coordinates": [[0.444016, 42.761906], [0.444059, 42.761918], [0.444081, 42.761878], [0.444037, 42.761866], [0.444016, 42.761906]]}, "properties": {"building": "yes", "capacity": "6", "description": "Cabane avec une table et deux bancs. Un \u00e9tage accessible avec une \u00e9chelle, sur le plancher de l'\u00e9tage se trouve une b\u00e2che qui couvre une partie du sol. Pas de matelas. Un cours d'eau passe \u00e0 quelques m\u00e8tres de la cabane.", "ele": "1619", "fireplace": "yes", "name": "Cabane d'Ourtiga", "note": "531", "ref:refuges.info": "3871", "source": "Association \"Refuges et cabanes des Pyr\u00e9n\u00e9es\"", "stove": "no", "tourism": "wilderness_hut"}}, {"type": "Feature", "id": 122283801, "geometry": {"type": "LineString", "coordinates": [[0.633542, 42.82562], [0.633563, 42.825659], [0.633605, 42.825647], [0.633583, 42.825608], [0.633542, 42.82562]]}, "properties": {"building": "yes", "capacity": "10", "description": "Jolie cabane. En balcon au dessus de Luchon. Panorama sur la cha\u00eene du Luchonnais. Situ\u00e9e sur le GR10. Eau \u00e0 8 min vers l'Est. La chemin\u00e9e fonctionne bien. A l'\u00e9tage on peut dormir mais \u00e0 m\u00eame le sol ! En bas, un bas flanc pour 2 personnes avec 2 matelas", "ele": "1660", "fireplace": "yes", "name": "Cabane de Saun\u00e8res", "ref:FR:pyrenees_refuges": "692", "ref:refuges.info": "4331", "source": "Association \"Refuges et cabanes des Pyr\u00e9n\u00e9es\"", "stove": "no", "tourism": "wilderness_hut", "website": "https://www.pyrenees-refuges.com/fr/affiche.php?numenr=692"}}, {"type": "Feature", "id": 188495783, "geometry": {"type": "LineString", "coordinates": [[0.780699, 42.664516], [0.780699, 42.664453], [0.780756, 42.664453], [0.780756, 42.664516], [0.780699, 42.664516]]}, "properties": {"access": "yes", "amenity": "shelter", "ele": "1597", "name": "Cabana deth Pontet", "name:ca": "Cabana deth Pontet", "name:oc": "Cabana deth Pontet", "shelter_type": "basic_hut", "tourism": "wilderness_hut", "wikidata": "Q73244913"}}, {"type": "Feature", "id": 188497120, "geometry": {"type": "LineString", "coordinates": [[0.759639, 42.716735], [0.759701, 42.716744], [0.759711, 42.716705], [0.759648, 42.716697], [0.759639, 42.716735]]}, "properties": {"access": "yes", "building": "yes", "tourism": "wilderness_hut"}}, {"type": "Feature", "id": 189381032, "geometry": {"type": "LineString", "coordinates": [[0.910015, 42.76821], [0.910017, 42.768162], [0.910124, 42.768165], [0.910122, 42.768212], [0.910015, 42.76821]]}, "properties": {"amenity": "shelter", "building": "yes", "ele": "1905", "name": "Cabana des Calhaus", "name:ca": "Cabana des Calhaus", "name:oc": "Cabana des Calhaus", "note": "671", "source": "Association \"Refuges et cabanes des Pyr\u00e9n\u00e9es\"", "tourism": "wilderness_hut", "wikidata": "Q73241678"}}, {"type": "Feature", "id": 192747802, "geometry": {"type": "LineString", "coordinates": [[0.535227, 42.644696], [0.535298, 42.644622], [0.535345, 42.644647], [0.535274, 42.644721], [0.535227, 42.644696]]}, "properties": {"building": "yes", "capacity": "16", "description": "Refugio construido en piedra, no guardado. Habitaci\u00f3n, cocina y falsa de madera para dormir.", "description:fr": "2017-07 : Petite cabane, constit\u00e9e d'une pi\u00e8ce ferm\u00e9e (chemin\u00e9e, table, banc), d'une pi\u00e8ce ouverte et d'une \u00e9chelle pour un plancher sous les toits. Du bois aux alentours, de l'eau au ruisseau ou \u00e0 la Fuente de Coronas \u00e0 10min.", "ele": "1540", "fireplace": "yes", "name": "Caba\u00f1a de Santa Ana", "name:fr": "Cabane de Santa Ana", "ref:refuges.info": "5874", "stove": "no", "tourism": "wilderness_hut"}}, {"type": "Feature", "id": 198857022, "geometry": {"type": "LineString", "coordinates": [[0.99085, 42.617703], [0.990834, 42.617685], [0.990893, 42.617656], [0.990909, 42.617673], [0.99085, 42.617703]]}, "properties": {"amenity": "shelter", "building": "yes", "capacity": "16", "description:fr": "2016-01 : - Abri m\u00e9tallique, int\u00e9rieur bois - Isolation excellente (sas d'entr\u00e9e) - 1 Table - Banc, Tabourets - Couvertures peu nombreuses et anciennes ... donc tr\u00e8s us\u00e9es ... - Poste de secours", "ele": "2474", "emergency": "phone", "fee": "no", "fireplace": "no", "name": "Refugi Gerber Matar\u00f3", "name:ca": "Refugi Gerber Matar\u00f3", "operator": "Uni\u00f3 Excursionista de Catalunya", "ref:refuges.info": "4929", "reservation": "no", "shelter": "yes", "shelter_type": "basic_hut", "shower": "no", "stove": "no", "toilets": "no", "tourism": "wilderness_hut", "website": "http://www.uec.cat/refugis/"}}, {"type": "Feature", "id": 208344604, "geometry": {"type": "LineString", "coordinates": [[1.362199, 42.64671], [1.362181, 42.646687], [1.362246, 42.646659], [1.362252, 42.646665], [1.362259, 42.646662], [1.362266, 42.646671], [1.362256, 42.646675], [1.362262, 42.646683], [1.362199, 42.64671]]}, "properties": {"access": "yes", "alt_name": "Refugi de Baborte", "amenity": "shelter", "building": "yes", "capacity": "10", "description:fr": "2018-10 : - Abri m\u00e9tallique, int\u00e9rieur bois - Isolation excellente (sas d'entr\u00e9e) - Refuge dans un \u00e9tat remarquable, qu'il en soit ainsi pour longtemps ... - 1 Table - Bancs + tabourets - Poste de secours (+pharmacie)", "ele": "2340", "fireplace": "no", "mattress": "yes", "name": "Refugi Cinquantenari o de Baborte", "name:ca": "Refugi del Cinquantenari", "name:fr": "Refuge de Baborte", "operator": "Uni\u00f3 Excursionista de Catalunya", "ref:refuges.info": "5345", "reservation": "no", "shelter": "yes", "shelter_type": "basic_hut", "shower": "no", "stove": "no", "toilets": "no", "tourism": "wilderness_hut", "wikidata": "Q11945102", "wikipedia": "ca:Refugi del Cinquantenari"}}, {"type": "Feature", "id": 219156594, "geometry": {"type": "LineString", "coordinates": [[0.569581, 42.829374], [0.569551, 42.829406], [0.569489, 42.829374], [0.569519, 42.829343], [0.569581, 42.829374]]}, "properties": {"building": "yes", "capacity": "4", "ele": "1687", "fireplace": "yes", "name": "Cabane de Courrau d'Antenac", "ref:FR:pyrenees_refuges": "482", "ref:refuges.info": "4603", "stove": "no", "tourism": "wilderness_hut"}}, {"type": "Feature", "id": 223961544, "geometry": {"type": "LineString", "coordinates": [[0.655335, 42.830561], [0.655424, 42.830528], [0.655367, 42.830447], [0.655278, 42.83048], [0.655335, 42.830561]]}, "properties": {"amenity": "shelter", "building": "yes", "capacity": "4", "description": "Cabane ouverte et en bon \u00e9tat, propret\u00e9 correcte, et pas d'eau: abreuvoir vide... A cote il y a une autre cabane qui elle est ferm\u00e9e \u00e0 clef (au berger ou aux chasseurs surement!) 2 lits superpos\u00e9s (structure m\u00e9tallique) avec 1 matelas correct, et 2 bouts", "ele": "1947", "fireplace": "yes", "name": "Cabane de Peyrehitte", "ref:FR:pyrenees_refuges": "517", "ref:refuges.info": "3872", "source": "Association \"Refuges et cabanes des Pyr\u00e9n\u00e9es\"", "stove": "no", "tourism": "wilderness_hut", "website": "https://www.pyrenees-refuges.com/fr/affiche.php?numenr=517"}}, {"type": "Feature", "id": 232855764, "geometry": {"type": "LineString", "coordinates": [[0.75101, 42.922471], [0.751009, 42.922428], [0.751115, 42.922428], [0.751116, 42.92247], [0.75101, 42.922471]]}, "properties": {"access": "yes", "building": "yes", "capacity": "20", "description": "2017-04 : Grande cabane, accessible en voiture ce qui explique son \u00e9tat. Nombreux matelas, acc\u00e8s \u00e0 l'eau \u00e0 l'ext\u00e9rieur. Coin bouffe, bas flanc, et deux mezzanines.", "drinking_water": "yes", "ele": "1600", "fireplace": "yes", "mattress": "yes", "name": "Refuge de l'Escalette", "note": "514", "ref:refuges.info": "5793", "reservation": "no", "stove": "no", "tourism": "wilderness_hut"}}, {"type": "Feature", "id": 232855780, "geometry": {"type": "LineString", "coordinates": [[0.761507, 42.919621], [0.761458, 42.919666], [0.761292, 42.919568], [0.761341, 42.919523], [0.761507, 42.919621]]}, "properties": {"building": "yes", "name": "Refuge Col de Mente - luchonais", "note": "513", "source": "Association \"Refuges et cabanes des Pyr\u00e9n\u00e9es\"", "tourism": "wilderness_hut"}}, {"type": "Feature", "id": 232855980, "geometry": {"type": "LineString", "coordinates": [[0.833164, 42.906416], [0.833155, 42.906469], [0.833088, 42.906462], [0.833098, 42.906409], [0.833164, 42.906416]]}, "properties": {"amenity": "shelter", "building": "yes", "capacity": "12", "description": "2016-08 : Tr\u00e8s belle cabane de cr\u00eate qui peut-\u00eatre r\u00e9serv\u00e9e par des chasseurs \u00e0 l'occasion. La fontaine est \u00e0 20m de la porte. Entour\u00e9e de for\u00eat. Nombreux ustensiles de cuisine. Pas vu de scie. Quelques matelas, il y a un bas flanc en bas", "ele": "1456", "fireplace": "yes", "name": "Cabane foresti\u00e8re du Pi\u00e9jau", "note": "255", "ref:refuges.info": "5604", "stove": "no", "tourism": "wilderness_hut"}}, {"type": "Feature", "id": 235805264, "geometry": {"type": "LineString", "coordinates": [[0.90598, 42.850312], [0.906033, 42.850341], [0.90608, 42.850294], [0.906027, 42.850266], [0.90598, 42.850312]]}, "properties": {"amenity": "shelter", "building": "yes", "name": "Cabane Cos - castillonnais", "note": "542", "ref:refuges.info": "8764", "source": "Association \"Refuges et cabanes des Pyr\u00e9n\u00e9es\"", "tourism": "wilderness_hut"}}, {"type": "Feature", "id": 238368711, "geometry": {"type": "LineString", "coordinates": [[0.644207, 42.880477], [0.644293, 42.880516], [0.644259, 42.880556], [0.644173, 42.880517], [0.644207, 42.880477]]}, "properties": {"building": "yes", "capacity": "3", "description": "2018-01 : En bon \u00e9tat.Une partie \u00e9tait ouverte au printemps 2016. 2/3 places sur bas-flanc repliable. Une table et des chaises. Une autre partie ferm\u00e9e \u00e0 cl\u00e9.", "ele": "1237", "fireplace": "yes", "name": "Granges de Soubac", "ref:refuges.info": "6050", "stove": "no", "tourism": "wilderness_hut"}}, {"type": "Feature", "id": 241430639, "geometry": {"type": "LineString", "coordinates": [[0.838334, 42.854057], [0.838269, 42.854058], [0.838268, 42.854013], [0.838333, 42.854012], [0.838333, 42.854022], [0.838367, 42.854022], [0.838368, 42.854047], [0.838334, 42.854047], [0.838334, 42.854057]]}, "properties": {"building": "yes", "fireplace": "yes", "name": "Cabane d'Uls", "ref:refuges.info": "6490", "tourism": "wilderness_hut", "website": "https://www.pyrenees-refuges.com/fr/affiche.php?numenr=318"}}, {"type": "Feature", "id": 278716585, "geometry": {"type": "LineString", "coordinates": [[0.933631, 42.650885], [0.933666, 42.650844], [0.933713, 42.650866], [0.933678, 42.650906], [0.933631, 42.650885]]}, "properties": {"building": "hut", "capacity": "2", "description:fr": "2017-07 : Cabane ouverte, solide. Une chemin\u00e9e. Un torrent. Du bois aux alentours.", "ele": "1808", "fireplace": "yes", "name": "Cabana deth Verted\u00e8ro", "name:ca": "Cabana deth Verted\u00e8ro", "name:oc": "Cabana deth Verted\u00e8ro", "ref:refuges.info": "5883", "stove": "no", "tourism": "wilderness_hut", "wikidata": "Q107405477"}}, {"type": "Feature", "id": 294487981, "geometry": {"type": "LineString", "coordinates": [[0.462487, 42.871146], [0.462507, 42.871105], [0.46244, 42.871088], [0.46242, 42.871129], [0.462487, 42.871146]]}, "properties": {"capacity": "2", "description": "2017-01 : Deux matelas 90cm superpos\u00e9s, une table, un banc, une chemin\u00e9e, une scie, un balais. Tr\u00e8s propre.", "ele": "1538", "fireplace": "yes", "name": "Cabane d'Artigue Longue", "note": "485", "ref:refuges.info": "5757", "source": "Association \"Refuges et cabanes des Pyr\u00e9n\u00e9es\"", "stove": "no", "tourism": "wilderness_hut"}}, {"type": "Feature", "id": 315953051, "geometry": {"type": "LineString", "coordinates": [[0.469448, 42.797401], [0.469433, 42.797351], [0.469388, 42.797357], [0.469402, 42.797408], [0.469448, 42.797401]]}, "properties": {"building": "yes", "capacity": "4", "description": "2013-06 : Abri de berger avec chemin\u00e9e.", "ele": "1590", "fireplace": "yes", "name": "Cabane de Tarichac", "ref:refuges.info": "3550", "stove": "no", "tourism": "wilderness_hut"}}, {"type": "Feature", "id": 316449562, "geometry": {"type": "LineString", "coordinates": [[0.437362, 42.703486], [0.437411, 42.703504], [0.437437, 42.703465], [0.437387, 42.703447], [0.437362, 42.703486]]}, "properties": {"capacity": "10", "description": "2020-01 : Am\u00e9nagement : RDC : 2 grandes tables Po\u00eale \u00e0 bois Etage : 10 couchages (lits superpos\u00e9s)", "ele": "2020", "fireplace": "no", "name": "Refuge de Prat-Cazeneuve ou d'Aygues Tortes", "ref:refuges.info": "6863", "stove": "yes", "tourism": "wilderness_hut"}}, {"type": "Feature", "id": 323059852, "geometry": {"type": "LineString", "coordinates": [[1.171274, 42.681168], [1.171158, 42.681172], [1.171151, 42.681087], [1.171193, 42.681085], [1.171195, 42.681111], [1.171269, 42.681108], [1.171274, 42.681168]]}, "properties": {"building": "residential", "capacity": "10", "description:fr": "Refuge toujours ouvert. - 1 grande table, 4 bancs - 1 chemin\u00e9e (pas de bois \u00e0 proximit\u00e9) - Aucun autre \u00e9quipement - 1 conteneur \u00e0 poubelle derri\u00e8re le refuge (qui \u00e0 tendance \u00e0 d\u00e9border).", "ele": "2231", "fireplace": "yes", "name": "Refugi de l'Estany de la Gola", "name:ca": "Refugi de l'Estany de la Gola", "name:fr": "fence", "note": "Refugio libre.Capacidad para 10 personas.", "ref:refuges.info": "4918", "stove": "no", "tourism": "wilderness_hut", "wikidata": "Q11945098", "wikipedia": "ca:Refugi de l'Estany de la Gola"}}, {"type": "Feature", "id": 337845155, "geometry": {"type": "LineString", "coordinates": [[0.936331, 42.570527], [0.936286, 42.57045], [0.936215, 42.570472], [0.936261, 42.570549], [0.936331, 42.570527]]}, "properties": {"building": "yes", "name": "Refugi de la Centraleta", "name:ca": "Refugi de la Centraleta", "tourism": "wilderness_hut", "wikidata": "Q11945095", "wikipedia": "ca:Refugi de la Centraleta"}}, {"type": "Feature", "id": 348708149, "geometry": {"type": "LineString", "coordinates": [[1.213026, 42.739841], [1.213008, 42.739776], [1.213082, 42.739765], [1.2131, 42.739831], [1.213026, 42.739841]]}, "properties": {"building": "yes", "name": "Cabane de Saub\u00e9", "tourism": "wilderness_hut", "website": "https://www.pyrenees-refuges.com/fr/affiche.php?numenr=576"}}, {"type": "Feature", "id": 352407718, "geometry": {"type": "LineString", "coordinates": [[1.111926, 42.845799], [1.111893, 42.845764], [1.111942, 42.845739], [1.111975, 42.845774], [1.111926, 42.845799]]}, "properties": {"access": "restricted", "building": "yes", "fireplace": "yes", "name": "Cabane de Luzurs", "tourism": "wilderness_hut", "website": "https://www.pyrenees-refuges.com/fr/affiche.php?numenr=339"}}, {"type": "Feature", "id": 358899692, "geometry": {"type": "LineString", "coordinates": [[0.939533, 42.895877], [0.939563, 42.895832], [0.939625, 42.895854], [0.939605, 42.895884], [0.939588, 42.895878], [0.939578, 42.895893], [0.939533, 42.895877]]}, "properties": {"beds": "1", "building": "cabin", "capacity": "4", "description": "2021-07 : Cabane pastorale ouverte. \u00c9quipement int\u00e9rieur : - 1 table - 2 bancs - 1 lit en bois avec un vieux matelas - 1 chemin\u00e9e - 1 mezzanine (basse de plafond avec un plancher en bon \u00e9tat).", "ele": "1520", "fireplace": "yes", "name": "Cabane de Couledoux", "note": "943", "ref:refuges.info": "7762", "source": "Association \"Refuges et cabanes des Pyr\u00e9n\u00e9es\"", "stove": "no", "tourism": "wilderness_hut"}}, {"type": "Feature", "id": 362846015, "geometry": {"type": "LineString", "coordinates": [[1.015428, 42.826597], [1.01545, 42.826542], [1.0155, 42.82655], [1.015479, 42.826608], [1.015428, 42.826597]]}, "properties": {"building": "yes", "capacity": "12", "description": "2020-06 : grande pi\u00e8ce : - 1 grand bat-flanc en bois, - 1 chemin\u00e9e, - A l'\u00e9tage, un plancher nu en tr\u00e8s bon \u00e9tat. Petite pi\u00e8ce : - 1 petit bat-flanc en bois, - 2 chaises, - A l'\u00e9tage, un plancher nu en tr\u00e8s bon \u00e9tat.", "ele": "1540", "fireplace": "yes", "name": "Cabane du Trapech du Milieu", "note": "313", "ref:refuges.info": "4588", "source": "Association \"Refuges et cabanes des Pyr\u00e9n\u00e9es\"", "stove": "no", "tourism": "wilderness_hut", "website": "https://www.pyrenees-refuges.com/fr/affiche.php?numenr=313"}}, {"type": "Feature", "id": 362846372, "geometry": {"type": "LineString", "coordinates": [[1.016007, 42.829574], [1.016014, 42.829544], [1.016064, 42.829551], [1.016057, 42.82958], [1.016007, 42.829574]]}, "properties": {"building": "yes", "capacity": "3", "description": "2020-06 : - 1 bat-flanc en bois - 1 chemin\u00e9e", "ele": "1411", "fireplace": "yes", "name": "Cabane de l Artigue", "note": "757", "ref:refuges.info": "4589", "source": "Association \"Refuges et cabanes des Pyr\u00e9n\u00e9es\"", "stove": "no", "tourism": "wilderness_hut", "website": "https://www.pyrenees-refuges.com/fr/affiche.php?numenr=757"}}, {"type": "Feature", "id": 371493216, "geometry": {"type": "LineString", "coordinates": [[1.371262, 42.682398], [1.371188, 42.682399], [1.37119, 42.682434], [1.371263, 42.682432], [1.371262, 42.682398]]}, "properties": {"amenity": "shelter", "building": "yes", "capacity": "18", "description:fr": "2016-02 : - Isolation excellente - Refuge dans un \u00e9tat remarquable, qu'il en soit ainsi pour longtemps ... - Table - Bancs + tabourets - Poste de secours - Balai, pelle", "ele": "2221.8", "fee": "no", "fireplace": "no", "name": "Refugi de Broate", "name:ca": "Refugi de Broate", "name:fr": "Refuge de Broate", "operator": "Federaci\u00f3 d'Entitats Excursionistes de Catalunya", "ref:refuges.info": "4931", "reservation": "no", "shelter_type": "basic_hut", "shower": "no", "stove": "no", "toilets": "no", "tourism": "wilderness_hut", "website": "https://www.feec.cat/refugi/refugi-broate/", "wikidata": "Q18006173", "wikipedia": "ca:Refugi de Broate"}}, {"type": "Feature", "id": 372256802, "geometry": {"type": "LineString", "coordinates": [[0.879412, 42.833864], [0.879378, 42.833823], [0.879453, 42.833789], [0.879487, 42.833829], [0.879412, 42.833864]]}, "properties": {"building": "yes", "building:levels": "1", "capacity": "12", "description": "2020-09 : - 1 table (avec une belle toile cir\u00e9e !) - Plusieurs bancs - 1 grande chemin\u00e9e - A l'\u00e9tage : plancher en tr\u00e8s bon \u00e9tat (avec 2 matelas) pouvant accueillir de nombreux autres matelas.", "ele": "1915", "fireplace": "yes", "name": "Cabane de l'\u00c9tang d'Araing - Castillonais", "note": "678", "ref:refuges.info": "7013", "source": "Association \"Refuges et cabanes des Pyr\u00e9n\u00e9es\"", "stove": "no", "tourism": "wilderness_hut", "website": "https://www.pyrenees-refuges.com/fr/affiche.php?numenr=678"}}, {"type": "Feature", "id": 373566265, "geometry": {"type": "LineString", "coordinates": [[0.430643, 42.608473], [0.430611, 42.608421], [0.430677, 42.608398], [0.43071, 42.608449], [0.430643, 42.608473]]}, "properties": {"building": "yes", "capacity": "4", "ele": "2250", "fireplace": "yes", "name": "Cabana des Pardines", "name:ca": "Cabana des Pardines", "name:es": "Caba\u00f1a de los Pardines", "tourism": "wilderness_hut"}}, {"type": "Feature", "id": 374407667, "geometry": {"type": "LineString", "coordinates": [[0.621046, 42.610318], [0.621098, 42.610255], [0.621162, 42.610283], [0.62111, 42.610347], [0.621046, 42.610318]]}, "properties": {"building": "yes", "capacity": "12", "description": "Refugio libre no guardado - Litera de madera para unas 12 personas - Fog\u00f3n y le\u00f1a, o en los alrededores - Mesa con tres bancos de madera - Dos ventanas - Radio de emergencia", "description:fr": "2017-07 : Refuge non gard\u00e9 espagnol, avec : * Poste SOS * Bas flanc pour 12 (pas de matelas) * Belle table & bancs * Chemin\u00e9e * Du bois aux alentours * Nombreux torrents (celui devant la porte est ferrugineux, et donc tr\u00e8s salissant...)", "ele": "1965", "fireplace": "yes", "name": "Refugio de Coronas", "name:es": "Refugio de Coronas", "ref:refuges.info": "5876", "stove": "no", "tourism": "wilderness_hut", "wikidata": "Q55646958", "wpt_symbol": "Lodge"}}, {"type": "Feature", "id": 390281738, "geometry": {"type": "LineString", "coordinates": [[0.697692, 42.61254], [0.697736, 42.612461], [0.697813, 42.612484], [0.697769, 42.612564], [0.697692, 42.61254]]}, "properties": {"building": "yes", "name": "Refugio Cap de la Vall", "tourism": "wilderness_hut"}}, {"type": "Feature", "id": 390798950, "geometry": {"type": "LineString", "coordinates": [[0.553756, 42.669589], [0.553728, 42.669553], [0.55377, 42.669535], [0.553798, 42.669571], [0.553756, 42.669589]]}, "properties": {"building": "yes", "capacity": "2", "description:fr": "2017-06 : Cabane pastorale ouverte, occup\u00e9e par le berger les mois d'Ao\u00fbt et Septembre. \u00c9quipement int\u00e9rieur: - 2 matelas mousses - 2 tapis de sol", "ele": "2020", "fireplace": "yes", "name": "Caba\u00f1a de Lliterola", "name:fr": "Cabane de Lliterola", "ref:refuges.info": "5847", "stove": "no", "tourism": "wilderness_hut", "website": "https://www.summitpost.org/cabana-de-ubago/415796"}}, {"type": "Feature", "id": 400747089, "geometry": {"type": "LineString", "coordinates": [[0.851926, 42.642386], [0.851913, 42.642333], [0.851836, 42.642343], [0.851849, 42.642397], [0.851926, 42.642386]]}, "properties": {"building": "yes", "capacity": "10", "description": "Se trata de una edificaci\u00f3n de piedra, que se inaugur\u00f3 en el a\u00f1o 1981 y que dispone de literas y un manantial de agua en el exterior. Es un refugio no guardado, que est\u00e1 abierto todo el a\u00f1o, aunque el mantenimiento suele hacerse durante los meses de veran", "ele": "1650", "name": "Cabana de Rius", "name:ca": "Cabana de Rius", "name:oc": "Cabana de Rius", "tourism": "wilderness_hut", "wikidata": "Q73406456"}}, {"type": "Feature", "id": 421265927, "geometry": {"type": "LineString", "coordinates": [[0.45486, 42.609335], [0.454858, 42.609301], [0.454895, 42.6093], [0.454897, 42.609334], [0.45486, 42.609335]]}, "properties": {"alt_name": "Caba\u00f1a Aig\u00fceta de la Bal", "building": "yes", "capacity": "4", "ele": "2000", "name": "Refugio Bacarizal", "name:ca": "Cabana de l'Aig\u00fceta de la Bal", "name:es": "Refugio Bacarizal", "tourism": "wilderness_hut", "wikidata": "Q41601184"}}, {"type": "Feature", "id": 431570593, "geometry": {"type": "LineString", "coordinates": [[1.03379, 42.792072], [1.03384, 42.792049], [1.033803, 42.792006], [1.033753, 42.79203], [1.03379, 42.792072]]}, "properties": {"building": "yes", "capacity": "4", "description": "2016-06 : Solide cabane pastorale. Occup\u00e9e l'\u00e9t\u00e9 par le berger, ouverte en son absence, utilisation dans le respect des consignes \u00e9crites \u00e0 l'int\u00e9rieur. Equipement : - 2 bats-flancs en bois avec matelas mousse - 1 table - 1 chaise - 4 tabourets", "ele": "2250", "fireplace": "yes", "name": "Cabane de Barlonguere", "ref:FR:pyrenees_refuges": "92", "ref:refuges.info": "5449", "source": "Association \"Refuges et cabanes des Pyr\u00e9n\u00e9es\"", "stove": "no", "tourism": "wilderness_hut"}}, {"type": "Feature", "id": 431570595, "geometry": {"type": "LineString", "coordinates": [[1.064368, 42.826816], [1.064446, 42.826782], [1.064417, 42.826746], [1.064339, 42.826779], [1.064368, 42.826816]]}, "properties": {"alt_name": "Cabane Taus du Vallier - castillonais", "building": "yes", "capacity": "8", "description": "2020-06 : Cabane pastorale ouverte toute l'ann\u00e9e. \u00c9quipement int\u00e9rieur : - 1 table - 2 chaises - 1 chemin\u00e9e - 1 bat-flanc avec 3 matelas - A l'\u00e9tage, grand plancher en bon \u00e9tat avec 2 grands matelas doubles", "ele": "1898", "fireplace": "yes", "name": "Cabane du Taus", "note": "566", "ref:refuges.info": "5684", "source": "Association \"Refuges et cabanes des Pyr\u00e9n\u00e9es\"", "stove": "no", "tourism": "wilderness_hut", "website": "https://www.pyrenees-refuges.com/fr/affiche.php?numenr=566"}}, {"type": "Feature", "id": 431572526, "geometry": {"type": "LineString", "coordinates": [[1.059829, 42.813367], [1.059874, 42.813333], [1.05984, 42.813309], [1.059795, 42.813344], [1.059829, 42.813367]]}, "properties": {"building": "yes", "capacity": "3", "description": "2020-09\u00c9quipement int\u00e9rieur : - 1 table avec quelques tabourets - 1 chemin\u00e9e - 3 couchettes avec matelas et couverture - 1 plaque avec 2 feu gaz et bouteille de gaz - Nombreux ustensiles de cuisine - 1 \u00e9vier avec un captage d'eau", "ele": "2085", "fireplace": "yes", "name": "Cabane de Tr\u00e9mul", "note": "978", "operator": "Office National des For\u00eats", "ref:refuges.info": "7210", "source": "Association \"Refuges et cabanes des Pyr\u00e9n\u00e9es\"", "stove": "no", "tourism": "wilderness_hut"}}, {"type": "Feature", "id": 431572527, "geometry": {"type": "LineString", "coordinates": [[1.059049, 42.800493], [1.059093, 42.800458], [1.05905, 42.800429], [1.059007, 42.800464], [1.059049, 42.800493]]}, "properties": {"building": "yes", "description": "2016-11 : Une chemin\u00e9e, un bas flanc pour 3, une source, pas de bois. Il est possible de dormir \u00e0 l'\u00e9tage (mais pas d'\u00e9chelle).", "ele": "1859", "fireplace": "yes", "name": "Cabane de Caussis", "ref:FR:pyrenees_refuges": "82", "ref:refuges.info": "5683", "source": "Association \"Refuges et cabanes des Pyr\u00e9n\u00e9es\"", "stove": "no", "tourism": "wilderness_hut"}}, {"type": "Feature", "id": 431901186, "geometry": {"type": "LineString", "coordinates": [[1.020712, 42.800663], [1.020682, 42.800632], [1.020719, 42.800615], [1.020749, 42.800647], [1.020712, 42.800663]]}, "properties": {"building": "yes", "capacity": "4", "description": "2020-06 : Cabane en pierre avec un toit \u00e0 double pans, ouverte toute l'ann\u00e9e. \u00c9quipement int\u00e9rieur : - 2 bats-flancs en bois (avec 4 matelas) - 1 banc (1 planche sur 2 conduits de chemin\u00e9e !) - 1 chemin\u00e9e", "ele": "2005", "fireplace": "yes", "name": "Cabane de Trinqu\u00e9", "ref:FR:pyrenees_refuges": "564", "ref:refuges.info": "6276", "source": "Association \"Refuges et cabanes des Pyr\u00e9n\u00e9es\"", "stove": "no", "tourism": "wilderness_hut"}}, {"type": "Feature", "id": 431901188, "geometry": {"type": "LineString", "coordinates": [[1.010275, 42.825185], [1.01027, 42.825156], [1.010221, 42.82516], [1.010226, 42.82519], [1.010275, 42.825185]]}, "properties": {"building": "yes", "description": "Cabane restaur\u00e9e en 2012 \u00e0 l'initiative des Amis du Parc ari\u00e9geoise. Elle n a pas \u00e9t\u00e9 agrandie par contre. Cabane Ouverte mais sert en partie de pi\u00e8ce de stockage. Peu d\u00e9panner en cas de besoin m\u00eame si elle ne se trouve pas sur le sentier principal.", "ele": "1728", "fireplace": "no", "name": "Cabane du Trapech d'en haut", "ref:refuges.info": "4587", "shelter_type": "weather_shelter", "source": "Association \"Refuges et cabanes des Pyr\u00e9n\u00e9es", "stove": "no", "tourism": "wilderness_hut", "website": "https://www.pyrenees-refuges.com/fr/affiche.php?numenr=1143"}}, {"type": "Feature", "id": 431901189, "geometry": {"type": "LineString", "coordinates": [[1.00414, 42.828654], [1.004112, 42.828622], [1.00418, 42.828591], [1.004208, 42.828622], [1.00414, 42.828654]]}, "properties": {"alt_name": "Cabane du Bomboi", "building": "yes", "capacity": "10", "description": "2020-07 : \u00c9quipement int\u00e9rieur (partie Ouest, spacieuse) : - 1 table - 2 bancs - 1 bat-flanc avec un grand matelas - 1 po\u00eble - A l'\u00e9tage : 4 matelas \u00c9quipement int\u00e9rieur (partie Est, spartiate) : - Au RDC : 2 matelas mousse - A l'\u00e9tage : 2 matelas mousse", "ele": "1821", "fireplace": "no", "name": "Cabane du Clot du Lac", "note": "551", "ref:refuges.info": "3878", "source": "Association \"Refuges et cabanes des Pyr\u00e9n\u00e9es\"", "stove": "yes", "tourism": "wilderness_hut", "website": "https://www.pyrenees-refuges.com/fr/affiche.php?numenr=551"}}, {"type": "Feature", "id": 431901190, "geometry": {"type": "LineString", "coordinates": [[0.996012, 42.829779], [0.996059, 42.829781], [0.996063, 42.82974], [0.996016, 42.829737], [0.996012, 42.829779]]}, "properties": {"alt_name": "Cabane du Bout de la For\u00eat", "building": "yes", "capacity": "8", "description": "2020-06 : \u00c9quipement int\u00e9rieur : - 1 table - 1 banc - 1 chemin\u00e9e - 2 bas-flancs en bois superpos\u00e9s (dont l'un fait office de banc suppl\u00e9mentaire) - A l'\u00e9tage : un plancher pouvant accueillir plusieurs matelas - Quelques vieux matelas mousses", "ele": "1540", "fireplace": "yes", "name": "Cabane du Besset", "note": "539", "ref:refuges.info": "3874", "source": "Association \"Refuges et cabanes des Pyr\u00e9n\u00e9es\"", "stove": "no", "tourism": "wilderness_hut", "website": "https://www.pyrenees-refuges.com/fr/affiche.php?numenr=539"}}, {"type": "Feature", "id": 432116470, "geometry": {"type": "LineString", "coordinates": [[0.960955, 42.843847], [0.960975, 42.843818], [0.961022, 42.843835], [0.961002, 42.843864], [0.960955, 42.843847]]}, "properties": {"building": "yes", "capacity": "6", "description": "2020-09 : Equipement int\u00e9rieur des 2 parties: - 1 table - 2 bancs et une chaise - 1 chemin\u00e9e - A l'\u00e9tage : un plancher en bon \u00e9tat et 2 matelas mousse.", "ele": "1497", "fireplace": "yes", "name": "Cabane du Col des Cassaings", "note": "541", "ref:refuges.info": "7219", "source": "Association \"Refuges et cabanes des Pyr\u00e9n\u00e9es\"", "stove": "no", "tourism": "wilderness_hut", "website": "https://www.pyrenees-refuges.com/fr/affiche.php?numenr=541"}}, {"type": "Feature", "id": 433028352, "geometry": {"type": "LineString", "coordinates": [[1.052224, 42.831253], [1.052274, 42.831247], [1.052281, 42.831279], [1.052232, 42.831285], [1.052224, 42.831253]]}, "properties": {"building": "yes", "capacity": "2", "description": "2016-11 : Cabane tr\u00e8s petite compos\u00e9e de deux pi\u00e8ces: 1. Toujours ouverte. Une pi\u00e8ce de 2m50 par 2m,un bas flanc, avec un matelas une place. 2. Peut-\u00eatre parfois ferm\u00e9e. Une plus grande pi\u00e8ce avec une chemin\u00e9e, un sommier et un matelas.", "ele": "1600", "fireplace": "yes", "name": "Cabane d'Aouen", "note": "975", "ref:refuges.info": "5685", "source": "Association \"Refuges et cabanes des Pyr\u00e9n\u00e9es\"", "stove": "no", "tourism": "wilderness_hut", "website": "https://www.pyrenees-refuges.com/fr/affiche.php?numenr=975"}}, {"type": "Feature", "id": 434539811, "geometry": {"type": "LineString", "coordinates": [[1.10754, 42.78374], [1.107434, 42.783656], [1.107487, 42.78362], [1.107593, 42.783704], [1.10754, 42.78374]]}, "properties": {"building": "yes", "description": "2020-07 : - 6 lits superpos\u00e9s au rez de chauss\u00e9e mais seulement 4 matelas disponibles. Plancher en bois au 1er \u00e9tage (8 places). - Po\u00eale au tirage m\u00e9diocre.", "ele": "1550", "fireplace": "yes", "name": "Cabane d'Aula", "ref:FR:pyrenees_refuges": "37", "ref:refuges.info": "3876", "source": "Association \"Refuges et cabanes des Pyr\u00e9n\u00e9es\"", "stove": "yes", "tourism": "wilderness_hut"}}, {"type": "Feature", "id": 435164534, "geometry": {"type": "LineString", "coordinates": [[1.219008, 42.744502], [1.219024, 42.744489], [1.219048, 42.744485], [1.21907, 42.744492], [1.219083, 42.744508], [1.21908, 42.744526], [1.219064, 42.744539], [1.21904, 42.744543], [1.219018, 42.744535], [1.219006, 42.74452], [1.219008, 42.744502]]}, "properties": {"access": "private", "alt_name": "Cabane des Maourets", "building": "yes", "ele": "1890", "name": "Cabane des Maurets", "note": "1076", "ref:refuges.info": "5641", "source": "Association \"Refuges et cabanes des Pyr\u00e9n\u00e9es\"", "tourism": "wilderness_hut", "website": "https://www.pyrenees-refuges.com/fr/affiche.php?numenr=1076"}}, {"type": "Feature", "id": 435899528, "geometry": {"type": "LineString", "coordinates": [[1.078234, 42.839642], [1.078221, 42.839595], [1.078283, 42.839586], [1.078296, 42.839633], [1.078234, 42.839642]]}, "properties": {"building": "hut", "capacity": "3", "description": "2018-02 : Cabane ouverte mais occup\u00e9e l'\u00e9t\u00e9 par un berger. Table avec banc et tabouret. Bas flanc pour le couchage et acc\u00e8s possible \u00e0 l'\u00e9tage. 3 tapis de sols rudimentaires et 1 matelas.", "ele": "1980", "fireplace": "yes", "name": "Cabane d'Eychelle", "ref": "338", "ref:refuges.info": "6064", "source": "Association \"Refuges et cabanes des Pyr\u00e9n\u00e9es\"", "stove": "no", "tourism": "wilderness_hut"}}, {"type": "Feature", "id": 435900740, "geometry": {"type": "LineString", "coordinates": [[1.049449, 42.844825], [1.049495, 42.84479], [1.04946, 42.844765], [1.049414, 42.8448], [1.049449, 42.844825]]}, "properties": {"building": "hut", "capacity": "6", "description": "2020-09 : \u00c9quipement int\u00e9rieur : - 1 table en bois avec 3 tabourets - 1 chemin\u00e9e - 2 lits m\u00e9talliques superpos\u00e9s (1 matelas douteux ...) - A l'\u00e9tage : plancher en bon \u00e9tat avec 2 matelas en \"bon \u00e9tat\".", "ele": "1714", "fireplace": "yes", "name": "Cabane de Courille", "note": "544", "ref:refuges.info": "7213", "source": "Association \"Refuges et cabanes des Pyr\u00e9n\u00e9es\"", "stove": "no", "tourism": "wilderness_hut"}}, {"type": "Feature", "id": 435900743, "geometry": {"type": "LineString", "coordinates": [[1.063545, 42.852224], [1.063579, 42.852191], [1.063533, 42.852165], [1.063498, 42.852198], [1.063545, 42.852224]]}, "properties": {"building": "hut", "capacity": "5", "description": "2017-04 : Cabane sur deux niveaux, utilis\u00e9e par un berger l'\u00e9t\u00e9. Table, chaises, nombreuses po\u00eales mais chauffage \u00e0 la chemin\u00e9e. Un torrent en ext\u00e9rieur. Au niveau sup\u00e9rieur quelques matelas pour dormir.", "ele": "1400", "fireplace": "yes", "name": "Cabane de Campuls", "note": "540", "ref:refuges.info": "5797", "source": "Association \"Refuges et cabanes des Pyr\u00e9n\u00e9es\"", "stove": "no", "tourism": "wilderness_hut"}}, {"type": "Feature", "id": 436502828, "geometry": {"type": "LineString", "coordinates": [[0.965155, 42.82981], [0.965136, 42.82978], [0.965176, 42.829766], [0.965195, 42.829797], [0.965155, 42.82981]]}, "properties": {"building": "hut", "capacity": "4", "description": "2020-09 - \u00c9quipement int\u00e9rieur des 2 parties: - 1 table - 1 banc et 1 tabouret - 1 chemin\u00e9e - A l'\u00e9tage : plancher en bon \u00e9tat avec un grand matelas. 2022- travaux d\u2019\u00e9tanch\u00e9it\u00e9, \u00e2tre chemin\u00e9e, nouvelle fen\u00eatre, r\u00e9paration porte", "ele": "1838", "fireplace": "yes", "name": "Cabane de Lasplanous", "note": "553", "ref:refuges.info": "7218", "source": "Association \"Refuges et cabanes des Pyr\u00e9n\u00e9es\"", "stove": "no", "tourism": "wilderness_hut", "website": "https://www.pyrenees-refuges.com/fr/affiche.php?numenr=553"}}, {"type": "Feature", "id": 437145757, "geometry": {"type": "LineString", "coordinates": [[0.88591, 42.859904], [0.885909, 42.859852], [0.88598, 42.859852], [0.88598, 42.859903], [0.88591, 42.859904]]}, "properties": {"building": "hut", "capacity": "6", "description": "2020-06 : Cabane pouvant \u00eatre occup\u00e9e par un berger en p\u00e9riode estivale. \u00c9quipement int\u00e9rieur : - 1 table - Plusieurs bancs - 1 chemin\u00e9e - A l'\u00e9tage : plancher en bon \u00e9tat pouvant accueillir de nombreux autres matelas.", "ele": "1500", "fireplace": "yes", "name": "Cabane du Troumas", "note": "565", "ref:refuges.info": "7018", "source": "Association \"Refuges et cabanes des Pyr\u00e9n\u00e9es\"", "stove": "no", "tourism": "wilderness_hut"}}, {"type": "Feature", "id": 458256689, "geometry": {"type": "LineString", "coordinates": [[1.042162, 42.696672], [1.042207, 42.696623], [1.042146, 42.696593], [1.042101, 42.696642], [1.042162, 42.696672]]}, "properties": {"building": "yes", "capacity": "12", "description:fr": "2016-02 : Refuge m\u00e9tallique, int\u00e9rieur bois - 6 matelas dans leur housse en plastique - 1 table - 6 tabourets - 1 po\u00eale - 1 radio de secours - Pharmacie Grande table en bois + banc \u00e0 l'ext\u00e9rieur du refuge. Arriv\u00e9e d'eau capt\u00e9e \u00e0 l'ext\u00e9rieur du refuge.", "ele": "2199", "fireplace": "yes", "name": "Refugi Airoto-Gr\u00e0cia", "name:ca": "Refugi Airoto-Gr\u00e0cia", "name:fr": "Refuge Gracia-Airoto", "ref:refuges.info": "5397", "stove": "no", "tourism": "wilderness_hut", "website": "https://www.uecgracia.cat/avantatges/refugis-uec.htm", "wikidata": "Q18006167", "wikipedia": "ca:Refugi d'Airoto"}}, {"type": "Feature", "id": 571060445, "geometry": {"type": "LineString", "coordinates": [[0.478847, 42.75615], [0.478873, 42.756136], [0.478867, 42.75613], [0.478884, 42.756121], [0.478849, 42.756085], [0.478807, 42.756108], [0.478812, 42.756113], [0.478791, 42.756124], [0.478814, 42.756148], [0.478834, 42.756137], [0.478847, 42.75615]]}, "properties": {"building": "yes", "name": "Cabane d'Esquierry", "tourism": "wilderness_hut", "website": "https://www.pyrenees-refuges.com/fr/affiche.php?numenr=1023"}}, {"type": "Feature", "id": 571061336, "geometry": {"type": "LineString", "coordinates": [[0.486075, 42.732081], [0.486079, 42.732118], [0.486135, 42.732115], [0.486132, 42.732079], [0.486075, 42.732081]]}, "properties": {"beds": "4", "building": "yes", "capacity": "8", "description": "2021-01 : Cabane d'une seule pi\u00e8ce d'environ 10m2 avec mezzanine accessible. Porte et fen\u00eatre ferment bien. Chemin\u00e9e parfaitement fonctionnelle. Du bois est g\u00e9n\u00e9ralement entass\u00e9 \u00e0 droite de la chemin\u00e9e. En 2019, il y avant 2 matelas, 2 tables et 2 bancs.", "ele": "2120", "fireplace": "yes", "name": "Cabane d Arrouge", "note": "31", "ref:refuges.info": "7370", "source": "Association \"Refuges et cabanes des Pyr\u00e9n\u00e9es\"", "stove": "no", "tourism": "wilderness_hut"}}, {"type": "Feature", "id": 589414299, "geometry": {"type": "LineString", "coordinates": [[1.398392, 42.826949], [1.398287, 42.826957], [1.398281, 42.826915], [1.398387, 42.826908], [1.398392, 42.826949]]}, "properties": {"building": "yes", "capacity": "5", "description": "2013-06 : Cabane r\u00e9cente en ma\u00e7onnerie bien saine ouverte toute l'ann\u00e9e 2 petites pi\u00e8ces, une chemin\u00e9e, un sommier en fer sans matelas", "ele": "1550", "fireplace": "yes", "name": "Cabane de Rose", "ref:refuges.info": "3453", "source": "Association \"Refuges et cabanes des Pyr\u00e9n\u00e9es\"", "stove": "no", "tourism": "wilderness_hut"}}, {"type": "Feature", "id": 611958147, "geometry": {"type": "LineString", "coordinates": [[0.489416, 42.619744], [0.489499, 42.619741], [0.489489, 42.619687], [0.489408, 42.61969], [0.489416, 42.619744]]}, "properties": {"name": "Refugio de Clot de Chil", "tourism": "wilderness_hut"}}, {"type": "Feature", "id": 701745128, "geometry": {"type": "LineString", "coordinates": [[0.577459, 42.590155], [0.577401, 42.590116], [0.577439, 42.590085], [0.577497, 42.590125], [0.577459, 42.590155]]}, "properties": {"building": "yes", "capacity": "8", "description:fr": "2017-06 : Solide cabane pastorale, ouverte, en tr\u00e8s bon \u00e9tat, tr\u00e8s propre. Equipemement int\u00e9rieur : Dans la pi\u00e8ce \u00e0 l'entr\u00e9e - 1 chemin\u00e9e - 1 table - 1 banc - 3 tabourets Dans la pi\u00e8ce au fond - 2 grands bat-flancs carrel\u00e9s (tr\u00e8s propre)", "ele": "2075", "fireplace": "yes", "name": "Cabana de Ardon\u00e9s", "name:fr": "Cabane de Ardones", "ref:refuges.info": "5851", "stove": "no", "tourism": "wilderness_hut"}}, {"type": "Feature", "id": 715697948, "geometry": {"type": "LineString", "coordinates": [[1.328841, 42.774598], [1.328866, 42.774628], [1.328908, 42.774609], [1.328883, 42.774579], [1.328841, 42.774598]]}, "properties": {"building": "yes", "capacity": "8", "description": "2013-06 : Cabane en assez mauvais \u00e9tat", "ele": "1450", "fireplace": "yes", "name": "Cabane de Bazets", "note": "909", "ref:refuges.info": "3459", "source": "Association \"Refuges et cabanes des Pyr\u00e9n\u00e9es\"", "stove": "no", "tourism": "wilderness_hut"}}, {"type": "Feature", "id": 737789702, "geometry": {"type": "LineString", "coordinates": [[0.445326, 42.506751], [0.445315, 42.506709], [0.445376, 42.506694], [0.445389, 42.506739], [0.445326, 42.506751]]}, "properties": {"building": "yes", "ele": "1840", "fee": "no", "name": "Refugio Resuali", "tourism": "wilderness_hut"}}, {"type": "Feature", "id": 759857193, "geometry": {"type": "LineString", "coordinates": [[0.417736, 42.932134], [0.417796, 42.932183], [0.417909, 42.93212], [0.417863, 42.932042], [0.417736, 42.932134]]}, "properties": {"access": "no", "building": "yes", "name": "Cabane d'Ardengost", "tourism": "wilderness_hut"}}, {"type": "Feature", "id": 766737910, "geometry": {"type": "LineString", "coordinates": [[1.397752, 42.805411], [1.397771, 42.805429], [1.397821, 42.805401], [1.397802, 42.805383], [1.397752, 42.805411]]}, "properties": {"amenity": "shelter", "building": "yes", "capacity": "4", "description": "2013-06 : Cabane en ogive, typique le la r\u00e9gion d'Auzat, assez humide. Un coin \"\u00e2tre\". Un matelas pour 2, mais on doit pouvoir dormir par terre \u00e0 4 ou 5 avec un bon tapis de sol.", "ele": "1450", "fireplace": "yes", "name": "Courtal de Lers", "note": "604", "ref:refuges.info": "3454", "source": "Association \"Refuges et cabanes des Pyr\u00e9n\u00e9es\"", "stove": "no", "tourism": "wilderness_hut"}}, {"type": "Feature", "id": 771571295, "geometry": {"type": "LineString", "coordinates": [[1.214888, 42.704747], [1.21487, 42.704683], [1.214933, 42.704674], [1.214951, 42.704738], [1.214888, 42.704747]]}, "properties": {"building": "yes", "capacity": "6", "description:fr": "2018-07 : Ancienne cabane pastorale ouverte aux randonneurs. Une bas-flanc pour 6 personnes, avec des mousses. La chemin\u00e9e a \u00e9t\u00e9 bouch\u00e9e, et une po\u00eale mis en place.", "ele": "1885", "fireplace": "no", "name": "Cabana del Fangassal", "name:ca": "Cabana del Fangassal", "ref:refuges.info": "6313", "stove": "yes", "tourism": "wilderness_hut"}}, {"type": "Feature", "id": 825875467, "geometry": {"type": "LineString", "coordinates": [[1.244668, 42.724955], [1.24472, 42.72493], [1.244689, 42.724894], [1.244637, 42.724919], [1.244668, 42.724955]]}, "properties": {"building": "yes", "capacity": "9", "description": "2019-06 : Cabane r\u00e9nov\u00e9e en Septembre 2008. Solide cabane tr\u00e8s bien isol\u00e9e. Equipement : - 1 Table - 2 Bancs - 9 couchettes avec petit matelas - Quelques couvertures - 1 po\u00eale \u00e0 p\u00e9trole -> mais il faut du p\u00e9trole", "ele": "2140", "fireplace": "no", "name": "Cabane de Marterat", "note": "857", "operator": "Communaut\u00e9 des communes du Canton d'Oust", "ref:refuges.info": "5358", "source": "Association \"Refuges et cabanes des Pyr\u00e9n\u00e9es\"", "stove": "yes", "tourism": "wilderness_hut"}}, {"type": "Feature", "id": 825889274, "geometry": {"type": "LineString", "coordinates": [[1.242767, 42.741181], [1.242831, 42.74117], [1.24282, 42.741135], [1.242756, 42.741146], [1.242767, 42.741181]]}, "properties": {"building": "yes", "name": "Cabane d'Arrech - ustou", "note": "855", "source": "Association \"Refuges et cabanes des Pyr\u00e9n\u00e9es\"", "tourism": "wilderness_hut", "website": "https://www.pyrenees-refuges.com/fr/affiche.php?numenr=855"}}, {"type": "Feature", "id": 832172146, "geometry": {"type": "LineString", "coordinates": [[0.872838, 42.895697], [0.872838, 42.895657], [0.872763, 42.895657], [0.872763, 42.895697], [0.872838, 42.895697]]}, "properties": {"building": "yes", "capacity": "6", "ele": "1420", "fireplace": "yes", "name": "Refuge du col de L\u2019Estrade", "note": "138", "ref:refuges.info": "6221", "source": "Association \"Refuges et cabanes des Pyr\u00e9n\u00e9es\"", "stove": "no", "tourism": "wilderness_hut"}}, {"type": "Feature", "id": 833566916, "geometry": {"type": "LineString", "coordinates": [[1.327398, 42.733595], [1.327454, 42.733579], [1.327427, 42.733525], [1.327371, 42.73354], [1.327398, 42.733595]]}, "properties": {"building": "yes", "description": "2019-08 : rques: Cabane en pierre avec un toit \u00e0 double pans, ouverte toute l'ann\u00e9e. Equip\u00e9e d'une table, de bancs et de bat-flancs en bois. - 7 couchages en b\u00e2t-flanc avec tapis de sol \u00e9pais", "ele": "2100", "fireplace": "no", "name": "Cabane de Turguilla", "note": "317", "ref:refuges.info": "6277", "source": "Association \"Refuges et cabanes des Pyr\u00e9n\u00e9es\"", "stove": "yes", "tourism": "wilderness_hut"}}, {"type": "Feature", "id": 835591059, "geometry": {"type": "LineString", "coordinates": [[1.107717, 42.825905], [1.107715, 42.825789], [1.107688, 42.82579], [1.107687, 42.82576], [1.107619, 42.82576], [1.107619, 42.825795], [1.107633, 42.825795], [1.107635, 42.825919], [1.107687, 42.825919], [1.107687, 42.825905], [1.107717, 42.825905]]}, "properties": {"building": "yes", "description": "Bonne cabane situ\u00e9e sur le chemin de la Libert\u00e9 et sur le GR10. Une partie pour le berger, une partie pour les randonneurs, en tr\u00e8s bon \u00e9tat, spacieuse et bien am\u00e9nag\u00e9e: table.", "name": "Cabane de Subera", "tourism": "wilderness_hut", "website": "https://www.pyrenees-refuges.com/fr/affiche.php?numenr=577"}}, {"type": "Feature", "id": 838264053, "geometry": {"type": "LineString", "coordinates": [[0.934752, 42.816332], [0.934732, 42.81629], [0.934689, 42.816302], [0.93471, 42.816343], [0.934752, 42.816332]]}, "properties": {"building": "yes", "capacity": "5", "description": "2020-09 - \u00c9quipement int\u00e9rieur : - 1 grande table en bois - 2 bancs - 1 chemin\u00e9e - Plancher en tr\u00e8s bon \u00e9tat \u00e0 l'\u00e9tage - 1 vieux matelas \u00e0 l'\u00e9tage", "ele": "1370", "fireplace": "yes", "name": "Cabane d'Haou", "note": "15", "ref:refuges.info": "7205", "source": "Association \"Refuges et cabanes des Pyr\u00e9n\u00e9es\"", "stove": "no", "tourism": "wilderness_hut"}}, {"type": "Feature", "id": 838264054, "geometry": {"type": "LineString", "coordinates": [[0.935095, 42.811324], [0.935152, 42.811325], [0.935152, 42.811289], [0.935096, 42.811289], [0.935095, 42.811324]]}, "properties": {"building": "yes", "capacity": "5", "description": "2020-09 : - 2 matelas \u00e0 l'\u00e9tage - Compter 5/6 places", "ele": "1605", "fireplace": "yes", "name": "Cabane de la Coumeda", "note": "103", "ref:refuges.info": "7207", "source": "Association \"Refuges et cabanes des Pyr\u00e9n\u00e9es\"", "stove": "no", "tourism": "wilderness_hut"}}, {"type": "Feature", "id": 844180435, "geometry": {"type": "LineString", "coordinates": [[1.346415, 42.735973], [1.346431, 42.735995], [1.346462, 42.736002], [1.346492, 42.735991], [1.346502, 42.735968], [1.346486, 42.735946], [1.346455, 42.735939], [1.346425, 42.73595], [1.346415, 42.735973]]}, "properties": {"building": "yes", "description": "2016-08 : Cabane ouverte. - 6 couchettes avec des matelas (trop grands !) - 1 table dispos\u00e9e autour du pilier central - 4 tabourets - R\u00e9chaud avec bouteille de gaz - Quelques ustensiles de cuisine - 1 grill", "ele": "1824", "fireplace": "no", "name": "Cabane du Troun d'Ars", "note": "569", "ref:refuges.info": "5440", "source": "Association \"Refuges et cabanes des Pyr\u00e9n\u00e9es\"", "stove": "yes", "tourism": "wilderness_hut"}}, {"type": "Feature", "id": 849759294, "geometry": {"type": "LineString", "coordinates": [[0.785626, 42.88937], [0.785569, 42.889382], [0.785583, 42.889418], [0.78564, 42.889406], [0.785626, 42.88937]]}, "properties": {"building": "yes", "capacity": "6", "ele": "1336", "fireplace": "yes", "name": "Cabane du col d'Artigascou", "ref:refuges.info": "4597", "stove": "no", "tourism": "wilderness_hut", "website": "https://www.pyrenees-refuges.com/fr/affiche.php?numenr=1188"}}, {"type": "Feature", "id": 849760021, "geometry": {"type": "LineString", "coordinates": [[0.842803, 42.923466], [0.842773, 42.923507], [0.842815, 42.923524], [0.842845, 42.923483], [0.842803, 42.923466]]}, "properties": {"building": "yes", "capacity": "3", "description": "2017-12 : En bon \u00e9tat mais petite, \u00e9tait ouverte en octobre 2017. 3 lits de camp, 1 petite table", "ele": "1472", "fireplace": "yes", "name": "Cabane de Bazet - Biros", "note": "1068", "ref:refuges.info": "6042", "source": "Association \"Refuges et cabanes des Pyr\u00e9n\u00e9es\"", "stove": "no", "tourism": "wilderness_hut"}}, {"type": "Feature", "id": 849765232, "geometry": {"type": "LineString", "coordinates": [[0.881852, 42.877074], [0.88183, 42.877119], [0.88188, 42.877132], [0.881902, 42.877088], [0.881852, 42.877074]]}, "properties": {"building": "yes", "capacity": "4", "description": "2020-09 : \u00c9quipement int\u00e9rieur : - 1 chemin\u00e9e - 1 tabouret - 1 vieux sommier m\u00e9tallique - Dalle en b\u00e9ton bien s\u00e8che et propre Remarque : pas de plafond et toit en t\u00f4le", "ele": "1550", "fireplace": "yes", "name": "Cabane Aron", "note": "534", "ref:refuges.info": "7232", "source": "Association \"Refuges et cabanes des Pyr\u00e9n\u00e9es\"", "stove": "no", "tourism": "wilderness_hut"}}, {"type": "Feature", "id": 849765239, "geometry": {"type": "LineString", "coordinates": [[0.866906, 42.87925], [0.86686, 42.879272], [0.8669, 42.879315], [0.866946, 42.879293], [0.866906, 42.87925]]}, "properties": {"building": "yes", "capacity": "4", "description": "2020-09 : \u00c9quipement int\u00e9rieur : - Sol en terre battue - 1 chemin\u00e9e - 4 vieux sommiers m\u00e9talliques - L'\u00e9tage : plancher en bon \u00e9tat, mais tr\u00e8s poussi\u00e9reux", "ele": "1620", "fireplace": "yes", "name": "Cabane Loub\u00e8re", "note": "554", "ref:refuges.info": "7236", "source": "Association \"Refuges et cabanes des Pyr\u00e9n\u00e9es\"", "stove": "no", "tourism": "wilderness_hut"}}, {"type": "Feature", "id": 850032857, "geometry": {"type": "LineString", "coordinates": [[0.848146, 42.867081], [0.848107, 42.867116], [0.848147, 42.86714], [0.848186, 42.867105], [0.848146, 42.867081]]}, "properties": {"building": "yes", "capacity": "2", "description": "Tres bon \u00e9tat. D'apr\u00e8s une inscription r\u00e9nov\u00e9e par les scouts de Metz St Avold en 1996 . Source ferrugineuse se situant sur le flanc en face de la cabane. Une petite dalle de b\u00e9ton avec inscrit dessus eau potable et un petit tuyau de captage indique la so", "ele": "2020", "fireplace": "yes", "name": "Cabane Col de La Terme", "note": "562", "ref:refuges.info": "7024", "source": "Association \"Refuges et cabanes des Pyr\u00e9n\u00e9es\"", "stove": "no", "tourism": "wilderness_hut", "website": "https://www.pyrenees-refuges.com/fr/affiche.php?numenr=562"}}, {"type": "Feature", "id": 850069362, "geometry": {"type": "LineString", "coordinates": [[0.643398, 42.68063], [0.643394, 42.680687], [0.643449, 42.680689], [0.643453, 42.680631], [0.643398, 42.68063]]}, "properties": {"alt_name:fr": "Refuge Plan d'Estan", "building": "yes", "capacity": "2", "description:fr": "2017-03 : - Dans la pi\u00e8ce \u00e0 l'entr\u00e9e . 3 bancs . 1 chemin\u00e9e - Dans la pi\u00e8ce du fond . 2 bat-flancs avec matelas", "ele": "1850", "fireplace": "yes", "name": "Abrigo de la Besurta", "name:es": "Abrigo de La Besurta", "name:fr": "Abri de la Besurta", "note": "1066", "ref:refuges.info": "5853", "source": "Association \"Refuges et cabanes des Pyr\u00e9n\u00e9es\"", "stove": "no", "tourism": "wilderness_hut"}}, {"type": "Feature", "id": 850095909, "geometry": {"type": "LineString", "coordinates": [[1.027997, 42.736204], [1.028001, 42.736241], [1.028046, 42.736239], [1.028042, 42.736202], [1.027997, 42.736204]]}, "properties": {"building": "yes", "capacity": "3", "description:fr": "2016-09 : - 1 table - 2 bas flancs fait de planches pos\u00e9es sur des moellons - Plancher en bois propre (possibilit\u00e9 d'y poser 1 matelas)", "ele": "2008.6", "fireplace": "yes", "name": "Cabana de Marimaha", "name:fr": "Cabane de Marimanha", "ref:refuges.info": "5618", "stove": "no", "tourism": "wilderness_hut"}}, {"type": "Feature", "id": 850097117, "geometry": {"type": "LineString", "coordinates": [[0.926504, 42.789326], [0.92647, 42.789333], [0.926462, 42.789359], [0.926488, 42.789377], [0.926521, 42.789369], [0.92653, 42.789344], [0.926504, 42.789326]]}, "properties": {"building": "yes", "capacity": "3", "description:fr": "2018-09 : Deux places en bas-flanc et une autre tr\u00e8s petite mais on peut dormir sans probl\u00e8me sur le sol (deux places suppl\u00e9mentaires). Le po\u00eale tr\u00f4ne au milieu : pensez \u00e0 monter du bois !", "ele": "2512", "fireplace": "no", "name": "Cabana de P\u00f2rt d'Urets", "name:ca": "Cabana de P\u00f2rt d'Urets - Biros", "name:fr": "Cabane du Port d'Urets", "note": "1120", "ref:refuges.info": "4915", "source": "Association \"Refuges et cabanes des Pyr\u00e9n\u00e9es\"", "stove": "yes", "tourism": "wilderness_hut"}}, {"type": "Feature", "id": 850339720, "geometry": {"type": "LineString", "coordinates": [[0.984612, 42.816394], [0.984586, 42.816464], [0.984637, 42.816474], [0.984664, 42.816405], [0.984612, 42.816394]]}, "properties": {"building": "yes", "capacity": "10", "description": "2020-09 : Grande cabane sur deux niveaux, ouverte aux randonneurs toute l'ann\u00e9e. Au rez de chauss\u00e9 : * Une chemin\u00e9e * Trois tables et tabourets * Un peu de vaisselle \u30012 scies \u00e0 bois - 3 grilles - 1 lampe veilleuse - livre d'or \u00c0 l'\u00e9tage : * 6 matelas.", "ele": "1150", "fireplace": "yes", "name": "Cabane de Graouilles", "ref:FR:pyrenees_refuges": "158", "ref:refuges.info": "5514", "source": "Association \"Refuges et cabanes des Pyr\u00e9n\u00e9es\"", "stove": "no", "tourism": "wilderness_hut"}}, {"type": "Feature", "id": 850343881, "geometry": {"type": "LineString", "coordinates": [[0.990033, 42.805202], [0.990055, 42.805249], [0.990086, 42.805242], [0.990064, 42.805194], [0.990033, 42.805202]]}, "properties": {"building": "yes", "capacity": "6", "description": "2020-06 : Petite cabane restaur\u00e9e en 2012, ouverte aux randonneurs toute l'ann\u00e9e. Au rez de chauss\u00e9 : * Un tr\u00e8s tr\u00e8s bon po\u00eale qui permet d'avoir rapidement tr\u00e8s chaud. * Une table et deux bancs, fixes \u00c0 l'\u00e9tage : * 4 matelas.", "ele": "1470", "fireplace": "no", "name": "Cabane de la Hounta", "ref:FR:pyrenees_refuges": "142", "ref:refuges.info": "5512", "source": "Association \"Refuges et cabanes des Pyr\u00e9n\u00e9es\"", "stove": "yes", "tourism": "wilderness_hut"}}, {"type": "Feature", "id": 850355143, "geometry": {"type": "LineString", "coordinates": [[1.075744, 42.852713], [1.075684, 42.852721], [1.075696, 42.852763], [1.075756, 42.852755], [1.075744, 42.852713]]}, "properties": {"building": "yes", "capacity": "8", "description": "Bonne cabane propre, avec grande table, bancs et chemin\u00e9e au RDC, et couchage 6 personnes \u00e0 l'\u00e9tage sur plancher. Pas de matelas. Source devant la cabane, bois pas loin. Petite r\u00e9serve \u00e0 sel accol\u00e9e \u00e0 la cabane.", "ele": "1690.3", "fireplace": "yes", "name": "Cabane du Col d'Eliet", "ref:refuges.info": "3875", "stove": "no", "tourism": "wilderness_hut", "website": "https://www.pyrenees-refuges.com/fr/affiche.php?numenr=545"}}, {"type": "Feature", "id": 850488170, "geometry": {"type": "LineString", "coordinates": [[1.151594, 42.743636], [1.151585, 42.743617], [1.151565, 42.743622], [1.151545, 42.74358], [1.151427, 42.74361], [1.151456, 42.743671], [1.151594, 42.743636]]}, "properties": {"building": "yes", "ele": "1550", "name": "Abri pastoral de Pouilh", "note": "573", "source": "Association \"Refuges et cabanes des Pyr\u00e9n\u00e9es\"", "tourism": "wilderness_hut", "website": "https://www.pyrenees-refuges.com/fr/affiche.php?numenr=573"}}, {"type": "Feature", "id": 850492614, "geometry": {"type": "LineString", "coordinates": [[1.138435, 42.742255], [1.138407, 42.742309], [1.138447, 42.74232], [1.138475, 42.742266], [1.138435, 42.742255]]}, "properties": {"alt_name": "Abri Port de Salau La Lanne", "building": "yes", "capacity": "8", "description": "2016-09 : - 1 table - 1 banc - 8 couchettes (courtes), r\u00e9parties dans 2 pi\u00e8ces, avec karimmat et vieux matelas gonflants - Quelques couvertures (propret\u00e9 moyenne) - 1 chemin\u00e9e dans la pi\u00e8ce du fond - 1 lampe \u00e0 p\u00e9trole", "ele": "1840", "fireplace": "yes", "name": "Cabane de la Lanne", "note": "574", "ref:refuges.info": "5622", "source": "Association \"Refuges et cabanes des Pyr\u00e9n\u00e9es\"", "stove": "no", "tourism": "wilderness_hut", "website": "https://www.pyrenees-refuges.com/fr/affiche.php?numenr=574"}}, {"type": "Feature", "id": 850536273, "geometry": {"type": "LineString", "coordinates": [[1.234107, 42.700969], [1.234115, 42.701005], [1.234181, 42.700997], [1.234173, 42.700961], [1.234107, 42.700969]]}, "properties": {"building": "yes", "capacity": "2", "description:fr": "2018-07 : Cabane datant de 1982, en tr\u00e8s mauvais \u00e9tat. Une chemin\u00e9e, un bas flancqui n'est pas plat, pas de porte, des batons pour emp\u00eacher l'entr\u00e9e aux animaux.", "ele": "1730", "fireplace": "yes", "name": "Cabana de Pleta Palomera", "ref:refuges.info": "6314", "stove": "no", "tourism": "wilderness_hut"}}, {"type": "Feature", "id": 850717017, "geometry": {"type": "LineString", "coordinates": [[1.272695, 42.742581], [1.272643, 42.742574], [1.272634, 42.74261], [1.272686, 42.742617], [1.272695, 42.742581]]}, "properties": {"building": "hut", "capacity": "6", "description": "2014-06 : Tr\u00e8s belle cabane r\u00e9nov\u00e9e en 2007. Mousses, couvertures, tabourets pour 6 sur place. Il y a sur place un po\u00eale \u00e0 bois, un po\u00eale \u00e0 p\u00e9trole et une lampe \u00e0 p\u00e9trole.", "ele": "2003", "fireplace": "no", "name": "Cabane de la Lacarde", "ref:refuges.info": "4370", "stove": "yes", "tourism": "wilderness_hut"}}, {"type": "Feature", "id": 850825617, "geometry": {"type": "LineString", "coordinates": [[1.305636, 42.73247], [1.305726, 42.732474], [1.305729, 42.732431], [1.30564, 42.732426], [1.305636, 42.73247]]}, "properties": {"building": "yes", "description": "2014-07 : Lit pour 8 personnes", "ele": "1800", "fireplace": "no", "name": "Cabane de la Hilette", "note": "163", "ref:refuges.info": "4372", "source": "Association \"Refuges et cabanes des Pyr\u00e9n\u00e9es\"", "stove": "yes", "tourism": "wilderness_hut"}}, {"type": "Feature", "id": 870007987, "geometry": {"type": "LineString", "coordinates": [[0.882336, 42.845195], [0.88232, 42.84524], [0.882375, 42.84525], [0.882391, 42.845206], [0.882336, 42.845195]]}, "properties": {"capacity": "6", "description": "2020-09 : Cabane pastorale ouverte. 1 chemin\u00e9e - 1 table en fer - 2 bancs en fer - 2 couchettes en bois - A l'\u00e9tage : un plancher en bon \u00e9tat et propre.", "ele": "1480", "fireplace": "yes", "name": "Cabane d'Illau", "note": "172", "ref:refuges.info": "7192", "tourism": "wilderness_hut", "website": "https://www.pyrenees-refuges.com/fr/affiche.php?numenr=172"}}, {"type": "Feature", "id": 870016372, "geometry": {"type": "LineString", "coordinates": [[0.887994, 42.885438], [0.887947, 42.885469], [0.887985, 42.885499], [0.888032, 42.885468], [0.887994, 42.885438]]}, "properties": {"building": "yes", "capacity": "6", "description": "2020-09 : \u00c9quipement int\u00e9rieur : - 1 table - 2 bancs - 1 lit avec matelas - 1 grande chemin\u00e9e - A l'\u00e9tage : un plancher en bon \u00e9tat", "ele": "1382", "fireplace": "yes", "name": "Cabane du Taus de la Calabasse", "note": "536", "ref:refuges.info": "7227", "source": "Association \"Refuges et cabanes des Pyr\u00e9n\u00e9es\"", "stove": "no", "tourism": "wilderness_hut"}}, {"type": "Feature", "id": 870706216, "geometry": {"type": "LineString", "coordinates": [[1.103164, 42.874712], [1.103178, 42.874671], [1.103125, 42.874661], [1.103111, 42.874702], [1.103164, 42.874712]]}, "properties": {"building": "yes", "capacity": "5", "description": "2020-09 : \u00c9quipement int\u00e9rieur : - 1 table en bois - 1 po\u00eale - 1 bat-flanc en bois - A l'\u00e9tage : plancher en tr\u00e8s bon \u00e9tat", "ele": "1610", "fireplace": "no", "name": "Cabane du Pas de Tartet", "ref": "1146", "ref:refuges.info": "7214", "source": "Association \"Refuges et cabanes des Pyr\u00e9n\u00e9es\"", "stove": "yes", "tourism": "wilderness_hut"}}, {"type": "Feature", "id": 960808481, "geometry": {"type": "LineString", "coordinates": [[0.958638, 42.572141], [0.958683, 42.572172], [0.958718, 42.572145], [0.958673, 42.572114], [0.958638, 42.572141]]}, "properties": {"building": "yes", "tourism": "wilderness_hut"}}, {"type": "Feature", "id": 983797423, "geometry": {"type": "LineString", "coordinates": [[0.691763, 42.682608], [0.691828, 42.682603], [0.691822, 42.682563], [0.691757, 42.682568], [0.691763, 42.682608]]}, "properties": {"access": "permissive", "building": "yes", "building:material": "stone", "capacity": "2", "capacity:maximum": "4", "check_date": "2021-09-15", "cookware": "no", "drinking_water": "no", "emergency_beacon": "no", "fee": "no", "fireplace": "yes", "first_aid_kit": "no", "mattress": "no", "name": "Cabana de Pomero", "opening_hours": "24/7", "ref:refuges.info": "4965", "reservation": "no", "seats": "yes", "shower": "no", "start_date": "2012", "table": "no", "toilets": "no", "tourism": "wilderness_hut", "woodstove": "no"}}, {"type": "Feature", "id": 987104187, "geometry": {"type": "LineString", "coordinates": [[1.214458, 42.721788], [1.214487, 42.72178], [1.214498, 42.72181], [1.214459, 42.721813], [1.214458, 42.721788]]}, "properties": {"building": "yes", "name": "Cabane de Montareing", "source": "Association \"Refuges et Cabanes des Pyr\u00e9n\u00e9es\"", "tourism": "wilderness_hut", "website": "https://www.pyrenees-refuges.com/fr/affiche.php?numenr=869"}}, {"type": "Feature", "id": 988568846, "geometry": {"type": "LineString", "coordinates": [[1.02328, 42.472919], [1.023286, 42.472848], [1.023209, 42.472845], [1.023203, 42.472915], [1.02328, 42.472919]]}, "properties": {"building": "yes", "ele": "2115", "name": "la Cabaneta", "name:ca": "la Cabaneta", "tourism": "wilderness_hut", "wikidata": "Q107339923"}}, {"type": "Feature", "id": 989031470, "geometry": {"type": "LineString", "coordinates": [[0.723146, 42.861469], [0.723209, 42.861497], [0.723241, 42.861462], [0.723177, 42.861434], [0.723146, 42.861469]]}, "properties": {"alt_name": "Cabane des Rechets", "building": "yes", "description": "Table. bancs. 3lits. 1 chemin\u00e9e. bois a proximit\u00e9. fontaine a cot\u00e9 de la cabane captage a 200 m\u00e8tres.", "fireplace": "yes", "name": "Cabane d'Herechet", "ref:FR:pyrenees_refuges": "728", "tourism": "wilderness_hut", "website": "https://www.pyrenees-refuges.com/fr/affiche.php?numenr=728"}}, {"type": "Feature", "id": 989062754, "geometry": {"type": "LineString", "coordinates": [[1.028051, 42.833218], [1.028104, 42.833188], [1.028129, 42.833214], [1.028076, 42.833243], [1.028051, 42.833218]]}, "properties": {"building": "yes", "name": "Cabane de villenave", "tourism": "wilderness_hut", "website": "https://www.pyrenees-refuges.com/fr/affiche.php?numenr=1516"}}, {"type": "Feature", "id": 1001717002, "geometry": {"type": "LineString", "coordinates": [[0.489002, 42.415315], [0.489007, 42.415264], [0.489098, 42.415269], [0.489093, 42.41532], [0.489002, 42.415315]]}, "properties": {"building": "yes", "description": "16 plazas -Posee dos ventanas - Literas - Bancos con mesas - Fog\u00f3n - Velas - Estanter\u00edas - A unos 200 m del mismo, direcci\u00f3n a la cumbre, se pude recoger agua en la Fuente de la Plana.", "ele": "2010", "fee": "no", "fireplace": "yes", "name": "Refugio del Turb\u00f3n", "tourism": "wilderness_hut"}}, {"type": "Feature", "id": 1077054925, "geometry": {"type": "LineString", "coordinates": [[0.874004, 42.795317], [0.873989, 42.795257], [0.873927, 42.795265], [0.873942, 42.795326], [0.874004, 42.795317]]}, "properties": {"building": "yes", "capacity": "8", "ele": "2253.7", "fireplace": "no", "name": "Refugi de Liat", "ref:refuges.info": "7193", "stove": "yes", "tourism": "wilderness_hut"}}, {"type": "Feature", "id": 1124298712, "geometry": {"type": "LineString", "coordinates": [[0.898326, 42.748539], [0.898382, 42.748525], [0.898398, 42.748563], [0.898343, 42.748576], [0.898326, 42.748539]]}, "properties": {"building": "yes", "capacity": "4", "name": "Refugi Cabana Moredo", "source": "https://www.segre.com/noticies/comarques/2022/11/19/bagergue_unha_acaben_adequacio_la_cabana_moredo_190683_1091.html;ICGC", "tourism": "wilderness_hut"}}, {"type": "Feature", "id": 12151536, "geometry": {"type": "MultiPolygon", "coordinates": [[[[0.986869, 42.658018], [0.986868, 42.657985], [0.986835, 42.657986], [0.986837, 42.65802], [0.986869, 42.658018]]], [[[0.986757, 42.657987], [0.986814, 42.657971], [0.986794, 42.657931], [0.986737, 42.657947], [0.986757, 42.657987]]]]}, "properties": {"alt_name": "Cabanas del Pleitu d'Aranaldo;Cabana del Pletiu d'Amaldo", "amenity": "shelter", "bench": "yes", "building": "yes", "capacity": "6", "description": "Durante los pastos de verano, el refugio puede estar cerrado por el pastor. Reunirse con \u00e9l.", "description:en": "During summer pastures, the refuge can be locked by the shepherd. Meet him.", "description:fr": "En p\u00e9riode d'estives, le refuge peut \u00eatre ferm\u00e9 \u00e0 clef par le berger. Rencontrez-le.", "drinking_water": "no", "ele": "2080", "fee": "no", "fireplace": "yes", "mattress": "yes", "name": "Refugi de la Pleta del Duc", "reservation": "no", "shelter_type": "basic_hut", "shower": "no", "toilets": "no", "tourism": "wilderness_hut", "type": "multipolygon"}}]}