{"type": "FeatureCollection", "features": [{"type": "Feature", "id": 471554099, "geometry": {"type": "Point", "coordinates": [1.298623, 42.788028]}, "properties": {"tourism": "viewpoint"}}, {"type": "Feature", "id": 832675372, "geometry": {"type": "Point", "coordinates": [0.529397, 42.750869]}, "properties": {"ele": "2272", "mountain_pass": "yes", "name": "Col de la Coumme", "natural": "saddle", "source": "GPS", "tourism": "viewpoint"}}, {"type": "Feature", "id": 849982928, "geometry": {"type": "Point", "coordinates": [0.5522, 42.732657]}, "properties": {"name": "Cascade d'Enfer", "source": "local_knowledge", "tourism": "viewpoint"}}, {"type": "Feature", "id": 850780243, "geometry": {"type": "Point", "coordinates": [0.53805, 42.757249]}, "properties": {"ele": "2403", "name": "Pic de C\u00e9cir\u00e9", "natural": "peak", "tourism": "viewpoint", "wikidata": "Q49753095"}}, {"type": "Feature", "id": 1315530567, "geometry": {"type": "Point", "coordinates": [0.98771, 42.586437]}, "properties": {"ele": "2190", "name": "Mirador de l'Estany", "name:ca": "Mirador de l'Estany", "note": "Panell indicador de la vista", "source": "survey", "tourism": "viewpoint"}}, {"type": "Feature", "id": 1326939375, "geometry": {"type": "Point", "coordinates": [1.298794, 42.341423]}, "properties": {"name": "Mirador de la Creu de Guils", "tourism": "viewpoint"}}, {"type": "Feature", "id": 1326939378, "geometry": {"type": "Point", "coordinates": [1.237404, 42.370081]}, "properties": {"tourism": "viewpoint"}}, {"type": "Feature", "id": 1346208099, "geometry": {"type": "Point", "coordinates": [0.704166, 42.515369]}, "properties": {"designation": "Pala del Posso", "name": "Pala del Posso", "source": "Marc Porte", "tourism": "viewpoint"}}, {"type": "Feature", "id": 1396856178, "geometry": {"type": "Point", "coordinates": [1.074842, 42.593428]}, "properties": {"name": "Mirador de Fogueruix", "tourism": "viewpoint"}}, {"type": "Feature", "id": 1425718491, "geometry": {"type": "Point", "coordinates": [0.474113, 42.511304]}, "properties": {"tourism": "viewpoint"}}, {"type": "Feature", "id": 1425718492, "geometry": {"type": "Point", "coordinates": [0.474179, 42.511392]}, "properties": {"tourism": "viewpoint"}}, {"type": "Feature", "id": 1474079058, "geometry": {"type": "Point", "coordinates": [1.123558, 42.628713]}, "properties": {"name": "Cam\u00ed del camp", "name:ca": "Cam\u00ed del camp", "tourism": "viewpoint"}}, {"type": "Feature", "id": 1907533119, "geometry": {"type": "Point", "coordinates": [0.590286, 42.671139]}, "properties": {"tourism": "viewpoint"}}, {"type": "Feature", "id": 1928959506, "geometry": {"type": "Point", "coordinates": [1.031169, 42.832014]}, "properties": {"name": "R\u00e9serve domaniale du Mont Vallier", "tourism": "viewpoint"}}, {"type": "Feature", "id": 1989509083, "geometry": {"type": "Point", "coordinates": [1.388445, 42.918501]}, "properties": {"direction": "202", "tourism": "viewpoint", "wheelchair": "yes"}}, {"type": "Feature", "id": 1991114053, "geometry": {"type": "Point", "coordinates": [0.707758, 42.682053]}, "properties": {"tourism": "viewpoint"}}, {"type": "Feature", "id": 2032706647, "geometry": {"type": "Point", "coordinates": [0.6562, 42.677992]}, "properties": {"tourism": "viewpoint"}}, {"type": "Feature", "id": 2168691401, "geometry": {"type": "Point", "coordinates": [1.312992, 42.773953]}, "properties": {"tourism": "viewpoint"}}, {"type": "Feature", "id": 2285739382, "geometry": {"type": "Point", "coordinates": [0.578388, 42.768836]}, "properties": {"name": "Table d'orientation", "tourism": "viewpoint"}}, {"type": "Feature", "id": 2321669857, "geometry": {"type": "Point", "coordinates": [1.148916, 42.619465]}, "properties": {"name": "Mirador de Burgo", "tourism": "viewpoint"}}, {"type": "Feature", "id": 2361459826, "geometry": {"type": "Point", "coordinates": [1.317177, 42.538763]}, "properties": {"tourism": "viewpoint"}}, {"type": "Feature", "id": 2387349244, "geometry": {"type": "Point", "coordinates": [0.835003, 42.77775]}, "properties": {"name": "Eth Saut deth Pish", "name:ca": "Eth Saut deth Pish", "name:oc": "Eth Saut deth Pish", "tourism": "viewpoint"}}, {"type": "Feature", "id": 2405176126, "geometry": {"type": "Point", "coordinates": [1.300674, 42.787678]}, "properties": {"tourism": "viewpoint"}}, {"type": "Feature", "id": 2414865737, "geometry": {"type": "Point", "coordinates": [0.534938, 42.602941]}, "properties": {"name": "Mirador del Valle de Benasque", "tourism": "viewpoint"}}, {"type": "Feature", "id": 2427006270, "geometry": {"type": "Point", "coordinates": [0.722648, 42.833732]}, "properties": {"tourism": "viewpoint"}}, {"type": "Feature", "id": 2660214273, "geometry": {"type": "Point", "coordinates": [0.733536, 42.745056]}, "properties": {"name": "Guardader de Vilam\u00f2s", "source": "survey", "tourism": "viewpoint"}}, {"type": "Feature", "id": 2661287199, "geometry": {"type": "Point", "coordinates": [0.911445, 42.551249]}, "properties": {"name": "Mirador de Sant Esperit", "name:ca": "Mirador de Sant Esperit", "source": "survey", "tourism": "viewpoint"}}, {"type": "Feature", "id": 2830339371, "geometry": {"type": "Point", "coordinates": [0.781634, 42.670996]}, "properties": {"tourism": "viewpoint"}}, {"type": "Feature", "id": 2833135988, "geometry": {"type": "Point", "coordinates": [0.808777, 42.706592]}, "properties": {"tourism": "viewpoint"}}, {"type": "Feature", "id": 2837838995, "geometry": {"type": "Point", "coordinates": [0.73917, 42.744937]}, "properties": {"tourism": "viewpoint"}}, {"type": "Feature", "id": 2837839313, "geometry": {"type": "Point", "coordinates": [0.701637, 42.7638]}, "properties": {"tourism": "viewpoint"}}, {"type": "Feature", "id": 2837839317, "geometry": {"type": "Point", "coordinates": [0.701322, 42.763959]}, "properties": {"tourism": "viewpoint"}}, {"type": "Feature", "id": 2837839324, "geometry": {"type": "Point", "coordinates": [0.701361, 42.764282]}, "properties": {"tourism": "viewpoint"}}, {"type": "Feature", "id": 2866230824, "geometry": {"type": "Point", "coordinates": [0.610691, 42.30801]}, "properties": {"name": "Colle de Vent", "tourism": "viewpoint"}}, {"type": "Feature", "id": 2897519094, "geometry": {"type": "Point", "coordinates": [0.780864, 42.722913]}, "properties": {"name": "Guardader de Betlan", "tourism": "viewpoint"}}, {"type": "Feature", "id": 3010816230, "geometry": {"type": "Point", "coordinates": [0.979872, 42.575431]}, "properties": {"name": "Mirador del Portarr\u00f3", "tourism": "viewpoint"}}, {"type": "Feature", "id": 3028560320, "geometry": {"type": "Point", "coordinates": [0.423779, 42.823947]}, "properties": {"tourism": "viewpoint"}}, {"type": "Feature", "id": 3318627339, "geometry": {"type": "Point", "coordinates": [1.423794, 42.25351]}, "properties": {"tourism": "viewpoint"}}, {"type": "Feature", "id": 3404979125, "geometry": {"type": "Point", "coordinates": [1.128909, 42.596149]}, "properties": {"name": "Mirador de la Vinyeta", "tourism": "viewpoint"}}, {"type": "Feature", "id": 3459229022, "geometry": {"type": "Point", "coordinates": [1.154752, 42.548527]}, "properties": {"tourism": "viewpoint"}}, {"type": "Feature", "id": 3470875825, "geometry": {"type": "Point", "coordinates": [1.257932, 42.516484]}, "properties": {"tourism": "viewpoint"}}, {"type": "Feature", "id": 3470877583, "geometry": {"type": "Point", "coordinates": [1.288721, 42.528542]}, "properties": {"name": "Mirador de les Fargues", "tourism": "viewpoint"}}, {"type": "Feature", "id": 3678020948, "geometry": {"type": "Point", "coordinates": [0.718429, 42.398491]}, "properties": {"tourism": "viewpoint"}}, {"type": "Feature", "id": 3708946315, "geometry": {"type": "Point", "coordinates": [0.927428, 42.708237]}, "properties": {"tourism": "viewpoint"}}, {"type": "Feature", "id": 3734254087, "geometry": {"type": "Point", "coordinates": [0.550102, 42.729915]}, "properties": {"name": "Promontoire du Gouffre d'Enfer", "tourism": "viewpoint"}}, {"type": "Feature", "id": 3734254391, "geometry": {"type": "Point", "coordinates": [0.549747, 42.729652]}, "properties": {"tourism": "viewpoint"}}, {"type": "Feature", "id": 3761986301, "geometry": {"type": "Point", "coordinates": [0.531442, 42.597226]}, "properties": {"name": "Pichirillo", "tourism": "viewpoint"}}, {"type": "Feature", "id": 3989778971, "geometry": {"type": "Point", "coordinates": [0.844253, 42.513068]}, "properties": {"direction": "0", "name": "Mirador de les Cuirilles", "tourism": "viewpoint"}}, {"type": "Feature", "id": 4064866240, "geometry": {"type": "Point", "coordinates": [0.988391, 42.885918]}, "properties": {"description": "Table d\u00b4orientation", "map_type": "toposcope", "tourism": "viewpoint"}}, {"type": "Feature", "id": 4252273557, "geometry": {"type": "Point", "coordinates": [0.992849, 42.474092]}, "properties": {"name": "Mirador de Capdella", "tourism": "viewpoint"}}, {"type": "Feature", "id": 4283968800, "geometry": {"type": "Point", "coordinates": [0.864761, 42.882122]}, "properties": {"tourism": "viewpoint"}}, {"type": "Feature", "id": 4284059775, "geometry": {"type": "Point", "coordinates": [1.009101, 42.643334]}, "properties": {"alt_name": "Salt de Comials", "name": "Mirador de la Cascada de Gerber", "tourism": "viewpoint"}}, {"type": "Feature", "id": 4293248891, "geometry": {"type": "Point", "coordinates": [0.668468, 42.688938]}, "properties": {"name": "Pas de l'escalette", "tourism": "viewpoint"}}, {"type": "Feature", "id": 4293325889, "geometry": {"type": "Point", "coordinates": [0.603295, 42.700884]}, "properties": {"name": "Port de la Glere", "tourism": "viewpoint"}}, {"type": "Feature", "id": 4294908763, "geometry": {"type": "Point", "coordinates": [0.654501, 42.437573]}, "properties": {"ele": "1511", "name": "Sant Salvador", "name:ca": "Sant Salvador", "tourism": "viewpoint"}}, {"type": "Feature", "id": 4295018323, "geometry": {"type": "Point", "coordinates": [0.619281, 42.425255]}, "properties": {"name": "Mirador de Ansuils", "tourism": "viewpoint"}}, {"type": "Feature", "id": 4295220199, "geometry": {"type": "Point", "coordinates": [0.641277, 42.426045]}, "properties": {"name": "Mirador del Is\u00e1bena", "tourism": "viewpoint"}}, {"type": "Feature", "id": 4340740769, "geometry": {"type": "Point", "coordinates": [1.363025, 42.6209]}, "properties": {"name": "Mirador inferior de la Pica d'Estats", "opening_hours": "24/7", "tourism": "viewpoint"}}, {"type": "Feature", "id": 4347532242, "geometry": {"type": "Point", "coordinates": [1.257714, 42.646329]}, "properties": {"name": "Mirador del Castell de Tavascan", "tourism": "viewpoint"}}, {"type": "Feature", "id": 4354263855, "geometry": {"type": "Point", "coordinates": [1.294987, 42.487263]}, "properties": {"name": "Mirador de Coll de So", "tourism": "viewpoint"}}, {"type": "Feature", "id": 4372452399, "geometry": {"type": "Point", "coordinates": [0.624688, 42.723658]}, "properties": {"name": "Gouffre de Malaplatte", "tourism": "viewpoint"}}, {"type": "Feature", "id": 4624220035, "geometry": {"type": "Point", "coordinates": [0.746751, 42.629962]}, "properties": {"name": "Saut de Moli\u00e8res", "name:ca": "Salt de Mulleres", "tourism": "viewpoint"}}, {"type": "Feature", "id": 4726752958, "geometry": {"type": "Point", "coordinates": [0.410193, 42.77624]}, "properties": {"description": "Panorama sur Loudenvielle et Genos, le lac", "direction": "north", "name": "Panorama d'Ourcibats", "tourism": "viewpoint"}}, {"type": "Feature", "id": 4961951680, "geometry": {"type": "Point", "coordinates": [0.616093, 42.811462]}, "properties": {"direction": "S", "name": "Table d'orientation", "tourism": "viewpoint"}}, {"type": "Feature", "id": 5038678917, "geometry": {"type": "Point", "coordinates": [1.423267, 42.702599]}, "properties": {"tourism": "viewpoint"}}, {"type": "Feature", "id": 5075586185, "geometry": {"type": "Point", "coordinates": [1.397673, 42.504621]}, "properties": {"name": "Mirador de la collada de Conflent", "tourism": "viewpoint"}}, {"type": "Feature", "id": 5122334822, "geometry": {"type": "Point", "coordinates": [1.126597, 42.628105]}, "properties": {"description": "Mirador de l'Escombrera", "tourism": "viewpoint"}}, {"type": "Feature", "id": 5238429502, "geometry": {"type": "Point", "coordinates": [0.779142, 42.378092]}, "properties": {"tourism": "viewpoint"}}, {"type": "Feature", "id": 5380876340, "geometry": {"type": "Point", "coordinates": [0.751509, 42.385607]}, "properties": {"tourism": "viewpoint"}}, {"type": "Feature", "id": 5428854846, "geometry": {"type": "Point", "coordinates": [0.843301, 42.522755]}, "properties": {"direction": "-105", "name": "Mirador de la Santeta", "tourism": "viewpoint"}}, {"type": "Feature", "id": 5614758826, "geometry": {"type": "Point", "coordinates": [0.528097, 42.292325]}, "properties": {"name": "Mirador de la Airela", "tourism": "viewpoint", "wheelchair": "yes"}}, {"type": "Feature", "id": 5761460562, "geometry": {"type": "Point", "coordinates": [1.201308, 42.865186]}, "properties": {"tourism": "viewpoint"}}, {"type": "Feature", "id": 5799346417, "geometry": {"type": "Point", "coordinates": [0.558292, 42.731151]}, "properties": {"tourism": "viewpoint"}}, {"type": "Feature", "id": 5825526532, "geometry": {"type": "Point", "coordinates": [0.705147, 42.473624]}, "properties": {"name": "Mirador de Sant Urb\u00e0", "tourism": "viewpoint"}}, {"type": "Feature", "id": 5843372358, "geometry": {"type": "Point", "coordinates": [0.589964, 42.796007]}, "properties": {"tourism": "viewpoint"}}, {"type": "Feature", "id": 5843372359, "geometry": {"type": "Point", "coordinates": [0.578537, 42.769189]}, "properties": {"tourism": "viewpoint"}}, {"type": "Feature", "id": 5843372360, "geometry": {"type": "Point", "coordinates": [0.596586, 42.773595]}, "properties": {"tourism": "viewpoint"}}, {"type": "Feature", "id": 5843372361, "geometry": {"type": "Point", "coordinates": [0.582847, 42.778471]}, "properties": {"tourism": "viewpoint"}}, {"type": "Feature", "id": 5843372362, "geometry": {"type": "Point", "coordinates": [0.611379, 42.792862]}, "properties": {"tourism": "viewpoint"}}, {"type": "Feature", "id": 5843372363, "geometry": {"type": "Point", "coordinates": [0.589999, 42.798385]}, "properties": {"tourism": "viewpoint"}}, {"type": "Feature", "id": 5845846207, "geometry": {"type": "Point", "coordinates": [1.136508, 42.441442]}, "properties": {"name": "Mirador Colomer d'en Mart\u00ed", "tourism": "viewpoint"}}, {"type": "Feature", "id": 5848022891, "geometry": {"type": "Point", "coordinates": [1.228841, 42.571297]}, "properties": {"name": "Mirador del Pui de Bellero", "tourism": "viewpoint"}}, {"type": "Feature", "id": 5859370587, "geometry": {"type": "Point", "coordinates": [0.68033, 42.777878]}, "properties": {"description": "monument als guanyadors espanyols del Tour de France", "name": "Guardader deth Portinhon", "name:ca": "Port del Portinhon", "tourism": "viewpoint"}}, {"type": "Feature", "id": 5876556485, "geometry": {"type": "Point", "coordinates": [1.239415, 42.681305]}, "properties": {"tourism": "viewpoint"}}, {"type": "Feature", "id": 5884653485, "geometry": {"type": "Point", "coordinates": [0.967262, 42.374519]}, "properties": {"tourism": "viewpoint"}}, {"type": "Feature", "id": 5885174986, "geometry": {"type": "Point", "coordinates": [0.983853, 42.446355]}, "properties": {"name": "Mirador de la Mare de D\u00e9u de Fa", "tourism": "viewpoint"}}, {"type": "Feature", "id": 5897068944, "geometry": {"type": "Point", "coordinates": [0.563913, 42.762015]}, "properties": {"tourism": "viewpoint"}}, {"type": "Feature", "id": 5897068946, "geometry": {"type": "Point", "coordinates": [0.571646, 42.79909]}, "properties": {"tourism": "viewpoint"}}, {"type": "Feature", "id": 5897068947, "geometry": {"type": "Point", "coordinates": [0.508518, 42.741817]}, "properties": {"tourism": "viewpoint"}}, {"type": "Feature", "id": 5897068948, "geometry": {"type": "Point", "coordinates": [0.507749, 42.743471]}, "properties": {"tourism": "viewpoint"}}, {"type": "Feature", "id": 5897068949, "geometry": {"type": "Point", "coordinates": [0.519547, 42.746798]}, "properties": {"tourism": "viewpoint"}}, {"type": "Feature", "id": 5897068950, "geometry": {"type": "Point", "coordinates": [0.557088, 42.723487]}, "properties": {"tourism": "viewpoint"}}, {"type": "Feature", "id": 5897068951, "geometry": {"type": "Point", "coordinates": [0.55512, 42.720132]}, "properties": {"tourism": "viewpoint"}}, {"type": "Feature", "id": 5897068952, "geometry": {"type": "Point", "coordinates": [0.56394, 42.710437]}, "properties": {"tourism": "viewpoint"}}, {"type": "Feature", "id": 5897068953, "geometry": {"type": "Point", "coordinates": [0.613136, 42.810212]}, "properties": {"tourism": "viewpoint"}}, {"type": "Feature", "id": 5897068954, "geometry": {"type": "Point", "coordinates": [0.619185, 42.829691]}, "properties": {"direction": "200", "tourism": "viewpoint"}}, {"type": "Feature", "id": 5899267586, "geometry": {"type": "Point", "coordinates": [0.895648, 42.249255]}, "properties": {"tourism": "viewpoint"}}, {"type": "Feature", "id": 5923681285, "geometry": {"type": "Point", "coordinates": [0.991394, 42.473419]}, "properties": {"name": "Mirador de Sant Vicen\u00e7", "tourism": "viewpoint"}}, {"type": "Feature", "id": 5925939436, "geometry": {"type": "Point", "coordinates": [0.545772, 42.725141]}, "properties": {"name": "Ru d'Enfer", "tourism": "viewpoint"}}, {"type": "Feature", "id": 5926793887, "geometry": {"type": "Point", "coordinates": [0.47244, 42.563594]}, "properties": {"tourism": "viewpoint"}}, {"type": "Feature", "id": 6022091082, "geometry": {"type": "Point", "coordinates": [0.46637, 42.504093]}, "properties": {"name": "Mirador Pe\u00f1a del Sol", "tourism": "viewpoint"}}, {"type": "Feature", "id": 6025492063, "geometry": {"type": "Point", "coordinates": [0.51132, 42.664928]}, "properties": {"name": "Mirador Gorgas de los Galantes", "noexit": "yes", "tourism": "viewpoint"}}, {"type": "Feature", "id": 6038715985, "geometry": {"type": "Point", "coordinates": [1.249763, 42.637794]}, "properties": {"name": "Mirador de l'Escala", "tourism": "viewpoint"}}, {"type": "Feature", "id": 6044317035, "geometry": {"type": "Point", "coordinates": [1.247258, 42.59739]}, "properties": {"name": "Mirador del Cap de la Roca", "tourism": "viewpoint"}}, {"type": "Feature", "id": 6124817143, "geometry": {"type": "Point", "coordinates": [1.142949, 42.22909]}, "properties": {"tourism": "viewpoint"}}, {"type": "Feature", "id": 6322767253, "geometry": {"type": "Point", "coordinates": [0.754277, 42.326419]}, "properties": {"tourism": "viewpoint"}}, {"type": "Feature", "id": 6322767254, "geometry": {"type": "Point", "coordinates": [0.759574, 42.317313]}, "properties": {"tourism": "viewpoint"}}, {"type": "Feature", "id": 6336544165, "geometry": {"type": "Point", "coordinates": [1.308329, 42.772309]}, "properties": {"tourism": "viewpoint"}}, {"type": "Feature", "id": 6336545858, "geometry": {"type": "Point", "coordinates": [1.314046, 42.757694]}, "properties": {"tourism": "viewpoint"}}, {"type": "Feature", "id": 6478973185, "geometry": {"type": "Point", "coordinates": [0.927771, 42.853949]}, "properties": {"direction": "200", "tourism": "viewpoint"}}, {"type": "Feature", "id": 6562671886, "geometry": {"type": "Point", "coordinates": [1.3278, 42.383895]}, "properties": {"tourism": "viewpoint"}}, {"type": "Feature", "id": 6650967388, "geometry": {"type": "Point", "coordinates": [1.317045, 42.519699]}, "properties": {"name": "Mirador dels Meners", "tourism": "viewpoint"}}, {"type": "Feature", "id": 6684104266, "geometry": {"type": "Point", "coordinates": [0.709394, 42.684346]}, "properties": {"tourism": "viewpoint"}}, {"type": "Feature", "id": 6684874786, "geometry": {"type": "Point", "coordinates": [1.229052, 42.571415]}, "properties": {"name": "Mirador del Pui de Bellero", "tourism": "viewpoint"}}, {"type": "Feature", "id": 6698036743, "geometry": {"type": "Point", "coordinates": [0.734151, 42.255523]}, "properties": {"name": "Las Icnitas De Ar\u00e9n (Dinosaurs)", "tourism": "viewpoint"}}, {"type": "Feature", "id": 6788955287, "geometry": {"type": "Point", "coordinates": [1.314433, 42.548804]}, "properties": {"name": "Mirador de les bruixes", "tourism": "viewpoint"}}, {"type": "Feature", "id": 6790198287, "geometry": {"type": "Point", "coordinates": [1.271087, 42.497741]}, "properties": {"tourism": "viewpoint"}}, {"type": "Feature", "id": 6790699185, "geometry": {"type": "Point", "coordinates": [1.123862, 42.627435]}, "properties": {"tourism": "viewpoint"}}, {"type": "Feature", "id": 6790935685, "geometry": {"type": "Point", "coordinates": [1.315417, 42.544879]}, "properties": {"tourism": "viewpoint"}}, {"type": "Feature", "id": 6816120224, "geometry": {"type": "Point", "coordinates": [1.001239, 42.51939]}, "properties": {"tourism": "viewpoint"}}, {"type": "Feature", "id": 7101910621, "geometry": {"type": "Point", "coordinates": [1.219719, 42.374456]}, "properties": {"direction": "W", "name": "Mirador de Rubi\u00f3", "tourism": "viewpoint"}}, {"type": "Feature", "id": 7359544353, "geometry": {"type": "Point", "coordinates": [0.517652, 42.698107]}, "properties": {"tourism": "viewpoint"}}, {"type": "Feature", "id": 7790900785, "geometry": {"type": "Point", "coordinates": [1.372213, 42.702042]}, "properties": {"name": "Estany Montestaure", "name:ca": "Estany Montestaure", "tourism": "viewpoint"}}, {"type": "Feature", "id": 7798102748, "geometry": {"type": "Point", "coordinates": [1.294056, 42.749925]}, "properties": {"tourism": "viewpoint"}}, {"type": "Feature", "id": 7804181103, "geometry": {"type": "Point", "coordinates": [1.269626, 42.810533]}, "properties": {"tourism": "viewpoint"}}, {"type": "Feature", "id": 7814997196, "geometry": {"type": "Point", "coordinates": [1.226659, 42.669314]}, "properties": {"name": "Mirador del Corbiu", "tourism": "viewpoint"}}, {"type": "Feature", "id": 7832887265, "geometry": {"type": "Point", "coordinates": [0.757209, 42.382576]}, "properties": {"name": "Mirador de Cas\u00f2s", "tourism": "viewpoint"}}, {"type": "Feature", "id": 7842822831, "geometry": {"type": "Point", "coordinates": [1.138528, 42.360731]}, "properties": {"tourism": "viewpoint"}}, {"type": "Feature", "id": 7882102663, "geometry": {"type": "Point", "coordinates": [0.768966, 42.437576]}, "properties": {"direction": "-50", "name": "Mirador de Sant Salvador", "tourism": "viewpoint"}}, {"type": "Feature", "id": 7909172429, "geometry": {"type": "Point", "coordinates": [0.58911, 42.669888]}, "properties": {"name": "Mirador de las Cascadas", "tourism": "viewpoint"}}, {"type": "Feature", "id": 8000499437, "geometry": {"type": "Point", "coordinates": [1.250865, 42.817509]}, "properties": {"tourism": "viewpoint"}}, {"type": "Feature", "id": 8047455385, "geometry": {"type": "Point", "coordinates": [0.895275, 42.551544]}, "properties": {"tourism": "viewpoint"}}, {"type": "Feature", "id": 8047457485, "geometry": {"type": "Point", "coordinates": [0.895361, 42.551213]}, "properties": {"tourism": "viewpoint"}}, {"type": "Feature", "id": 8069931659, "geometry": {"type": "Point", "coordinates": [1.253926, 42.817696]}, "properties": {"tourism": "viewpoint"}}, {"type": "Feature", "id": 8069931665, "geometry": {"type": "Point", "coordinates": [1.254642, 42.818483]}, "properties": {"tourism": "viewpoint"}}, {"type": "Feature", "id": 8069973985, "geometry": {"type": "Point", "coordinates": [1.259774, 42.817172]}, "properties": {"tourism": "viewpoint"}}, {"type": "Feature", "id": 8095032831, "geometry": {"type": "Point", "coordinates": [1.249398, 42.821182]}, "properties": {"tourism": "viewpoint"}}, {"type": "Feature", "id": 8145732807, "geometry": {"type": "Point", "coordinates": [1.241083, 42.823988]}, "properties": {"tourism": "viewpoint"}}, {"type": "Feature", "id": 8148506850, "geometry": {"type": "Point", "coordinates": [1.227614, 42.82504]}, "properties": {"tourism": "viewpoint"}}, {"type": "Feature", "id": 8287322457, "geometry": {"type": "Point", "coordinates": [1.059824, 42.886915]}, "properties": {"direction": "90-270", "tourism": "viewpoint"}}, {"type": "Feature", "id": 8335363859, "geometry": {"type": "Point", "coordinates": [0.884433, 42.278461]}, "properties": {"source": "survey;gps", "tourism": "viewpoint"}}, {"type": "Feature", "id": 8335363904, "geometry": {"type": "Point", "coordinates": [0.899012, 42.28229]}, "properties": {"source": "survey;gps", "tourism": "viewpoint"}}, {"type": "Feature", "id": 8384699409, "geometry": {"type": "Point", "coordinates": [0.863643, 42.370159]}, "properties": {"source": "survey", "tourism": "viewpoint"}}, {"type": "Feature", "id": 8457580962, "geometry": {"type": "Point", "coordinates": [0.437679, 42.776486]}, "properties": {"direction": "180", "tourism": "viewpoint"}}, {"type": "Feature", "id": 8483333756, "geometry": {"type": "Point", "coordinates": [1.157239, 42.889756]}, "properties": {"description": "Table d'interpr\u00e9tation du paysage", "tourism": "viewpoint"}}, {"type": "Feature", "id": 8598534392, "geometry": {"type": "Point", "coordinates": [1.328734, 42.765438]}, "properties": {"tourism": "viewpoint"}}, {"type": "Feature", "id": 8680637748, "geometry": {"type": "Point", "coordinates": [1.081203, 42.851062]}, "properties": {"tourism": "viewpoint"}}, {"type": "Feature", "id": 8684721141, "geometry": {"type": "Point", "coordinates": [1.281912, 42.919325]}, "properties": {"tourism": "viewpoint"}}, {"type": "Feature", "id": 8701128578, "geometry": {"type": "Point", "coordinates": [1.289188, 42.921071]}, "properties": {"tourism": "viewpoint"}}, {"type": "Feature", "id": 8706703292, "geometry": {"type": "Point", "coordinates": [1.371908, 42.860962]}, "properties": {"direction": "200", "tourism": "viewpoint"}}, {"type": "Feature", "id": 8724312564, "geometry": {"type": "Point", "coordinates": [0.860975, 42.922103]}, "properties": {"tourism": "viewpoint"}}, {"type": "Feature", "id": 8768901864, "geometry": {"type": "Point", "coordinates": [1.377201, 42.894854]}, "properties": {"tourism": "viewpoint"}}, {"type": "Feature", "id": 8872034319, "geometry": {"type": "Point", "coordinates": [0.724652, 42.470962]}, "properties": {"tourism": "viewpoint"}}, {"type": "Feature", "id": 8874756339, "geometry": {"type": "Point", "coordinates": [0.712024, 42.757695]}, "properties": {"tourism": "viewpoint"}}, {"type": "Feature", "id": 8882053423, "geometry": {"type": "Point", "coordinates": [0.833435, 42.522151]}, "properties": {"tourism": "viewpoint"}}, {"type": "Feature", "id": 8883181218, "geometry": {"type": "Point", "coordinates": [1.004112, 42.582938]}, "properties": {"tourism": "viewpoint"}}, {"type": "Feature", "id": 8887176617, "geometry": {"type": "Point", "coordinates": [0.795812, 42.823896]}, "properties": {"tourism": "viewpoint"}}, {"type": "Feature", "id": 8900191974, "geometry": {"type": "Point", "coordinates": [0.826973, 42.524596]}, "properties": {"tourism": "viewpoint"}}, {"type": "Feature", "id": 8936293309, "geometry": {"type": "Point", "coordinates": [0.670112, 42.911819]}, "properties": {"direction": "225-90", "name": "Table d'orientation", "tourism": "viewpoint"}}, {"type": "Feature", "id": 8968612913, "geometry": {"type": "Point", "coordinates": [0.865271, 42.851496]}, "properties": {"tourism": "viewpoint"}}, {"type": "Feature", "id": 8979507833, "geometry": {"type": "Point", "coordinates": [0.811163, 42.495219]}, "properties": {"direction": "315", "tourism": "viewpoint"}}, {"type": "Feature", "id": 8979680112, "geometry": {"type": "Point", "coordinates": [0.78843, 42.489494]}, "properties": {"direction": "300", "name": "Mirador de l'Escaleta", "tourism": "viewpoint"}}, {"type": "Feature", "id": 8996939383, "geometry": {"type": "Point", "coordinates": [1.139831, 42.392757]}, "properties": {"name": "Mirador de la Serreta", "tourism": "viewpoint"}}, {"type": "Feature", "id": 8998308566, "geometry": {"type": "Point", "coordinates": [0.877221, 42.605333]}, "properties": {"name": "Mirador del Ventosa i Calvell", "tourism": "viewpoint"}}, {"type": "Feature", "id": 9028725983, "geometry": {"type": "Point", "coordinates": [1.358766, 42.4552]}, "properties": {"name": "Mirador del Coll del Grau", "tourism": "viewpoint"}}, {"type": "Feature", "id": 9028973093, "geometry": {"type": "Point", "coordinates": [1.403016, 42.471778]}, "properties": {"name": "Mirador de Coll d'Ares (Oest)", "tourism": "viewpoint"}}, {"type": "Feature", "id": 9028992920, "geometry": {"type": "Point", "coordinates": [1.40416, 42.472065]}, "properties": {"name": "Mirador de Coll d'Ares (Est)", "tourism": "viewpoint"}}, {"type": "Feature", "id": 9051923930, "geometry": {"type": "Point", "coordinates": [0.930612, 42.646795]}, "properties": {"tourism": "viewpoint"}}, {"type": "Feature", "id": 9066811275, "geometry": {"type": "Point", "coordinates": [0.510718, 42.664703]}, "properties": {"name": "Mirador Gorgas de los Galantes", "tourism": "viewpoint"}}, {"type": "Feature", "id": 9143073206, "geometry": {"type": "Point", "coordinates": [1.415371, 42.706743]}, "properties": {"tourism": "viewpoint"}}, {"type": "Feature", "id": 9144210849, "geometry": {"type": "Point", "coordinates": [1.083423, 42.457226]}, "properties": {"name": "Mirador de Canasso", "tourism": "viewpoint"}}, {"type": "Feature", "id": 9144210850, "geometry": {"type": "Point", "coordinates": [1.09038, 42.458785]}, "properties": {"name": "Mirador de Sant Jaume", "tourism": "viewpoint"}}, {"type": "Feature", "id": 9167688683, "geometry": {"type": "Point", "coordinates": [0.548483, 42.836536]}, "properties": {"direction": "S", "name": "Table d'orientation", "tourism": "viewpoint"}}, {"type": "Feature", "id": 9167688684, "geometry": {"type": "Point", "coordinates": [0.576865, 42.763432]}, "properties": {"direction": "0-360", "name": "Table d'orientation", "tourism": "viewpoint"}}, {"type": "Feature", "id": 9207195431, "geometry": {"type": "Point", "coordinates": [1.271842, 42.872453]}, "properties": {"name": "Plateau de d\u00e9couverte du paysage de cominac", "tourism": "viewpoint"}}, {"type": "Feature", "id": 9547744972, "geometry": {"type": "Point", "coordinates": [0.61909, 42.425326]}, "properties": {"direction": "180", "tourism": "viewpoint"}}, {"type": "Feature", "id": 9754228907, "geometry": {"type": "Point", "coordinates": [1.260649, 42.604366]}, "properties": {"tourism": "viewpoint"}}, {"type": "Feature", "id": 9902213210, "geometry": {"type": "Point", "coordinates": [0.938143, 42.88649]}, "properties": {"direction": "200", "tourism": "viewpoint"}}, {"type": "Feature", "id": 9951354524, "geometry": {"type": "Point", "coordinates": [0.509421, 42.602242]}, "properties": {"tourism": "viewpoint"}}, {"type": "Feature", "id": 9953067711, "geometry": {"type": "Point", "coordinates": [0.53388, 42.604593]}, "properties": {"tourism": "viewpoint"}}, {"type": "Feature", "id": 9953224571, "geometry": {"type": "Point", "coordinates": [0.528104, 42.59308]}, "properties": {"tourism": "viewpoint"}}, {"type": "Feature", "id": 9961588521, "geometry": {"type": "Point", "coordinates": [0.521546, 42.605165]}, "properties": {"tourism": "viewpoint"}}, {"type": "Feature", "id": 10084871398, "geometry": {"type": "Point", "coordinates": [0.74828, 42.38941]}, "properties": {"direction": "180", "name": "Mirador del Monasterio de Lavaix", "tourism": "viewpoint"}}, {"type": "Feature", "id": 10084873401, "geometry": {"type": "Point", "coordinates": [0.745346, 42.388255]}, "properties": {"direction": "180", "tourism": "viewpoint"}}, {"type": "Feature", "id": 10089764818, "geometry": {"type": "Point", "coordinates": [1.419953, 42.546523]}, "properties": {"name": "Port de Cab\u00fas", "tourism": "viewpoint"}}, {"type": "Feature", "id": 10155311043, "geometry": {"type": "Point", "coordinates": [1.300898, 42.77131]}, "properties": {"tourism": "viewpoint"}}, {"type": "Feature", "id": 10185562586, "geometry": {"type": "Point", "coordinates": [0.846366, 42.4087]}, "properties": {"tourism": "viewpoint"}}, {"type": "Feature", "id": 10556495276, "geometry": {"type": "Point", "coordinates": [1.223885, 42.837061]}, "properties": {"name": "1082", "tourism": "viewpoint"}}, {"type": "Feature", "id": 10655268562, "geometry": {"type": "Point", "coordinates": [0.577044, 42.799278]}, "properties": {"tourism": "viewpoint"}}, {"type": "Feature", "id": 10890886621, "geometry": {"type": "Point", "coordinates": [1.310086, 42.592403]}, "properties": {"name": "Mirador del Monteixo", "tourism": "viewpoint"}}, {"type": "Feature", "id": 10890886629, "geometry": {"type": "Point", "coordinates": [1.166948, 42.545753]}, "properties": {"name": "Mirador del Burgal", "tourism": "viewpoint"}}, {"type": "Feature", "id": 10902224797, "geometry": {"type": "Point", "coordinates": [1.087846, 42.677739]}, "properties": {"tourism": "viewpoint"}}, {"type": "Feature", "id": 10908742795, "geometry": {"type": "Point", "coordinates": [1.120977, 42.600925]}, "properties": {"tourism": "viewpoint"}}, {"type": "Feature", "id": 10991968576, "geometry": {"type": "Point", "coordinates": [0.921769, 42.626517]}, "properties": {"tourism": "viewpoint"}}, {"type": "Feature", "id": 11017481532, "geometry": {"type": "Point", "coordinates": [1.19571, 42.362281]}, "properties": {"name": "Mirador de Perasella", "tourism": "viewpoint"}}, {"type": "Feature", "id": 11040006205, "geometry": {"type": "Point", "coordinates": [0.611784, 42.766827]}, "properties": {"tourism": "viewpoint"}}, {"type": "Feature", "id": 11050440434, "geometry": {"type": "Point", "coordinates": [0.954877, 42.387095]}, "properties": {"tourism": "viewpoint"}}, {"type": "Feature", "id": 11123810687, "geometry": {"type": "Point", "coordinates": [1.407964, 42.70876]}, "properties": {"tourism": "viewpoint"}}, {"type": "Feature", "id": 11158467556, "geometry": {"type": "Point", "coordinates": [0.466976, 42.52909]}, "properties": {"name": "Mirador de Ch\u00eda", "tourism": "viewpoint"}}, {"type": "Feature", "id": 11173574840, "geometry": {"type": "Point", "coordinates": [0.500103, 42.598377]}, "properties": {"name": "Mirador de la Predicadera", "tourism": "viewpoint"}}, {"type": "Feature", "id": 11212152637, "geometry": {"type": "Point", "coordinates": [0.715874, 42.476683]}, "properties": {"name": "Mirador dels estels", "tourism": "viewpoint"}}, {"type": "Feature", "id": 11217831138, "geometry": {"type": "Point", "coordinates": [0.967113, 42.670726]}, "properties": {"name": "Guardar dera Val de Ruda", "tourism": "viewpoint"}}, {"type": "Feature", "id": 11220463905, "geometry": {"type": "Point", "coordinates": [0.73308, 42.741648]}, "properties": {"description": "Vistes de l'Aneto i la Maladeta", "tourism": "viewpoint"}}, {"type": "Feature", "id": 11241216477, "geometry": {"type": "Point", "coordinates": [0.504109, 42.645705]}, "properties": {"direction": "25", "tourism": "viewpoint"}}, {"type": "Feature", "id": 11253411799, "geometry": {"type": "Point", "coordinates": [0.477242, 42.615665]}, "properties": {"tourism": "viewpoint"}}, {"type": "Feature", "id": 11314466819, "geometry": {"type": "Point", "coordinates": [1.374226, 42.792913]}, "properties": {"tourism": "viewpoint"}}, {"type": "Feature", "id": 11353629617, "geometry": {"type": "Point", "coordinates": [1.017761, 42.464718]}, "properties": {"name": "Mirador de la Vall Fosca", "tourism": "viewpoint"}}, {"type": "Feature", "id": 11632325112, "geometry": {"type": "Point", "coordinates": [1.202131, 42.921662]}, "properties": {"direction": "180", "tourism": "viewpoint"}}, {"type": "Feature", "id": 11642153992, "geometry": {"type": "Point", "coordinates": [1.28457, 42.831288]}, "properties": {"direction": "320", "tourism": "viewpoint"}}, {"type": "Feature", "id": 11673917195, "geometry": {"type": "Point", "coordinates": [1.149468, 42.867637]}, "properties": {"tourism": "viewpoint"}}, {"type": "Feature", "id": 11733500978, "geometry": {"type": "Point", "coordinates": [1.375978, 42.805395]}, "properties": {"tourism": "viewpoint"}}, {"type": "Feature", "id": 11733500979, "geometry": {"type": "Point", "coordinates": [1.377965, 42.804728]}, "properties": {"tourism": "viewpoint"}}, {"type": "Feature", "id": 11754131967, "geometry": {"type": "Point", "coordinates": [0.728411, 42.746056]}, "properties": {"tourism": "viewpoint"}}, {"type": "Feature", "id": 299124865, "geometry": {"type": "LineString", "coordinates": [[0.955858, 42.394293], [0.955903, 42.394286], [0.955959, 42.394285], [0.955998, 42.394289], [0.956053, 42.394296], [0.956118, 42.394309], [0.956148, 42.39432], [0.956127, 42.394393], [0.956084, 42.394359], [0.956052, 42.394337], [0.956011, 42.394321], [0.955947, 42.394306], [0.955858, 42.394293]]}, "properties": {"area": "yes", "name": "Mirador d'Obeix", "tourism": "viewpoint"}}, {"type": "Feature", "id": 333384547, "geometry": {"type": "LineString", "coordinates": [[1.130897, 42.599502], [1.130927, 42.599423], [1.130891, 42.599415], [1.13086, 42.599494], [1.130897, 42.599502]]}, "properties": {"building": "yes", "leisure": "bird_hide", "tourism": "viewpoint"}}, {"type": "Feature", "id": 1021735690, "geometry": {"type": "LineString", "coordinates": [[0.971116, 42.69183], [0.971281, 42.691905], [0.971369, 42.691807], [0.971192, 42.691721], [0.971144, 42.691728], [0.971093, 42.691792], [0.971116, 42.69183]]}, "properties": {"name": "Mirador de Baqueira Beret", "tourism": "viewpoint"}}, {"type": "Feature", "id": 1156807511, "geometry": {"type": "LineString", "coordinates": [[1.299016, 42.341617], [1.299143, 42.341565], [1.299129, 42.341541], [1.2991, 42.341563], [1.29901, 42.341597], [1.299012, 42.341607], [1.299016, 42.341617]]}, "properties": {"area": "yes", "bridge": "yes", "layer": "1", "name": "Mirador de la Creu de Guils", "tourism": "viewpoint"}}]}