{"type": "FeatureCollection", "features": [{"type": "Feature", "id": 4826755284, "geometry": {"type": "Point", "coordinates": [0.616872, 42.891131]}, "properties": {"artwork_type": "statue", "name": "Statue du Berger", "tourism": "artwork"}}, {"type": "Feature", "id": 4927138136, "geometry": {"type": "Point", "coordinates": [0.484152, 42.513149]}, "properties": {"artwork_type": "sculpture", "tourism": "artwork"}}, {"type": "Feature", "id": 4986880687, "geometry": {"type": "Point", "coordinates": [0.691747, 42.915762]}, "properties": {"artwork_type": "sculpture", "tourism": "artwork"}}, {"type": "Feature", "id": 4986880690, "geometry": {"type": "Point", "coordinates": [0.691672, 42.912399]}, "properties": {"artwork_type": "sculpture", "tourism": "artwork"}}, {"type": "Feature", "id": 5053769216, "geometry": {"type": "Point", "coordinates": [0.594512, 42.784645]}, "properties": {"name": "Statue d'Etigny", "tourism": "artwork"}}, {"type": "Feature", "id": 5104140901, "geometry": {"type": "Point", "coordinates": [1.027833, 42.27136]}, "properties": {"artwork_type": "sculpture", "name": "Monument als raiers", "tourism": "artwork"}}, {"type": "Feature", "id": 5859372287, "geometry": {"type": "Point", "coordinates": [0.680402, 42.777916]}, "properties": {"name": "Monument als guanyadors espanyols del Tour de France", "tourism": "artwork"}}, {"type": "Feature", "id": 5930025610, "geometry": {"type": "Point", "coordinates": [0.796833, 42.705683]}, "properties": {"artwork_type": "installation", "image": "https://i.imgur.com/EKfyn6S.jpg", "image:0": "https://i.imgur.com/spsLX8i.jpg", "name": "La Caseta", "tourism": "artwork"}}, {"type": "Feature", "id": 6698036741, "geometry": {"type": "Point", "coordinates": [0.734032, 42.255705]}, "properties": {"name": "Dinosaur Statue", "tourism": "artwork"}}, {"type": "Feature", "id": 6787806085, "geometry": {"type": "Point", "coordinates": [1.06574, 42.324229]}, "properties": {"amenity": "drinking_water", "artwork_type": "sculpture", "material": "metal", "name": "gall fer", "name:ca": "gall fer", "tourism": "artwork"}}, {"type": "Feature", "id": 6787812585, "geometry": {"type": "Point", "coordinates": [1.0655, 42.323714]}, "properties": {"artwork_type": "sculpture", "material": "metal", "name": "La Morisca", "name:ca": "La Morisca", "tourism": "artwork"}}, {"type": "Feature", "id": 6787898085, "geometry": {"type": "Point", "coordinates": [1.064615, 42.323473]}, "properties": {"artwork_type": "sculpture", "material": "metal", "name": "Horitz\u00f3. Albirant collegats", "tourism": "artwork"}}, {"type": "Feature", "id": 6790046085, "geometry": {"type": "Point", "coordinates": [1.326383, 42.587944]}, "properties": {"artwork_type": "sculpture", "material": "metal", "name": "Forjant el temps", "name:ca": "Forjant el temps", "tourism": "artwork"}}, {"type": "Feature", "id": 6790935785, "geometry": {"type": "Point", "coordinates": [1.315297, 42.544979]}, "properties": {"name": "Ferro, art i falles", "tourism": "artwork"}}, {"type": "Feature", "id": 6811613753, "geometry": {"type": "Point", "coordinates": [1.316574, 42.54933]}, "properties": {"artwork_type": "sculpture", "material": "metal", "tourism": "artwork"}}, {"type": "Feature", "id": 6811613758, "geometry": {"type": "Point", "coordinates": [1.317072, 42.548707]}, "properties": {"artwork_type": "sculpture", "material": "metal", "tourism": "artwork"}}, {"type": "Feature", "id": 6811613759, "geometry": {"type": "Point", "coordinates": [1.316372, 42.549245]}, "properties": {"artwork_type": "sculpture", "material": "metal", "tourism": "artwork"}}, {"type": "Feature", "id": 7047315227, "geometry": {"type": "Point", "coordinates": [0.90117, 42.706743]}, "properties": {"artwork_type": "sculpture", "image": "https://i.imgur.com/TWalZDi.jpg", "material": "metal", "name": "Porc Senglar", "tourism": "artwork"}}, {"type": "Feature", "id": 8569150457, "geometry": {"type": "Point", "coordinates": [0.741481, 42.869558]}, "properties": {"addr:city": "Fos", "addr:postcode": "31440", "addr:street": "Avenue Jean Jaur\u00e8s", "artwork_type": "statue", "name": "Status de la Sainte Vi\u00e8rge", "tourism": "artwork"}}, {"type": "Feature", "id": 8589887102, "geometry": {"type": "Point", "coordinates": [0.735141, 42.875358]}, "properties": {"artwork_type": "statue", "name": "La Statue de Sainte-Barbe", "tourism": "artwork"}}, {"type": "Feature", "id": 8874196117, "geometry": {"type": "Point", "coordinates": [0.793721, 42.702797]}, "properties": {"artwork_type": "sculpture", "image": "https://i.imgur.com/m1k9Ate.jpg", "tourism": "artwork"}}, {"type": "Feature", "id": 8879963717, "geometry": {"type": "Point", "coordinates": [0.692916, 42.785221]}, "properties": {"name": "Escultura ara Mongeta de Boss\u00f2st", "tourism": "artwork"}}, {"type": "Feature", "id": 8881123513, "geometry": {"type": "Point", "coordinates": [0.795761, 42.701336]}, "properties": {"artwork_subject": "talla policromada segle XII", "artwork_type": "sculpture", "image": "https://i.imgur.com/xlx02uK.jpg", "material": "wood", "name": "Crist de Mijaran", "tourism": "artwork", "wikidata": "Q3534100", "wikipedia": "ca:Crist de Mijaran"}}, {"type": "Feature", "id": 8882042517, "geometry": {"type": "Point", "coordinates": [0.796409, 42.7165]}, "properties": {"tourism": "artwork"}}, {"type": "Feature", "id": 8882054519, "geometry": {"type": "Point", "coordinates": [0.833476, 42.522126]}, "properties": {"tourism": "artwork"}}, {"type": "Feature", "id": 8895564518, "geometry": {"type": "Point", "coordinates": [0.902818, 42.707039]}, "properties": {"artwork_type": "sculpture", "image": "https://i.imgur.com/gETnKj1.jpg", "name": "Garona espa\u00f1ol", "tourism": "artwork"}}, {"type": "Feature", "id": 8896009958, "geometry": {"type": "Point", "coordinates": [0.9021, 42.707522]}, "properties": {"artwork_type": "sculpture", "image": "https://i.imgur.com/Bmd3zs2.jpg", "image:0": "https://i.imgur.com/zLe3NT3.jpg", "image:1": "https://i.imgur.com/aeqwStr.jpg", "material": "wood", "name": "Crist de Salard\u00fa", "tourism": "artwork"}}, {"type": "Feature", "id": 8899216455, "geometry": {"type": "Point", "coordinates": [0.839832, 42.560128]}, "properties": {"artwork_type": "statue", "name": "isard", "name:ca": "isard", "tourism": "artwork"}}, {"type": "Feature", "id": 9236160646, "geometry": {"type": "Point", "coordinates": [0.595139, 42.784427]}, "properties": {"artwork_type": "sculpture", "name": "Ours", "tourism": "artwork"}}, {"type": "Feature", "id": 9631594304, "geometry": {"type": "Point", "coordinates": [1.203286, 42.863781]}, "properties": {"artwork_type": "statue", "tourism": "artwork"}}, {"type": "Feature", "id": 9962650409, "geometry": {"type": "Point", "coordinates": [0.522194, 42.603052]}, "properties": {"artwork_type": "statue", "tourism": "artwork"}}, {"type": "Feature", "id": 11218352614, "geometry": {"type": "Point", "coordinates": [0.79476, 42.70234]}, "properties": {"artwork_type": "sculpture", "image": "https://i.imgur.com/6DMZabP.jpg", "tourism": "artwork"}}, {"type": "Feature", "id": 11220109670, "geometry": {"type": "Point", "coordinates": [0.692249, 42.783495]}, "properties": {"artwork_type": "mural", "tourism": "artwork"}}, {"type": "Feature", "id": 11222881537, "geometry": {"type": "Point", "coordinates": [0.900553, 42.707001]}, "properties": {"tourism": "artwork"}}, {"type": "Feature", "id": 11222965637, "geometry": {"type": "Point", "coordinates": [0.871773, 42.699264]}, "properties": {"image": "https://i.imgur.com/hawmfOZ.jpg", "tourism": "artwork"}}, {"type": "Feature", "id": 11224433638, "geometry": {"type": "Point", "coordinates": [0.797584, 42.70087]}, "properties": {"historic": "memorial", "image": "https://i.imgur.com/LqDpqzm.jpg", "memorial": "statue", "tourism": "artwork"}}, {"type": "Feature", "id": 11228517457, "geometry": {"type": "Point", "coordinates": [1.298816, 42.341842]}, "properties": {"artwork_type": "sculpture", "image": "https://i.imgur.com/a0Swcmi.jpg", "tourism": "artwork"}}, {"type": "Feature", "id": 11236009178, "geometry": {"type": "Point", "coordinates": [1.214409, 42.873346]}, "properties": {"artwork_type": "statue", "tourism": "artwork"}}, {"type": "Feature", "id": 11236009184, "geometry": {"type": "Point", "coordinates": [1.214304, 42.873815]}, "properties": {"artwork_type": "statue", "tourism": "artwork"}}, {"type": "Feature", "id": 11241122967, "geometry": {"type": "Point", "coordinates": [0.92969, 42.699968]}, "properties": {"artwork_type": "sculpture", "tourism": "artwork"}}, {"type": "Feature", "id": 626214329, "geometry": {"type": "LineString", "coordinates": [[1.193021, 42.290769], [1.193082, 42.290716], [1.193059, 42.290703], [1.193083, 42.290683], [1.193042, 42.290664], [1.192945, 42.290647], [1.192939, 42.290667], [1.192921, 42.29067], [1.192914, 42.290693], [1.192896, 42.290703], [1.192873, 42.290718], [1.192866, 42.290744], [1.192921, 42.290757], [1.193002, 42.290791], [1.193011, 42.29078], [1.193021, 42.290769]]}, "properties": {"area": "yes", "name": "Pla\u00e7a de la Turbina", "name:ca": "Pla\u00e7a de la Turbina", "tourism": "artwork"}}]}