{"type": "FeatureCollection", "features": [{"type": "Feature", "id": 506075082, "geometry": {"type": "Point", "coordinates": [1.174472, 42.851172]}, "properties": {"name": "Gite d'Aunac", "tourism": "alpine_hut"}}, {"type": "Feature", "id": 529837323, "geometry": {"type": "Point", "coordinates": [1.009104, 42.578801]}, "properties": {"alt_name": "Refugi de Sant Maurici", "alt_name:ca": "Refugi de Sant Maurici", "capacity": "24", "ele": "1950", "name": "Refugi Ernest Mallafr\u00e9", "name:ca": "Refugi Ernest Mallafr\u00e9", "operator": "FEEC", "phone": "+34 973250118", "tourism": "alpine_hut", "website": "https://www.feec.cat/refugi/refugi-mallafre-sant-maurici/", "wikidata": "Q11945062", "wikipedia": "ca:Refugi Ernest Mallafr\u00e9"}}, {"type": "Feature", "id": 666819668, "geometry": {"type": "Point", "coordinates": [0.942367, 42.572591]}, "properties": {"capacity": "47", "ele": "1984.8", "name": "Refugi d'Estany Llong", "name:ca": "Refugi d'Estany Llong", "phone": "+34 973299545", "tourism": "alpine_hut", "wikidata": "Q17603174", "wikipedia": "ca:Refugi d'Estany Llong"}}, {"type": "Feature", "id": 963809600, "geometry": {"type": "Point", "coordinates": [0.621406, 42.312901]}, "properties": {"name": "Refuge du Coll de Vent -", "note": "1134", "tourism": "alpine_hut"}}, {"type": "Feature", "id": 963809815, "geometry": {"type": "Point", "coordinates": [1.287288, 42.417719]}, "properties": {"ele": "1690", "email": "info@santjoandelerm.com", "name": "la Basseta", "name:ca": "la Basseta", "operator": "E.M.D. Vila i Vall de Castellb\u00f3", "phone": "+34 973 29 81 24", "source": "Federaci\u00f3 d'Entitats Excursionistes de Catalunya", "tourism": "alpine_hut", "website": "http://www.santjoandelerm.com/basseta.htm", "wikidata": "Q11945096", "wikipedia": "ca:Refugi de la Basseta"}}, {"type": "Feature", "id": 968203416, "geometry": {"type": "Point", "coordinates": [0.655013, 42.721077]}, "properties": {"name": "Hospice de France", "note": "167", "source": "Association \"Refuges et cabanes des Pyr\u00e9n\u00e9es\"", "tourism": "alpine_hut"}}, {"type": "Feature", "id": 968204951, "geometry": {"type": "Point", "coordinates": [1.364692, 42.451847]}, "properties": {"capacity": "16", "ele": "1840", "name": "Refugi forestal del Ras de Conques", "name:ca": "Refugi forestal del Ras de Conques", "phone": "+34 973 091154", "tourism": "alpine_hut", "website": "http://www.talim.cat/organitzacio/refugi-ras-de-conques", "wikidata": "Q11945067", "wikipedia": "ca:Refugi Ras de Conques"}}, {"type": "Feature", "id": 4040097129, "geometry": {"type": "Point", "coordinates": [1.072734, 42.597562]}, "properties": {"capacity": "23", "ele": "2015.8", "name": "Refugi del Pla de la Font", "name:ca": "Refugi del Pla de la Font", "phone": "+34 619930771", "tourism": "alpine_hut", "website": "http://www.pladelafont.com", "wikidata": "Q18006183", "wikipedia": "ca:Refugi del Pla de la Font"}}, {"type": "Feature", "id": 4288622187, "geometry": {"type": "Point", "coordinates": [1.107224, 42.725749]}, "properties": {"addr:city": "Al\u00f3s d \u2018Isil Alt Aneu (Leida)", "addr:postcode": "25586", "addr:street": "Crta. de Bonab\u00e9 s/n", "description": "El refugio dispone de 24 camas repartidas en una habitaci\u00f3n de 11 camas, dos habitaciones de 4 camas y un altillo con 5 colchones. En todas las habitaciones hay mantas y almohadas.", "ele": "1374", "name": "Refugi del Fornet", "name:ca": "Refugi del Fornet", "name:es": "Refugio del Fornet", "note": "En la primera planta se encuentran la sala de estar, el bar y el restaurante. Ofrecemos desayunos y cenas para los pernoctantes y al mediod\u00eda ofrecemos especialidades de la casa a escoger de la carta y tambi\u00e9n carne a la brasa.", "phone": "+34 973091156; +34 618146705; +34 618146706", "tourism": "alpine_hut", "website": "http://refugidelfornet.es", "wikidata": "Q11945105", "wikipedia": "ca:Refugi del Fornet"}}, {"type": "Feature", "id": 4299695951, "geometry": {"type": "Point", "coordinates": [1.218745, 42.677925]}, "properties": {"ele": "1722", "email": "info@refugipletadelprat.com", "name": "Refugi de la Pleta del Prat", "name:ca": "Refugi de la Pleta del Prat", "operator": "Ajuntament de Lladorre", "tourism": "alpine_hut", "website": "http://www.refugipletadelprat.com/", "wikidata": "Q11945101", "wikipedia": "ca:Refugi de la Pleta del Prat"}}, {"type": "Feature", "id": 4357661506, "geometry": {"type": "Point", "coordinates": [1.13664, 42.273966]}, "properties": {"alt_name": "Casa Mir\u00f3", "alt_name:ca": "Casa Mir\u00f3", "capacity": "43", "ele": "1478", "name": "Refugi Cuberes (Casa Mir\u00f3)", "name:ca": "Refugi de Cuberes", "phone": "+34 619847866", "tourism": "alpine_hut", "website": "https://www.refugicuberes.com/", "wikidata": "Q11945080", "wikipedia": "ca:Refugi de Cuberes"}}, {"type": "Feature", "id": 4611838268, "geometry": {"type": "Point", "coordinates": [1.210481, 42.588015]}, "properties": {"ele": "1260", "email": "refugiestaon@gmail.com", "name": "Refugi d'Estaon", "phone": "+34 693707981", "tourism": "alpine_hut", "website": "http://refugiestaon.com"}}, {"type": "Feature", "id": 4612362449, "geometry": {"type": "Point", "coordinates": [0.835364, 42.777541]}, "properties": {"building": "yes", "ele": "1586", "name": "Centre d'Educacion Ambientau - Refugi forestau deth Saut deth Pish", "tourism": "alpine_hut"}}, {"type": "Feature", "id": 4805315062, "geometry": {"type": "Point", "coordinates": [0.806607, 42.818297]}, "properties": {"addr:postcode": "25548", "ele": "1013", "name": "Refugi forestau dera Honeria", "note": "obertura: estiu 2021", "phone": "+34 973092354", "tourism": "alpine_hut", "website": "http://refugiohoneria.com"}}, {"type": "Feature", "id": 4818056002, "geometry": {"type": "Point", "coordinates": [0.763721, 42.627081]}, "properties": {"alt_name": "Refugi Hospital de Vielha (closed/tancat)", "disused": "yes", "name": "Refugi Espitau de Vielha (closed/tancat)", "tourism": "alpine_hut"}}, {"type": "Feature", "id": 5078828209, "geometry": {"type": "Point", "coordinates": [0.877392, 42.60531]}, "properties": {"alt_name": "Refugi Joan Ventosa i Calvell", "building": "yes", "capacity": "70", "ele": "2213.8", "name": "Refugi Ventosa i Calvell", "name:ca": "Refugi Ventosa i Calvell", "tourism": "alpine_hut", "website": "http://www.refugiventosa.com/", "wikidata": "Q17607035", "wikipedia": "ca:Refugi Joan Ventosa i Calvell"}}, {"type": "Feature", "id": 5582045191, "geometry": {"type": "Point", "coordinates": [0.492095, 42.512281]}, "properties": {"addr:city": "Castej\u00f3n de Sos", "addr:housenumber": "48", "addr:postcode": "22466", "addr:street": "Avenida El Ral", "description": "Duchas, agua caliente, calefacci\u00f3n, servicio de Comedor, edredones, biblioteca de monta\u00f1a y espacio de jard\u00edn. Dispone de habitaciones dobles. Abierto todo el a\u00f1o. N\u00ba Plazas: 35.Descuento para monta\u00f1eros federados y rec\u00edprocos: 15 % sobre el precio de sol", "email": "alberguepajaroloco2016@yahoo.com", "internet_access": "yes", "name": "Albergue P\u00e1jaro Loco", "phone": "+34 974 553 516", "tourism": "alpine_hut", "website": "https://www.pajaroloco.net"}}, {"type": "Feature", "id": 6624776590, "geometry": {"type": "Point", "coordinates": [0.619259, 42.832295]}, "properties": {"name": "G\u00eete d'\u00e9tape GR10", "tourism": "alpine_hut"}}, {"type": "Feature", "id": 7936150115, "geometry": {"type": "Point", "coordinates": [1.188298, 42.756952]}, "properties": {"capacity": "17", "description": "2016-09 : Gite d'\u00e9tape sans service de restauration (h\u00f4tel des Myrtilles \u00e0 proximit\u00e9), gestion libre avec \u00e9quipement adapt\u00e9. 3 gites de groupe de 5, 6 et 8 places sont aussi disponibles \u00e0 proximit\u00e9.", "drinking_water": "yes", "ele": "840", "email": "gites.couflens-salau-ariege@orange.fr", "name": "G\u00eete de Couflens Salau", "phone": "+33 5 61 66 90 61", "ref:refuges.info": "5624", "tourism": "alpine_hut"}}, {"type": "Feature", "id": 7941375566, "geometry": {"type": "Point", "coordinates": [1.338855, 42.791364]}, "properties": {"capacity": "20", "drinking_water": "yes", "ele": "750", "email": "contact@giteaulus.com", "name": "G\u00eete d'\u00e9tape Le Presbyt\u00e8re", "phone": "+33 5 61 96 02 21;+33 7 68 07 41 07", "ref:refuges.info": "3881", "tourism": "alpine_hut", "website": "http://www.giteaulus.com/index.html"}}, {"type": "Feature", "id": 9122820437, "geometry": {"type": "Point", "coordinates": [0.827363, 42.839436]}, "properties": {"name": "Cabane de Aoueran", "operator": "Mairie de Melles", "tourism": "alpine_hut"}}, {"type": "Feature", "id": 10281074364, "geometry": {"type": "Point", "coordinates": [0.773922, 42.7149]}, "properties": {"capacity": "40", "ele": "1630", "name": "Refugi Bassa d'Olles Era Piusa", "shower": "yes", "source": "website", "tourism": "alpine_hut", "website": "https://www.catalunya.com/bassa-dolles-era-piusa-17-13006-8?language=ca"}}, {"type": "Feature", "id": 11053760167, "geometry": {"type": "Point", "coordinates": [1.097658, 42.699816]}, "properties": {"access": "yes", "beds": "20", "cuisine": "catalan", "description": "food / drink / sleep", "email": "aventurajuntes@gmail.com", "internet_access": "wlan", "mobile": "+34617246258", "name": "Refugi d'Al\u00f3s", "operator": "Asociaci\u00f3 Al\u00f3s Cultural", "phone": "+34625223987", "reservation": "yes", "shower": "yes", "tourism": "alpine_hut"}}, {"type": "Feature", "id": 11190742937, "geometry": {"type": "Point", "coordinates": [0.54912, 42.71481]}, "properties": {"name": "Refuge de Maupas", "tourism": "alpine_hut"}}, {"type": "Feature", "id": 11740832116, "geometry": {"type": "Point", "coordinates": [1.383604, 42.653687]}, "properties": {"name": "Cabana de Sotllo", "tourism": "alpine_hut"}}, {"type": "Feature", "id": 96705271, "geometry": {"type": "LineString", "coordinates": [[0.49948, 42.730582], [0.499449, 42.730499], [0.499661, 42.730457], [0.499691, 42.73054], [0.49948, 42.730582]]}, "properties": {"beds": "60", "building": "yes", "ele": "1967", "fee": "yes", "internet_access": "no", "name": "Refuge d'Espingo", "operator": "Club Alpin Fran\u00e7ais", "phone": "+33 5 61 79 20 01", "ref:refuges.info": "6303", "reservation": "recommended", "toilets": "yes", "tourism": "alpine_hut", "website": "https://refugedespingo.ffcam.fr/", "winter_room": "15"}}, {"type": "Feature", "id": 115026754, "geometry": {"type": "LineString", "coordinates": [[0.490768, 42.744551], [0.490806, 42.744479], [0.490972, 42.744526], [0.490934, 42.744598], [0.490768, 42.744551]]}, "properties": {"building": "yes", "capacity": "25", "description": "2021-06 : -point d'eau -Douches -Tarif 1/2 pension 50 euros/pers -P\u00e9riode de gardiennage : 1/05 au 30/10 suivant conditions m\u00e9t\u00e9o -Aire de bivouac \u00e0 proximit\u00e9", "ele": "1440", "email": "jeromesalis@wanadoo.fr", "name": "Refuge du Lac d'O\u00f4", "phone": "+33 5 61 73 12 29", "ref:refuges.info": "7717", "tourism": "alpine_hut"}}, {"type": "Feature", "id": 125865278, "geometry": {"type": "LineString", "coordinates": [[1.039384, 42.637679], [1.039488, 42.637734], [1.039603, 42.637616], [1.039499, 42.637561], [1.039384, 42.637679]]}, "properties": {"building": "yes", "capacity": "50", "ele": "1550", "email": "refugidelgerdar@gmail.com", "name": "Refugi del Gerdar", "name:ca": "Refugi del Gerdar", "phone": "+34 619044476", "tourism": "alpine_hut", "website": "https://refugidelgerdar.com/", "wikidata": "Q11945103", "wikipedia": "ca:Refugi del Gerdar"}}, {"type": "Feature", "id": 127004547, "geometry": {"type": "LineString", "coordinates": [[1.418588, 42.803903], [1.418782, 42.803839], [1.418751, 42.803788], [1.418639, 42.803825], [1.418619, 42.803792], [1.418536, 42.803819], [1.418588, 42.803903]]}, "properties": {"access": "private", "building": "yes", "ele": "1420", "email": "ag.foix@onf.fr", "name": "Retrouvance Terre d'avenir", "operator": "ONF", "phone": "+33534098206", "tourism": "alpine_hut"}}, {"type": "Feature", "id": 143246711, "geometry": {"type": "LineString", "coordinates": [[0.934536, 42.834359], [0.934594, 42.834319], [0.934516, 42.834259], [0.934458, 42.8343], [0.934536, 42.834359]]}, "properties": {"building": "yes", "capacity": "18", "description": "Ouvert de mai \u00e0 septembre", "drinking_water": "yes", "ele": "1000", "email": "gite.eylie@wanadoo.fr", "name": "Gite d'\u00c9tape d'Eylie", "phone": "+33 5 61 96 14 00;+33 6 75 59 22 96", "ref:refuges.info": "7020", "tourism": "alpine_hut", "website": "https://giteseylie.jimdofree.com/gite-d-%C3%A9tape-refuge-18p/"}}, {"type": "Feature", "id": 143417686, "geometry": {"type": "LineString", "coordinates": [[0.873296, 42.834758], [0.873537, 42.83473], [0.873517, 42.834638], [0.873276, 42.834666], [0.873296, 42.834758]]}, "properties": {"beds": "52", "contact:email": "anourabarre@yahoo.fr info hiver", "description": "Gard\u00e9 de juin \u00e0 septembre", "drinking_water": "yes", "ele": "1965", "fee": "yes", "name": "Refuge Jacques Husson", "operator": "Club Alpin Fran\u00e7ais", "phone": "+33 5 61 96 73 73", "ref:refuges.info": "6292", "tourism": "alpine_hut", "website": "http://www.refuge-araing.fr/"}}, {"type": "Feature", "id": 169599070, "geometry": {"type": "LineString", "coordinates": [[0.420074, 42.72262], [0.419884, 42.722752], [0.419807, 42.722692], [0.419997, 42.72256], [0.420074, 42.72262]]}, "properties": {"building": "yes", "capacity": "40", "description": "Ouvert de juin \u00e0 octobre", "drinking_water": "yes", "ele": "1690", "email": "refugedelasoula@gmail.com", "name": "Refuge de la Soula", "phone": "+33 5 62 40 23 41", "ref:refuges.info": "6302", "source": "cadastre-dgi-fr source : Direction G\u00e9n\u00e9rale des Imp\u00f4ts - Cadastre. Mise \u00e0 jour : 2012", "tourism": "alpine_hut", "website": "https://www.refuge-lasoula.com/", "wikidata": "Q3423212"}}, {"type": "Feature", "id": 169778352, "geometry": {"type": "LineString", "coordinates": [[1.413454, 42.765391], [1.41345, 42.765346], [1.4134, 42.765356], [1.413405, 42.765375], [1.413381, 42.76538], [1.413317, 42.765324], [1.413293, 42.765272], [1.413434, 42.765237], [1.413441, 42.765249], [1.413556, 42.765224], [1.413579, 42.765277], [1.41367, 42.765257], [1.413689, 42.765303], [1.413592, 42.765324], [1.413608, 42.765368], [1.413538, 42.765386], [1.413541, 42.765396], [1.413496, 42.765398], [1.413454, 42.765391]]}, "properties": {"building": "yes", "capacity": "50", "charge": "Entre 15 et 45 euros", "drinking_water": "yes", "ele": "1653", "email": "refugedebassies@orange.fr", "fee": "yes", "image": "File:Refuge de bassies.JPG", "name": "Refuge de Bassi\u00e8s", "note": "49", "phone": "+33 6 89 40 65 00;+33 6 81 96 39 71", "ref:refuges.info": "3944", "source": "Association \"Refuges et cabanes des Pyr\u00e9n\u00e9es\"", "tourism": "alpine_hut", "website": "http://bassies.free.fr/"}}, {"type": "Feature", "id": 170679115, "geometry": {"type": "LineString", "coordinates": [[1.39644, 42.691381], [1.396414, 42.691322], [1.396458, 42.691312], [1.396449, 42.69129], [1.396606, 42.691252], [1.396616, 42.691273], [1.396656, 42.691263], [1.396696, 42.691352], [1.396534, 42.691391], [1.39652, 42.691361], [1.39644, 42.691381]]}, "properties": {"beds": "54", "building": "yes", "capacity": "54", "drinking_water": "yes", "ele": "2240", "email": "pinet9@gmail.com", "image": "File:Pinet.jpg", "name": "Refuge du Pinet", "name:ca": "Refugi de Pinet", "operator": "Club Alpin Fran\u00e7ais", "phone": "+33 5 61 64 80 81", "ref:refuges.info": "3942", "source": "Association \"Refuges et cabanes des Pyr\u00e9n\u00e9es\"", "tourism": "alpine_hut", "website": "https://refugeetangpinet.ffcam.fr/", "wikidata": "Q18367416", "wikipedia": "fr:Refuge du Pinet", "winter_room": "20"}}, {"type": "Feature", "id": 173110833, "geometry": {"type": "LineString", "coordinates": [[1.306375, 42.703919], [1.306392, 42.703834], [1.306578, 42.703855], [1.306564, 42.70392], [1.306517, 42.703914], [1.306512, 42.703934], [1.306375, 42.703919]]}, "properties": {"building": "yes", "capacity": "40", "drinking_water": "yes", "ele": "2240", "email": "certascan.refugi@feec.cat", "fee": "yes", "name": "Refugi de Certascan", "name:ca": "Refugi de Certascan", "name:fr": "Refuge de Certascan", "operator": "Federacio d'Entitats Excursionistes de Catalunya", "phone": "+34 973092315", "phone:mobile": "+34 647961946", "ref:refuges.info": "5361", "reservation": "recommended", "shower": "yes", "start_date": "25/09/1988", "toilets": "yes", "tourism": "alpine_hut", "website": "http://www.refugicertascan.cat", "wikidata": "Q11945076", "wikipedia": "ca:Refugi de Certascan", "winter_room": "20"}}, {"type": "Feature", "id": 181355727, "geometry": {"type": "LineString", "coordinates": [[1.001252, 42.519556], [1.001391, 42.519512], [1.001327, 42.519403], [1.001188, 42.519447], [1.001252, 42.519556]]}, "properties": {"access": "yes", "amenity": "shelter", "building": "yes", "capacity": "49", "description:fr": "2016-03 : P\u00e9riode de gardiennage : - De la mi-juin \u00e0 la fin Septembre - R\u00e9servation possible hors p\u00e9riode estivale. Hors p\u00e9riode de gardiennage : - 9 places ouvertes dans la salle hors sac (matelas, couvertures).", "ele": "2425", "email": "colomina.refugi@feec.cat", "fee": "yes", "internet_access": "wlan", "name": "Refugi Colomina", "name:ca": "Refugi de Colomina", "name:fr": "Refuge de Colomina", "operator": "Federaci\u00f3 d'Entitats Excursionistes de Catalunya", "phone": "+34 973252000", "ref:refuges.info": "5464", "shower": "yes", "toilets": "yes", "tourism": "alpine_hut", "website": "http://www.refugicolomina.com", "wikidata": "Q11945081", "wikipedia": "ca:Refugi de Colomina", "winter_room": "yes"}}, {"type": "Feature", "id": 188469292, "geometry": {"type": "LineString", "coordinates": [[0.704627, 42.678586], [0.704779, 42.678625], [0.704833, 42.678511], [0.704681, 42.678472], [0.704627, 42.678586]]}, "properties": {"building": "yes", "capacity": "28", "ele": "1466", "name": "Refugi dera Artiga de Lin", "name:ca": "Refugi dera Artiga de Lin", "name:en": "Artiga de Lin Refuge", "name:es": "Refugio dera Artiga de Lin", "name:fr": "Refuge de l'Artiga du Lin", "phone": "+34 662594444", "ref:refuges.info": "8649", "tourism": "alpine_hut", "website": "https://artigadelin.com/", "wikidata": "Q18006169", "wikipedia": "ca:Refugi d'Artiga de Lin"}}, {"type": "Feature", "id": 188492298, "geometry": {"type": "LineString", "coordinates": [[0.768074, 42.615293], [0.768177, 42.615141], [0.768304, 42.615187], [0.768202, 42.615339], [0.768074, 42.615293]]}, "properties": {"building": "yes", "capacity": "36", "description": "El Refugio de Conangles pone a disposici\u00f3n de los clientes los siguientes servicios: Bar, comedor terraza al lado del r\u00edo y del bosque, ducha de agua caliente, mantas y sabanas en las camas, calefacci\u00f3n en habitaciones y zonas comunes, chimenea de le\u00f1a, w", "description:fr": "2018-06 : Refuge gard\u00e9 toute l'ann\u00e9e. - Douches chaudes - \u00c9lectricit\u00e9 - Restauration (r\u00e9servation n\u00e9cessaire) - Couverture mobile - Feux \u00e0 l'ext\u00e9rieur possibles.", "drinking_water": "yes", "ele": "1555", "email": "info@refusonline.com", "fee": "yes", "name": "Refugi de Conangles", "operator": "Conselh Generau d\u2019Aran", "phone": "+34 696 649 871", "ref:refuges.info": "5879", "reservation": "recommended", "shower": "yes", "toilets": "yes", "tourism": "alpine_hut", "website": "https://www.lacentralderefugis.com/refugios/conangles/", "wikidata": "Q98713239", "wikipedia": "ca:Refugi de Conangles", "winter_room": "no"}}, {"type": "Feature", "id": 190294527, "geometry": {"type": "LineString", "coordinates": [[1.242203, 42.406914], [1.242067, 42.406884], [1.242002, 42.407049], [1.242138, 42.407078], [1.242203, 42.406914]]}, "properties": {"building": "yes", "capacity": "50", "drinking_water": "yes", "ele": "1980", "email": "info@refugicomesderubio.com", "fee": "yes", "mobile": "+34 677065773", "name": "Refugi de les Comes de Rubi\u00f3", "name:ca": "Refugi de Comes de Rubi\u00f3", "phone": "+34 973107475", "reservation": "recommended", "shower": "yes", "toilets": "yes", "tourism": "alpine_hut", "website": "https://www.refugicomesderubio.com/", "wikidata": "Q18006177", "wikipedia": "ca:Refugi de Comes de Rubi\u00f3", "winter_room": "4"}}, {"type": "Feature", "id": 218355422, "geometry": {"type": "LineString", "coordinates": [[0.518497, 42.809453], [0.518627, 42.809523], [0.519209, 42.809775], [0.519235, 42.809786], [0.519253, 42.809754], [0.519328, 42.809774], [0.519724, 42.809883], [0.519886, 42.809781], [0.520182, 42.809326], [0.519138, 42.808955], [0.519111, 42.809047], [0.519111, 42.809093], [0.519099, 42.809105], [0.519066, 42.809135], [0.518942, 42.809252], [0.518652, 42.809242], [0.518497, 42.809453]]}, "properties": {"description": "Chalets for hire, not a campsite", "name": "Camping Les Fr\u00eanes", "phone": "+33 5 61 79 88 44", "stars": "2", "tourism": "alpine_hut", "website": "http://www.chalets-luchon-peyragudes.com/"}}, {"type": "Feature", "id": 220270171, "geometry": {"type": "LineString", "coordinates": [[0.65066, 42.669407], [0.650702, 42.669464], [0.650812, 42.66942], [0.65084, 42.669457], [0.650949, 42.669414], [0.65088, 42.66932], [0.650901, 42.669312], [0.650848, 42.669241], [0.650817, 42.669253], [0.650753, 42.669166], [0.650667, 42.669201], [0.650783, 42.669358], [0.65066, 42.669407]]}, "properties": {"addr:city": "Benasque", "addr:postcode": "22440", "building": "yes", "capacity": "92", "description": "El Refugio de la Renclusa es un refugio de monta\u00f1a situado en la vertiente norte del macizo de la Maladeta, el m\u00e1s alto de la ladera sur del Pirineo.", "ele": "2138", "email": "refugiorenclusa@hotmail.com", "internet_access": "no", "name": "Refugio de la Renclusa", "name:ca": "Refugi de la Renclusa", "name:en": "Renclusa Refuge", "name:es": "Refugio de la Renclusa", "name:fr": "Refuge de la Rencluse", "operator": "FAM", "phone": "+974 344 646", "ref:refuges.info": "5620", "shower": "yes", "tourism": "alpine_hut", "website": "https://www.alberguesyrefugios.com/larenclusa/", "wikidata": "Q390006", "wikipedia": "es:Refugio de la Renclusa"}}, {"type": "Feature", "id": 231866443, "geometry": {"type": "LineString", "coordinates": [[0.485171, 42.675638], [0.485318, 42.675607], [0.485303, 42.675567], [0.485277, 42.675504], [0.485259, 42.67546], [0.485111, 42.675492], [0.485171, 42.675638]]}, "properties": {"amenity": "shelter", "building": "yes", "building:levels": "3", "capacity": "100", "description:fr": "2017-07 : - Eau courante - Douches chaudes - Nuit\u00e9e \u00e0 16,80\u20ac en 2017 - Gard\u00e9e 365 jours par an", "ele": "1890", "email": "info@refugiodeestos.com", "name": "Refugio de Est\u00f3s", "name:ca": "Refugi d'Est\u00f3s", "name:es": "Refugio de Est\u00f3s", "operator": "FAM", "phone": "+34 974 344 515", "ref:refuges.info": "5871", "tourism": "alpine_hut", "website": "http://www.refugiodeestos.com/web/index.html", "wikidata": "Q19368208", "wikipedia": "es:Refugio de Est\u00f3s"}}, {"type": "Feature", "id": 247899251, "geometry": {"type": "LineString", "coordinates": [[1.235111, 42.670705], [1.235058, 42.670598], [1.235155, 42.670572], [1.235208, 42.670678], [1.235111, 42.670705]]}, "properties": {"building": "yes", "capacity": "30", "drinking_water": "yes", "email": "info@bordesdegraus.com", "name": "Masia Bordes de Graus", "name:ca": "Masia Bordes de Graus", "name:fr": "Refuge Bordes de Graus", "phone": "+34 973 623 246;+34 637 984 805", "ref:refuges.info": "5360", "tourism": "alpine_hut", "website": "https://bordesdegraus.com/"}}, {"type": "Feature", "id": 256007103, "geometry": {"type": "LineString", "coordinates": [[0.476651, 42.469618], [0.476675, 42.469573], [0.476741, 42.469594], [0.476717, 42.469639], [0.476651, 42.469618]]}, "properties": {"tourism": "alpine_hut"}}, {"type": "Feature", "id": 260506640, "geometry": {"type": "LineString", "coordinates": [[0.920774, 42.624358], [0.920809, 42.624356], [0.920802, 42.62431], [0.920767, 42.624312], [0.920765, 42.624295], [0.920661, 42.624303], [0.920659, 42.624295], [0.920606, 42.624299], [0.920607, 42.624307], [0.92058, 42.624309], [0.920598, 42.624438], [0.920692, 42.624431], [0.920686, 42.624386], [0.920777, 42.624379], [0.920774, 42.624358]]}, "properties": {"building": "yes", "capacity": "60", "dog": "no", "drinking_water": "yes", "ele": "2135", "fee": "yes", "name": "Refugi de Colom\u00e8rs", "name:ca": "Refugi de Colom\u00e8rs", "name:es": "Refugio de Colomers", "name:fr": "Refuge de Colomers", "operator": "Conselh Generau d\u2019Aran", "payment:cash": "only", "phone": "+34 973253008", "ref:refuges.info": "5468", "reservation": "recommended", "shower": "yes", "start_date": "2008", "toilets": "yes", "tourism": "alpine_hut", "website": "https://www.refugicolomers.com/", "wikidata": "Q18006175", "wikipedia": "ca:Refugi de Colomers", "winter_room": "12"}}, {"type": "Feature", "id": 284697924, "geometry": {"type": "LineString", "coordinates": [[1.387763, 42.625225], [1.38787, 42.625217], [1.387866, 42.625189], [1.387948, 42.625183], [1.38795, 42.625196], [1.388007, 42.625192], [1.387996, 42.625108], [1.38794, 42.625112], [1.387941, 42.625119], [1.387751, 42.625132], [1.387763, 42.625225]]}, "properties": {"access": "yes", "building": "yes", "capacity": "60", "drinking_water": "yes", "ele": "1940", "fee": "yes", "internet_access": "yes", "name": "Refugi de Vallferrera", "name:ca": "Refugi de Vallferrera", "operator": "Federaci\u00f3 d'Entitats Excursionistes de Catalunya", "phone": "+34 669 532 513;+34 973 624 378", "ref:refuges.info": "5351", "reservation": "recommended", "shower": "yes", "toilets": "yes", "tourism": "alpine_hut", "website": "https://www.feec.cat/refugi/refugi-vallferrera/", "wikidata": "Q11945097", "wikipedia": "ca:Refugi de Vall Ferrera", "winter_room": "yes"}}, {"type": "Feature", "id": 320563817, "geometry": {"type": "LineString", "coordinates": [[0.457296, 42.627348], [0.457264, 42.627399], [0.457237, 42.62739], [0.457197, 42.627454], [0.457457, 42.62754], [0.457495, 42.627478], [0.457543, 42.627493], [0.457575, 42.627441], [0.457296, 42.627348]]}, "properties": {"alt_name": "El Forcau", "alt_name:ca": "El Forcau", "alt_name:en": "El Forcau", "alt_name:es": "El Forcau", "amenity": "shelter", "building": "yes", "ele": "2150", "email": "info@refugioangelorus.com", "internet_access": "wlan", "internet_access:fee": "no", "name": "Refugio \u00c1ngel Or\u00fas", "name:ca": "Refugi \u00c0ngel Or\u00fas", "name:en": "Refuge Angel Orus", "name:es": "Refugio \u00c1ngel Or\u00fas", "name:fr": "Refuge Angel Orus", "note": "146", "operator": "FAM", "phone": "+34 974 344 044", "ref:refuges.info": "5846", "shelter_type": "building", "source": "Association \"Refuges et cabanes des Pyr\u00e9n\u00e9es", "tourism": "alpine_hut", "website": "http://www.refugioangelorus.com/", "wikidata": "Q27190844", "wikipedia": "es:Refugio \u00c1ngel Or\u00fas"}}, {"type": "Feature", "id": 326817179, "geometry": {"type": "LineString", "coordinates": [[0.508049, 42.703937], [0.508248, 42.703849], [0.508177, 42.703762], [0.507978, 42.703849], [0.508049, 42.703937]]}, "properties": {"beds": "80", "building": "yes", "description": "2021-01 : -Eau courante -Douches -p\u00e9riode de gardiennage : fin juin \u00e0 mi-octobre -pr\u00e9sence d'une partie non gard\u00e9 : 30 couchages -po\u00eale, vaisselle, isolation, point d'eau, matelas pour la partie non gard\u00e9e", "ele": "2570", "name": "Refuge du Portillon", "name:es": "Refugio del Portill\u00f3n", "operator": "Club Alpin Fran\u00e7ais", "phone": "+33 5 61 79 38 15", "ref:refuges.info": "7367", "tourism": "alpine_hut", "website": "https://refugeduportillon.ffcam.fr/", "winter_room": "30"}}, {"type": "Feature", "id": 337541661, "geometry": {"type": "LineString", "coordinates": [[1.044173, 42.545682], [1.044015, 42.545609], [1.043946, 42.545692], [1.044129, 42.545776], [1.044179, 42.545716], [1.044153, 42.545704], [1.044173, 42.545682]]}, "properties": {"access": "yes", "building": "yes", "capacity": "60", "ele": "2320", "fee": "yes", "internet_access": "wlan", "internet_access:fee": "no", "name": "Refugi Josep Maria Blanc", "name:ca": "Refugi Josep Maria Blanc", "operator": "Centre Excursionista de Catalunya", "phone": "+34 973 250 108", "reservation": "recommended", "shower": "yes", "toilets": "yes", "tourism": "alpine_hut", "website": "https://www.jmblanc.com/", "wikidata": "Q17607056", "wikipedia": "ca:Refugi Josep Maria Blanc", "winter_room": "4"}}, {"type": "Feature", "id": 339878528, "geometry": {"type": "LineString", "coordinates": [[1.306899, 42.520981], [1.307044, 42.521082], [1.307004, 42.521113], [1.30703, 42.521132], [1.306945, 42.521197], [1.30685, 42.52113], [1.306877, 42.52111], [1.306801, 42.521057], [1.306899, 42.520981]]}, "properties": {"building": "yes", "capacity": "40", "drinking_water": "yes", "ele": "1690", "email": "refugigallfer@gmail.com", "fee": "yes", "internet_access": "no", "name": "Refugi Gall Fer", "name:ca": "Refugi Gall Fer", "operator": "EMD d'Ainet de Besan i EMD d'Ara\u00f3s (Ajuntament d'Alins)", "phone": "+34 654757221", "phone:mobile": "+34 686978730", "reservation": "recommended", "shelter": "yes", "shower": "yes", "toilets": "yes", "tourism": "alpine_hut", "wikidata": "Q11945104", "wikipedia": "ca:Refugi del Gall Fer"}}, {"type": "Feature", "id": 362846877, "geometry": {"type": "LineString", "coordinates": [[1.072401, 42.797425], [1.072416, 42.79745], [1.072281, 42.797495], [1.072253, 42.797449], [1.072279, 42.797441], [1.072246, 42.797385], [1.07234, 42.797355], [1.072356, 42.797349], [1.072367, 42.797367], [1.072405, 42.797354], [1.072391, 42.797333], [1.072509, 42.797294], [1.072549, 42.797359], [1.072506, 42.797373], [1.07252, 42.797397], [1.072482, 42.79741], [1.072492, 42.797426], [1.072438, 42.797443], [1.072423, 42.797418], [1.072401, 42.797425]]}, "properties": {"addr:city": "Saverdun", "addr:postcode": "09700", "addr:street": "Pedescau", "building": "yes", "capacity": "72", "description": "Gard\u00e9 de juin \u00e0 septembre", "ele": "2246", "email": "refuge.estagnous@gmail.com", "name": "Refuge \u00abLes Estagnous\u00bb", "phone": "+33 5 61 96 76 22", "ref:FR:pyrenees_refuges": "129", "ref:refuges.info": "5434", "source": "Association \"Refuges et cabanes des Pyr\u00e9n\u00e9es\"", "tourism": "alpine_hut", "website": "https://refuge-les-estagnous.com/es/inicio/", "winter_room": "20"}}, {"type": "Feature", "id": 363192824, "geometry": {"type": "LineString", "coordinates": [[1.031448, 42.922508], [1.031491, 42.92253], [1.03147, 42.922567], [1.031427, 42.922545], [1.031448, 42.922508]]}, "properties": {"building": "yes", "name": "Halte Jacquaire", "source": "cadastre-dgi-fr source : Direction G\u00e9n\u00e9rale des Finances Publiques - Cadastre. Mise \u00e0 jour : 2015", "tourism": "alpine_hut"}}, {"type": "Feature", "id": 366918617, "geometry": {"type": "LineString", "coordinates": [[0.994533, 42.759419], [0.994381, 42.759361], [0.994362, 42.759389], [0.994332, 42.759378], [0.99431, 42.759409], [0.994339, 42.75942], [0.994326, 42.759438], [0.994479, 42.759496], [0.994533, 42.759419]]}, "properties": {"addr:postcode": "25598", "building": "yes", "ele": "1648", "name": "Refugi Amics de Montgarri", "name:ca": "Refugi Amics de Montgarri", "name:oc": "Refugi Amics de Montgarri", "phone": "+34 639494546", "tourism": "alpine_hut", "website": "https://www.refugimontgarri.com/"}}, {"type": "Feature", "id": 390374444, "geometry": {"type": "LineString", "coordinates": [[0.683041, 42.596341], [0.683066, 42.59626], [0.683231, 42.596288], [0.683251, 42.596273], [0.683286, 42.596248], [0.683202, 42.596193], [0.683287, 42.596122], [0.683368, 42.596176], [0.683405, 42.596181], [0.683404, 42.5962], [0.683442, 42.596225], [0.683357, 42.596295], [0.683323, 42.596272], [0.683291, 42.596299], [0.683266, 42.59638], [0.683041, 42.596341]]}, "properties": {"building": "yes", "capacity": "86", "description": "Es el refugio de monta\u00f1a guardado todo el a\u00f1o m\u00e1s elevado del Pirineo (2425 m), quedando rodeado en su zona septentrional y occidental por varias cimas de 3000m, incluido el Aneto. Est\u00e1 protegido de avalanchas, y soleado la mayor parte del d\u00eda.", "description:fr": "2018-06 : * Eau potable * Douches chaudes * Radio / T\u00e9l\u00e9 ... tout confort * Gard\u00e9 365 jours par an", "ele": "2425", "email": "refugiocapdellauset@gmail.com", "fee": "yes", "internet_access": "wlan", "internet_access:fee": "customers", "name": "Refugio Cap de Llauset", "name:ca": "Refugi Cap de Llauset", "name:es": "Refugio Cap de Llauset", "phone": "+34 974 12 04 00", "ref:refuges.info": "5877", "tourism": "alpine_hut", "website": "https://refugiodellauset.es/", "wikidata": "Q27705296", "wikipedia": "es:Refugio Cap de Llauset"}}, {"type": "Feature", "id": 400747091, "geometry": {"type": "LineString", "coordinates": [[0.854624, 42.634791], [0.854534, 42.634728], [0.854673, 42.634621], [0.854763, 42.634685], [0.854624, 42.634791]]}, "properties": {"building": "yes", "capacity": "80", "description:fr": "2017-07 : - Eau courante - Douches chaudes - Nuit\u00e9e \u00e0 18,00\u20ac en 2017 - Gard\u00e9 de d\u00e9but juin \u00e0 fin septembre - Refuge d'hiver de 8 places (matelas / couvertures)", "ele": "2010", "name": "Refugi de la Restanca", "name:ca": "Refugi de la Restanca", "name:fr": "Refuge de la Restanque", "phone": "+34 608 036 559", "ref:refuges.info": "5882", "tourism": "alpine_hut", "website": "http://restanca.com", "wikidata": "Q11945099", "wikipedia": "ca:Refugi de la Restanca", "winter_room": "8"}}, {"type": "Feature", "id": 401595513, "geometry": {"type": "LineString", "coordinates": [[0.984741, 42.596622], [0.984719, 42.596612], [0.984758, 42.596567], [0.984698, 42.596539], [0.984659, 42.596584], [0.984643, 42.596577], [0.984616, 42.596608], [0.984592, 42.596597], [0.984469, 42.59674], [0.984497, 42.596753], [0.984487, 42.596766], [0.984556, 42.596798], [0.98457, 42.596781], [0.984595, 42.596792], [0.984741, 42.596622]]}, "properties": {"access": "yes", "amenity": "shelter", "building": "yes", "capacity": "74", "description:fr": "2016-02 : Services : - Restauration/boissons - Douche chaude (payante 1\u20ac) - Poste radio de secours - Service de taxi du \"Parc National\" Lorsque le refuge est non gard\u00e9 : - Refuge d'hiver ouvert avec 12 places (matelas, couverture) - Po\u00eale \u00e0 gaz", "ele": "2370", "email": "info@amitges.com", "fee": "yes", "internet_access": "wlan", "internet_access:fee": "no", "name": "Refugi d'Amitges", "name:ca": "Refugi d'Amitges", "name:fr": "Refuge d'Amitges", "operator": "Centre Excrusionista de Catalunya", "phone": "+34 973 250 109", "ref:refuges.info": "5417", "shower": "yes", "toilets": "yes", "tourism": "alpine_hut", "website": "https://www.amitges.com/", "wikidata": "Q11945070", "wikipedia": "ca:Refugi d'Amitges", "winter_room": "12"}}, {"type": "Feature", "id": 401596955, "geometry": {"type": "LineString", "coordinates": [[0.963305, 42.621061], [0.963325, 42.621123], [0.963381, 42.621113], [0.963376, 42.621097], [0.963449, 42.621084], [0.963427, 42.621019], [0.963384, 42.621027], [0.963391, 42.621046], [0.963305, 42.621061]]}, "properties": {"access": "yes", "building": "yes", "capacity": "28", "drinking_water": "yes", "ele": "2298", "fee": "yes", "internet_access": "wlan", "name": "Refugi de Saboredo", "name:ca": "Refugi de Saboredo", "phone": "+34 661357716", "ref:refuges.info": "5463", "shower": "yes", "toilets": "yes", "tourism": "alpine_hut", "website": "https://www.refusaboredo.com", "wikidata": "Q11945089", "wikipedia": "ca:Refugi de Saboredo", "winter_room": "yes"}}, {"type": "Feature", "id": 434583436, "geometry": {"type": "LineString", "coordinates": [[1.33579, 42.790695], [1.335864, 42.790796], [1.335811, 42.790818], [1.335716, 42.790858], [1.335658, 42.790882], [1.335584, 42.790781], [1.33579, 42.790695]]}, "properties": {"building": "yes", "name": "G\u00eete d'Etape La Goulue", "source": "cadastre-dgi-fr source : Direction G\u00e9n\u00e9rale des Finances Publiques - Cadastre. Mise \u00e0 jour : 2016", "tourism": "alpine_hut"}}, {"type": "Feature", "id": 435668090, "geometry": {"type": "LineString", "coordinates": [[1.20633, 42.789651], [1.206349, 42.789648], [1.206408, 42.789636], [1.206429, 42.789709], [1.206354, 42.789724], [1.20633, 42.789651]]}, "properties": {"building": "yes", "name": "G\u00eete d'\u00e9tape et de s\u00e9jour de Rouze d'Ustou", "source": "cadastre-dgi-fr source : Direction G\u00e9n\u00e9rale des Finances Publiques - Cadastre. Mise \u00e0 jour : 2016", "tourism": "alpine_hut", "website": "https://www.ferme-de-rouze.fr/"}}, {"type": "Feature", "id": 1190012180, "geometry": {"type": "LineString", "coordinates": [[0.641745, 42.70031], [0.642094, 42.700253], [0.642073, 42.700172], [0.641893, 42.700203], [0.641845, 42.700176], [0.641801, 42.700221], [0.641722, 42.700232], [0.641745, 42.70031]]}, "properties": {"beds": "36", "building": "yes", "name": "Refuge de V\u00e9nasque", "operator": "Club Alpin Fran\u00e7ais", "phone": "+33 9 87 88 14 69", "tourism": "alpine_hut", "website": "https://refugedevenasque.ffcam.fr/", "wikidata": "Q3423185", "wikipedia": "fr:Refuge de V\u00e9nasque"}}]}